{"type":"FeatureCollection","name":"aviones_en_vuelo_argentina","updated_utc":"2026-10-07T08:50:18Z","source":"ADSB.lol /v2/point","bbox_query":{"lat_min":-56.5,"lon_min":-76.5,"lat_max":-20.0,"lon_max":-50.0},"query_radius_nm":250,"query_points":[{"id":"BuenosAires","lat":-34.6037,"lon":-58.3816},{"id":"LaPlata","lat":-34.9214,"lon":-57.9544},{"id":"MarDelPlata","lat":-38.0055,"lon":-57.5426},{"id":"Viedma","lat":-40.8135,"lon":-62.9967},{"id":"BahiaBlanca","lat":-38.7196,"lon":-62.2724},{"id":"SantaRosa","lat":-36.6203,"lon":-64.2906},{"id":"Cordoba","lat":-31.4201,"lon":-64.1888},{"id":"RioCuarto","lat":-33.1232,"lon":-64.3493},{"id":"Mendoza","lat":-32.8895,"lon":-68.8458},{"id":"SanJuan","lat":-31.5375,"lon":-68.5364},{"id":"SanLuis","lat":-33.3017,"lon":-66.3378},{"id":"Tucuman","lat":-26.8083,"lon":-65.2176},{"id":"Salta","lat":-24.7821,"lon":-65.4232},{"id":"Jujuy","lat":-24.1858,"lon":-65.2995},{"id":"Catamarca","lat":-28.4696,"lon":-65.7795},{"id":"LaRioja","lat":-29.4131,"lon":-66.8558},{"id":"Resistencia","lat":-27.4514,"lon":-58.9867},{"id":"Corrientes","lat":-27.4692,"lon":-58.8306},{"id":"Formosa","lat":-26.1849,"lon":-58.1731},{"id":"Iguazu","lat":-25.5972,"lon":-54.5786},{"id":"Posadas","lat":-27.3621,"lon":-55.9009},{"id":"Neuquen","lat":-38.9516,"lon":-68.0591},{"id":"SanMartinAndes","lat":-40.1579,"lon":-71.3524},{"id":"Bariloche","lat":-41.1335,"lon":-71.3103},{"id":"Esquel","lat":-42.9115,"lon":-71.3195},{"id":"Trelew","lat":-43.2489,"lon":-65.3051},{"id":"PuertoMadryn","lat":-42.7692,"lon":-65.0385},{"id":"ComodoroRivadavia","lat":-45.8656,"lon":-67.4822},{"id":"PeritoMoreno","lat":-46.5899,"lon":-70.9297},{"id":"ElCalafate","lat":-50.3379,"lon":-72.2648},{"id":"RioGallegos","lat":-51.623,"lon":-69.2168},{"id":"RioGrande","lat":-53.7857,"lon":-67.7016},{"id":"Ushuaia","lat":-54.8019,"lon":-68.303},{"id":"Malvinas","lat":-51.7,"lon":-59.0},{"id":"AtlanticoSurNorte","lat":-45.5,"lon":-58.0},{"id":"AtlanticoSurCentro","lat":-49.0,"lon":-58.5},{"id":"Montevideo","lat":-34.9011,"lon":-56.1645},{"id":"SantiagoChile","lat":-33.4489,"lon":-70.6693},{"id":"Asuncion","lat":-25.2637,"lon":-57.5759}],"total_features":23,"total_with_route":0,"route_note":"Datos combinados desde fuentes abiertas ADS-B. Las rutas dependen de la disponibilidad de origen/destino en cada fuente.","fallback_used":false,"source_errors":[{"source":"Airplanes.live /v2/point","error":"No respondió ningún punto de Airplanes.live /v2/point: [{'point': 'BuenosAires', 'error': 'HTTP Error 403: Forbidden'}, {'point': 'LaPlata', 'error': 'HTTP Error 403: Forbidden'}, {'point': 'MarDelPlata', 'error': 'HTTP Error 403: Forbidden'}, {'point': 'Viedma', 'error': 'HTTP Error 403: Forbidden'}, {'point': 'BahiaBlanca', 'error': 'HTTP Error 403: Forbidden'}, {'point': 'SantaRosa', 'error': 'HTTP Error 403: Forbidden'}, {'point': 'Cordoba', 'error': 'HTTP Error 403: Forbidden'}, {'point': 'RioCuarto', 'error': 'HTTP Error 403: Forbidden'}, {'point': 'Mendoza', 'error': 'HTTP Error 403: Forbidden'}, {'point': 'SanJuan', 'error': 'HTTP Error 403: Forbidden'}, {'point': 'SanLuis', 'error': 'HTTP Error 403: Forbidden'}, {'point': 'Tucuman', 'error': 'HTTP Error 403: Forbidden'}, {'point': 'Salta', 'error': 'HTTP Error 403: Forbidden'}, {'point': 'Jujuy', 'error': 'HTTP Error 403: Forbidden'}, {'point': 'Catamarca', 'error': 'HTTP Error 403: Forbidden'}, {'point': 'LaRioja', 'error': 'HTTP Error 403: Forbidden'}, {'point': 'Resistencia', 'error': 'HTTP Error 403: Forbidden'}, {'point': 'Corrientes', 'error': 'HTTP Error 403: Forbidden'}, {'point': 'Formosa', 'error': 'HTTP Error 403: Forbidden'}, {'point': 'Iguazu', 'error': 'HTTP Error 403: Forbidden'}, {'point': 'Posadas', 'error': 'HTTP Error 403: Forbidden'}, {'point': 'Neuquen', 'error': 'HTTP Error 403: Forbidden'}, {'point': 'SanMartinAndes', 'error': 'HTTP Error 403: Forbidden'}, {'point': 'Bariloche', 'error': 'HTTP Error 403: Forbidden'}, {'point': 'Esquel', 'error': 'HTTP Error 403: Forbidden'}, {'point': 'Trelew', 'error': 'HTTP Error 403: Forbidden'}, {'point': 'PuertoMadryn', 'error': 'HTTP Error 403: Forbidden'}, {'point': 'ComodoroRivadavia', 'error': 'HTTP Error 403: Forbidden'}, {'point': 'PeritoMoreno', 'error': 'HTTP Error 403: Forbidden'}, {'point': 'ElCalafate', 'error': 'HTTP Error 403: Forbidden'}, {'point': 'RioGallegos', 'error': 'HTTP Error 403: Forbidden'}, {'point': 'RioGrande', 'error': 'HTTP Error 403: Forbidden'}, {'point': 'Ushuaia', 'error': 'HTTP Error 403: Forbidden'}, {'point': 'Malvinas', 'error': 'HTTP Error 403: Forbidden'}, {'point': 'AtlanticoSurNorte', 'error': 'HTTP Error 403: Forbidden'}, {'point': 'AtlanticoSurCentro', 'error': 'HTTP Error 403: Forbidden'}, {'point': 'Montevideo', 'error': 'HTTP Error 403: Forbidden'}, {'point': 'SantiagoChile', 'error': 'HTTP Error 403: Forbidden'}, {'point': 'Asuncion', 'error': 'HTTP Error 403: Forbidden'}]"}],"point_errors":[{"point":"Cordoba","error":"HTTP Error 429: Too Many Requests"},{"point":"Mendoza","error":"HTTP Error 429: Too Many Requests"},{"point":"Salta","error":"HTTP Error 429: Too Many Requests"},{"point":"Catamarca","error":"HTTP Error 429: Too Many Requests"},{"point":"Resistencia","error":"HTTP Error 429: Too Many Requests"},{"point":"Formosa","error":"HTTP Error 429: Too Many Requests"},{"point":"Iguazu","error":"HTTP Error 429: Too Many Requests"},{"point":"Posadas","error":"HTTP Error 429: Too Many Requests"},{"point":"Neuquen","error":"HTTP Error 429: Too Many Requests"},{"point":"SanMartinAndes","error":"HTTP Error 429: Too Many Requests"},{"point":"Esquel","error":"HTTP Error 429: Too Many Requests"},{"point":"PuertoMadryn","error":"HTTP Error 429: Too Many Requests"},{"point":"ComodoroRivadavia","error":"HTTP Error 429: Too Many Requests"},{"point":"PeritoMoreno","error":"HTTP Error 429: Too Many Requests"},{"point":"ElCalafate","error":"HTTP Error 429: Too Many Requests"},{"point":"RioGallegos","error":"HTTP Error 429: Too Many Requests"},{"point":"RioGrande","error":"HTTP Error 429: Too Many Requests"},{"point":"Ushuaia","error":"HTTP Error 429: Too Many Requests"},{"point":"Malvinas","error":"HTTP Error 429: Too Many Requests"},{"point":"AtlanticoSurNorte","error":"HTTP Error 429: Too Many Requests"},{"point":"AtlanticoSurCentro","error":"HTTP Error 429: Too Many Requests"},{"point":"Montevideo","error":"HTTP Error 429: Too Many Requests"},{"point":"SantiagoChile","error":"HTTP Error 429: Too Many Requests"}],"features":[{"type":"Feature","geometry":{"type":"Point","coordinates":[-61.274956,-32.660259]},"properties":{"icao24":"e082d6","callsign":"ARG1548","registration":"LV-HKV","aircraft_type":"B38M","origin_country":null,"origin_iata":null,"destination_iata":null,"route_label":null,"route_available":false,"route_source":null,"baro_altitude_ft":38000,"baro_altitude_m":11582.4,"geo_altitude_ft":38950,"geo_altitude_m":11872.0,"velocity_kt":383.3,"velocity_ms":null,"velocity_kmh":709.9,"true_track":300.58,"vertical_rate_fpm":0,"vertical_rate_ms":null,"squawk":"1704","emergency":"none","category":"A3","source_type":"ADSB.lol /v2/point","seen_seconds":0.1,"seen_position_seconds":0.089,"on_ground":false}},{"type":"Feature","geometry":{"type":"Point","coordinates":[-61.176959,-36.422983]},"properties":{"icao24":"e03503","callsign":"ARG1984","registration":"LV-CTC","aircraft_type":"B738","origin_country":null,"origin_iata":null,"destination_iata":null,"route_label":null,"route_available":false,"route_source":null,"baro_altitude_ft":34000,"baro_altitude_m":10363.2,"geo_altitude_ft":34650,"geo_altitude_m":10561.3,"velocity_kt":421.7,"velocity_ms":null,"velocity_kmh":781.0,"true_track":237.59,"vertical_rate_fpm":0,"vertical_rate_ms":null,"squawk":"1630","emergency":"none","category":"A3","source_type":"ADSB.lol /v2/point","seen_seconds":0.0,"seen_position_seconds":0.041,"on_ground":false}},{"type":"Feature","geometry":{"type":"Point","coordinates":[-60.967914,-31.166351]},"properties":{"icao24":"e06543","callsign":"ARG1488","registration":"LV-FUC","aircraft_type":"B738","origin_country":null,"origin_iata":null,"destination_iata":null,"route_label":null,"route_available":false,"route_source":null,"baro_altitude_ft":38000,"baro_altitude_m":11582.4,"geo_altitude_ft":39100,"geo_altitude_m":11917.7,"velocity_kt":391.3,"velocity_ms":null,"velocity_kmh":724.7,"true_track":326.15,"vertical_rate_fpm":0,"vertical_rate_ms":null,"squawk":"","emergency":"","category":"A3","source_type":"ADSB.lol /v2/point","seen_seconds":1.1,"seen_position_seconds":1.086,"on_ground":false}},{"type":"Feature","geometry":{"type":"Point","coordinates":[-60.50153,-38.205468]},"properties":{"icao24":"e07583","callsign":"ARG1882","registration":"LV-GVC","aircraft_type":"B738","origin_country":null,"origin_iata":null,"destination_iata":null,"route_label":null,"route_available":false,"route_source":null,"baro_altitude_ft":38000,"baro_altitude_m":11582.4,"geo_altitude_ft":38550,"geo_altitude_m":11750.0,"velocity_kt":440.2,"velocity_ms":null,"velocity_kmh":815.3,"true_track":213.04,"vertical_rate_fpm":-64,"vertical_rate_ms":null,"squawk":"1635","emergency":"none","category":"A3","source_type":"ADSB.lol /v2/point","seen_seconds":0.0,"seen_position_seconds":0.212,"on_ground":false}},{"type":"Feature","geometry":{"type":"Point","coordinates":[-59.744717,-33.087189]},"properties":{"icao24":"e0645a","callsign":"ARG1468","registration":"LV-FQZ","aircraft_type":"B738","origin_country":null,"origin_iata":null,"destination_iata":null,"route_label":null,"route_available":false,"route_source":null,"baro_altitude_ft":36000,"baro_altitude_m":10972.8,"geo_altitude_ft":36925,"geo_altitude_m":11254.7,"velocity_kt":393.5,"velocity_ms":null,"velocity_kmh":728.8,"true_track":330.96,"vertical_rate_fpm":0,"vertical_rate_ms":null,"squawk":"1675","emergency":"","category":"A0","source_type":"ADSB.lol /v2/point","seen_seconds":0.1,"seen_position_seconds":0.347,"on_ground":false}},{"type":"Feature","geometry":{"type":"Point","coordinates":[-59.422302,-33.031265]},"properties":{"icao24":"e8061a","callsign":"JES3012","registration":"CC-DIE","aircraft_type":"A21N","origin_country":null,"origin_iata":null,"destination_iata":null,"route_label":null,"route_available":false,"route_source":null,"baro_altitude_ft":33700,"baro_altitude_m":10271.8,"geo_altitude_ft":34650,"geo_altitude_m":10561.3,"velocity_kt":377.7,"velocity_ms":null,"velocity_kmh":699.5,"true_track":324.37,"vertical_rate_fpm":384,"vertical_rate_ms":null,"squawk":"1602","emergency":"none","category":"A3","source_type":"ADSB.lol /v2/point","seen_seconds":0.1,"seen_position_seconds":0.05,"on_ground":false}},{"type":"Feature","geometry":{"type":"Point","coordinates":[-59.123419,-33.471588]},"properties":{"icao24":"e8061c","callsign":"JAP7801","registration":"CC-DIG","aircraft_type":"A20N","origin_country":null,"origin_iata":null,"destination_iata":null,"route_label":null,"route_available":false,"route_source":null,"baro_altitude_ft":30550,"baro_altitude_m":9311.6,"geo_altitude_ft":31475,"geo_altitude_m":9593.6,"velocity_kt":405.5,"velocity_ms":null,"velocity_kmh":751.0,"true_track":325.45,"vertical_rate_fpm":1024,"vertical_rate_ms":null,"squawk":"0417","emergency":"none","category":"A3","source_type":"ADSB.lol /v2/point","seen_seconds":0.1,"seen_position_seconds":0.101,"on_ground":false}},{"type":"Feature","geometry":{"type":"Point","coordinates":[-58.887316,-36.981424]},"properties":{"icao24":"e06443","callsign":"ARG1856","registration":"LV-FQC","aircraft_type":"B738","origin_country":null,"origin_iata":null,"destination_iata":null,"route_label":null,"route_available":false,"route_source":null,"baro_altitude_ft":36000,"baro_altitude_m":10972.8,"geo_altitude_ft":36675,"geo_altitude_m":11178.5,"velocity_kt":435.1,"velocity_ms":null,"velocity_kmh":805.8,"true_track":206.33,"vertical_rate_fpm":0,"vertical_rate_ms":null,"squawk":"1510","emergency":"none","category":"A3","source_type":"ADSB.lol /v2/point","seen_seconds":0.0,"seen_position_seconds":0.089,"on_ground":false}},{"type":"Feature","geometry":{"type":"Point","coordinates":[-58.882515,-34.75914]},"properties":{"icao24":"e80274","callsign":"LPE2947","registration":"CC-BFQ","aircraft_type":"A320","origin_country":null,"origin_iata":null,"destination_iata":null,"route_label":null,"route_available":false,"route_source":null,"baro_altitude_ft":4825,"baro_altitude_m":1470.7,"geo_altitude_ft":5000,"geo_altitude_m":1524.0,"velocity_kt":221.7,"velocity_ms":null,"velocity_kmh":410.6,"true_track":107.05,"vertical_rate_fpm":-1024,"vertical_rate_ms":null,"squawk":"5655","emergency":"none","category":"A3","source_type":"ADSB.lol /v2/point","seen_seconds":0.1,"seen_position_seconds":0.089,"on_ground":false}},{"type":"Feature","geometry":{"type":"Point","coordinates":[-58.829937,-34.301376]},"properties":{"icao24":"0c2166","callsign":"CMP350","registration":"HP-9918CMP","aircraft_type":"B39M","origin_country":null,"origin_iata":null,"destination_iata":null,"route_label":null,"route_available":false,"route_source":null,"baro_altitude_ft":21475,"baro_altitude_m":6545.6,"geo_altitude_ft":22125,"geo_altitude_m":6743.7,"velocity_kt":364.6,"velocity_ms":null,"velocity_kmh":675.2,"true_track":343.75,"vertical_rate_fpm":1408,"vertical_rate_ms":null,"squawk":"0377","emergency":"none","category":"A3","source_type":"ADSB.lol /v2/point","seen_seconds":0.1,"seen_position_seconds":0.134,"on_ground":false}},{"type":"Feature","geometry":{"type":"Point","coordinates":[-58.7694,-34.820572]},"properties":{"icao24":"e07581","callsign":"ARG1867","registration":"LV-GVA","aircraft_type":"B738","origin_country":null,"origin_iata":null,"destination_iata":null,"route_label":null,"route_available":false,"route_source":null,"baro_altitude_ft":12250,"baro_altitude_m":3733.8,"geo_altitude_ft":12650,"geo_altitude_m":3855.7,"velocity_kt":295.9,"velocity_ms":null,"velocity_kmh":548.0,"true_track":355.54,"vertical_rate_fpm":-1600,"vertical_rate_ms":null,"squawk":"2172","emergency":"none","category":"A3","source_type":"ADSB.lol /v2/point","seen_seconds":0.1,"seen_position_seconds":0.209,"on_ground":false}},{"type":"Feature","geometry":{"type":"Point","coordinates":[-58.752697,-31.859421]},"properties":{"icao24":"0c4353","callsign":"DWI6261","registration":"HI1098","aircraft_type":"B38M","origin_country":null,"origin_iata":null,"destination_iata":null,"route_label":null,"route_available":false,"route_source":null,"baro_altitude_ft":35000,"baro_altitude_m":10668.0,"geo_altitude_ft":36075,"geo_altitude_m":10995.7,"velocity_kt":432.4,"velocity_ms":null,"velocity_kmh":800.8,"true_track":357.48,"vertical_rate_fpm":0,"vertical_rate_ms":null,"squawk":"0425","emergency":"none","category":"A3","source_type":"ADSB.lol /v2/point","seen_seconds":0.1,"seen_position_seconds":0.089,"on_ground":false}},{"type":"Feature","geometry":{"type":"Point","coordinates":[-58.340037,-34.468277]},"properties":{"icao24":"e07584","callsign":"ARG1694","registration":"LV-GVD","aircraft_type":"B38M","origin_country":null,"origin_iata":null,"destination_iata":null,"route_label":null,"route_available":false,"route_source":null,"baro_altitude_ft":7850,"baro_altitude_m":2392.7,"geo_altitude_ft":8050,"geo_altitude_m":2453.6,"velocity_kt":294.2,"velocity_ms":null,"velocity_kmh":544.9,"true_track":268.05,"vertical_rate_fpm":2816,"vertical_rate_ms":null,"squawk":"1615","emergency":"none","category":"A3","source_type":"ADSB.lol /v2/point","seen_seconds":0.1,"seen_position_seconds":0.05,"on_ground":false}},{"type":"Feature","geometry":{"type":"Point","coordinates":[-58.003063,-34.94723]},"properties":{"icao24":"e80620","callsign":"JES3810","registration":"CC-DIC","aircraft_type":"A21N","origin_country":null,"origin_iata":null,"destination_iata":null,"route_label":null,"route_available":false,"route_source":null,"baro_altitude_ft":12950,"baro_altitude_m":3947.2,"geo_altitude_ft":13375,"geo_altitude_m":4076.7,"velocity_kt":356.3,"velocity_ms":null,"velocity_kmh":659.9,"true_track":65.81,"vertical_rate_fpm":3008,"vertical_rate_ms":null,"squawk":"0436","emergency":"none","category":"A3","source_type":"ADSB.lol /v2/point","seen_seconds":0.1,"seen_position_seconds":0.215,"on_ground":false}},{"type":"Feature","geometry":{"type":"Point","coordinates":[-57.704029,-33.792502]},"properties":{"icao24":"e8041b","callsign":"LPE2398","registration":"CC-BAK","aircraft_type":"A320","origin_country":null,"origin_iata":null,"destination_iata":null,"route_label":null,"route_available":false,"route_source":null,"baro_altitude_ft":28050,"baro_altitude_m":8549.6,"geo_altitude_ft":29025,"geo_altitude_m":8846.8,"velocity_kt":479.2,"velocity_ms":null,"velocity_kmh":887.5,"true_track":132.38,"vertical_rate_fpm":-1920,"vertical_rate_ms":null,"squawk":"5610","emergency":"none","category":"A3","source_type":"ADSB.lol /v2/point","seen_seconds":0.1,"seen_position_seconds":0.089,"on_ground":false}},{"type":"Feature","geometry":{"type":"Point","coordinates":[-62.643088,-37.244211]},"properties":{"icao24":"e80618","callsign":"JES3161","registration":"CC-AWY","aircraft_type":"A21N","origin_country":null,"origin_iata":null,"destination_iata":null,"route_label":null,"route_available":false,"route_source":null,"baro_altitude_ft":32000,"baro_altitude_m":9753.6,"geo_altitude_ft":32600,"geo_altitude_m":9936.5,"velocity_kt":411.1,"velocity_ms":null,"velocity_kmh":761.4,"true_track":244.81,"vertical_rate_fpm":0,"vertical_rate_ms":null,"squawk":"1671","emergency":"none","category":"A3","source_type":"ADSB.lol /v2/point","seen_seconds":0.0,"seen_position_seconds":1.336,"on_ground":false}},{"type":"Feature","geometry":{"type":"Point","coordinates":[-60.703395,-40.874541]},"properties":{"icao24":"e082d7","callsign":"ARG1872","registration":"LV-HKW","aircraft_type":"B38M","origin_country":null,"origin_iata":null,"destination_iata":null,"route_label":null,"route_available":false,"route_source":null,"baro_altitude_ft":38000,"baro_altitude_m":11582.4,"geo_altitude_ft":38375,"geo_altitude_m":11696.7,"velocity_kt":456.2,"velocity_ms":null,"velocity_kmh":844.9,"true_track":196.69,"vertical_rate_fpm":0,"vertical_rate_ms":null,"squawk":"1757","emergency":"","category":"A3","source_type":"ADSB.lol /v2/point","seen_seconds":0.0,"seen_position_seconds":0.044,"on_ground":false}},{"type":"Feature","geometry":{"type":"Point","coordinates":[-62.731434,-40.623903]},"properties":{"icao24":"e0958f","callsign":"JES3211","registration":"LV-IVO","aircraft_type":"A320","origin_country":null,"origin_iata":null,"destination_iata":null,"route_label":null,"route_available":false,"route_source":null,"baro_altitude_ft":34000,"baro_altitude_m":10363.2,"geo_altitude_ft":34400,"geo_altitude_m":10485.1,"velocity_kt":428.8,"velocity_ms":null,"velocity_kmh":794.1,"true_track":219.89,"vertical_rate_fpm":-64,"vertical_rate_ms":null,"squawk":"1616","emergency":"none","category":"A3","source_type":"ADSB.lol /v2/point","seen_seconds":0.0,"seen_position_seconds":0.026,"on_ground":false}},{"type":"Feature","geometry":{"type":"Point","coordinates":[-70.922241,-33.511871]},"properties":{"icao24":"0c20f4","callsign":"CMP277","registration":"HP-9907CMP","aircraft_type":"B39M","origin_country":null,"origin_iata":null,"destination_iata":null,"route_label":null,"route_available":false,"route_source":null,"baro_altitude_ft":7625,"baro_altitude_m":2324.1,"geo_altitude_ft":7775,"geo_altitude_m":2369.8,"velocity_kt":null,"velocity_ms":null,"velocity_kmh":null,"true_track":null,"vertical_rate_fpm":null,"vertical_rate_ms":null,"squawk":"","emergency":"","category":"A3","source_type":"ADSB.lol /v2/point","seen_seconds":26.1,"seen_position_seconds":44.667,"on_ground":false}},{"type":"Feature","geometry":{"type":"Point","coordinates":[-70.780902,-33.483994]},"properties":{"icao24":"3c7607","callsign":"","registration":"D-AMPG","aircraft_type":"GL7T","origin_country":null,"origin_iata":null,"destination_iata":null,"route_label":null,"route_available":false,"route_source":null,"baro_altitude_ft":3100,"baro_altitude_m":944.9,"geo_altitude_ft":3175,"geo_altitude_m":967.7,"velocity_kt":135.1,"velocity_ms":null,"velocity_kmh":250.2,"true_track":357.46,"vertical_rate_fpm":null,"vertical_rate_ms":null,"squawk":"","emergency":"","category":"A3","source_type":"ADSB.lol /v2/point","seen_seconds":11.3,"seen_position_seconds":11.303,"on_ground":false}},{"type":"Feature","geometry":{"type":"Point","coordinates":[-61.95212,-28.164802]},"properties":{"icao24":"0c2162","callsign":"CMP328","registration":"HP-9917CMP","aircraft_type":"B39M","origin_country":null,"origin_iata":null,"destination_iata":null,"route_label":null,"route_available":false,"route_source":null,"baro_altitude_ft":34000,"baro_altitude_m":10363.2,"geo_altitude_ft":35375,"geo_altitude_m":10782.3,"velocity_kt":410.8,"velocity_ms":null,"velocity_kmh":760.8,"true_track":341.26,"vertical_rate_fpm":-64,"vertical_rate_ms":null,"squawk":"0411","emergency":"none","category":"A3","source_type":"ADSB.lol /v2/point","seen_seconds":1.0,"seen_position_seconds":12.447,"on_ground":false}},{"type":"Feature","geometry":{"type":"Point","coordinates":[-59.212216,-27.969748]},"properties":{"icao24":"0c4355","callsign":"DWI6269","registration":"HI1101","aircraft_type":"B38M","origin_country":null,"origin_iata":null,"destination_iata":null,"route_label":null,"route_available":false,"route_source":null,"baro_altitude_ft":36000,"baro_altitude_m":10972.8,"geo_altitude_ft":37425,"geo_altitude_m":11407.1,"velocity_kt":430.9,"velocity_ms":null,"velocity_kmh":798.0,"true_track":350.52,"vertical_rate_fpm":0,"vertical_rate_ms":null,"squawk":"0427","emergency":"none","category":"A3","source_type":"ADSB.lol /v2/point","seen_seconds":0.1,"seen_position_seconds":0.096,"on_ground":false}},{"type":"Feature","geometry":{"type":"Point","coordinates":[-59.080828,-28.007721]},"properties":{"icao24":"0c20f3","callsign":"CMP368","registration":"HP-9908CMP","aircraft_type":"B39M","origin_country":null,"origin_iata":null,"destination_iata":null,"route_label":null,"route_available":false,"route_source":null,"baro_altitude_ft":37000,"baro_altitude_m":11277.6,"geo_altitude_ft":38450,"geo_altitude_m":11719.6,"velocity_kt":477.6,"velocity_ms":null,"velocity_kmh":884.5,"true_track":151.07,"vertical_rate_fpm":0,"vertical_rate_ms":null,"squawk":"0141","emergency":"none","category":"A3","source_type":"ADSB.lol /v2/point","seen_seconds":0.1,"seen_position_seconds":0.096,"on_ground":false}}]}