{
"type": "FeatureCollection",
"name": "Aeroplatas",
"crs": { "type": "name", "properties": { "name": "urn:ogc:def:crs:OGC:1.3:CRS84" } },
"features": [
{ "type": "Feature", "properties": { "IATA": "PSS", "Name": "PSS - Aeroplanta YPF", "descriptio": "JET A1 / Avgas 100LL" }, "geometry": { "type": "MultiPolygon", "coordinates": [ [ [ [ -55.965790008254835, -27.392563477068162, 0.0 ], [ -55.965531108594078, -27.392463072299108, 0.0 ], [ -55.965321785827719, -27.392825467414415, 0.0 ], [ -55.965578724800444, -27.392948658096678, 0.0 ], [ -55.965790008254835, -27.392563477068162, 0.0 ] ] ] ] } },
{ "type": "Feature", "properties": { "IATA": "RCU", "Name": "RCU - Aeroplanta YPF", "descriptio": "JET A1 / Avgas 100LL" }, "geometry": { "type": "MultiPolygon", "coordinates": [ [ [ [ -64.275818049675351, -33.09289909588805, 0.0 ], [ -64.275348339333974, -33.092892596613652, 0.0 ], [ -64.275344218042619, -33.09332431649856, 0.0 ], [ -64.275809692214452, -33.093327128846205, 0.0 ], [ -64.275818049675351, -33.09289909588805, 0.0 ] ] ] ] } },
{ "type": "Feature", "properties": { "IATA": "RGA", "Name": "RGA - Aeroplanta YPF", "descriptio": "JET A1 / Avgas 100LL" }, "geometry": { "type": "MultiPolygon", "coordinates": [ [ [ [ -67.7509919, -53.7821014, 0.0 ], [ -67.75071, -53.7820965, 0.0 ], [ -67.7507085, -53.7821828, 0.0 ], [ -67.7509904, -53.7821893, 0.0 ], [ -67.7509919, -53.7821014, 0.0 ] ] ] ] } },
{ "type": "Feature", "properties": { "IATA": "RGA", "Name": "RGA - Aeroplanta YPF", "descriptio": "JET A1 / Avgas 100LL" }, "geometry": { "type": "MultiPolygon", "coordinates": [ [ [ [ -67.7509904, -53.7821893, 0.0 ], [ -67.7507085, -53.7821828, 0.0 ], [ -67.7506985, -53.7823339, 0.0 ], [ -67.7509803, -53.7823404, 0.0 ], [ -67.7509904, -53.7821893, 0.0 ] ] ] ] } },
{ "type": "Feature", "properties": { "IATA": "RGL", "Name": "RGL - Aeroplanta YPF", "descriptio": "JET A1 / Avgas 100LL" }, "geometry": { "type": "MultiPolygon", "coordinates": [ [ [ [ -69.3017167, -51.6120758, 0.0 ], [ -69.3016118, -51.612074, 0.0 ], [ -69.3016144, -51.6120153, 0.0 ], [ -69.3011954, -51.6120081, 0.0 ], [ -69.3011856, -51.6122288, 0.0 ], [ -69.3015941, -51.6122359, 0.0 ], [ -69.3015968, -51.6121738, 0.0 ], [ -69.3017123, -51.6121758, 0.0 ], [ -69.3017167, -51.6120758, 0.0 ] ] ] ] } },
{ "type": "Feature", "properties": { "IATA": "SLA", "Name": "SLA - Aeroplanta YPF", "descriptio": "JET A1 / Avgas 100LL" }, "geometry": { "type": "MultiPolygon", "coordinates": [ [ [ [ -65.4773395, -24.8445875, 0.0 ], [ -65.4773126, -24.8445254, 0.0 ], [ -65.4772583, -24.8445448, 0.0 ], [ -65.4772852, -24.8446069, 0.0 ], [ -65.4773395, -24.8445875, 0.0 ] ] ] ] } },
{ "type": "Feature", "properties": { "IATA": "SLA", "Name": "SLA - Aeroplanta YPF", "descriptio": "JET A1 / Avgas 100LL" }, "geometry": { "type": "MultiPolygon", "coordinates": [ [ [ [ -65.4772689, -24.8446205, 0.0 ], [ -65.4772144, -24.8444911, 0.0 ], [ -65.4771072, -24.8445283, 0.0 ], [ -65.4771618, -24.8446577, 0.0 ], [ -65.4772689, -24.8446205, 0.0 ] ] ] ] } },
{ "type": "Feature", "properties": { "IATA": "TUC", "Name": "TUC - Aeroplanta YPF", "descriptio": "JET A1 / Avgas 100LL" }, "geometry": { "type": "MultiPolygon", "coordinates": [ [ [ [ -65.108800314985601, -26.830979366212919, 0.0 ], [ -65.1087209417624, -26.830502720241224, 0.0 ], [ -65.108151736815699, -26.830592329182249, 0.0 ], [ -65.108231094428277, -26.831070669795675, 0.0 ], [ -65.108800314985601, -26.830979366212919, 0.0 ] ] ] ] } },
{ "type": "Feature", "properties": { "IATA": "TUC", "Name": "TUC - Aeroplanta YPF", "descriptio": "JET A1 / Avgas 100LL" }, "geometry": { "type": "MultiPolygon", "coordinates": [ [ [ [ -65.1086556, -26.830778799999987, 0.0 ], [ -65.1086175, -26.8305728, 0.0 ], [ -65.1084803, -26.830593, 0.0 ], [ -65.1085183, -26.830799, 0.0 ], [ -65.1086556, -26.830778799999987, 0.0 ] ] ] ] } },
{ "type": "Feature", "properties": { "IATA": "UAQ", "Name": "UAQ - Aeroplanta YPF", "descriptio": "JET A1" }, "geometry": { "type": "MultiPolygon", "coordinates": [ [ [ [ -68.422974175928587, -31.572579848503018, 0.0 ], [ -68.422540665671761, -31.572413847804057, 0.0 ], [ -68.422459257629839, -31.572562639059914, 0.0 ], [ -68.422596327471865, -31.572648505471175, 0.0 ], [ -68.422510383087499, -31.5728225712542, 0.0 ], [ -68.422788340730335, -31.572931819028479, 0.0 ], [ -68.422974175928587, -31.572579848503018, 0.0 ] ] ] ] } },
{ "type": "Feature", "properties": { "IATA": "AFA", "Name": "AFA - Aeroplanta YPF", "descriptio": "JET A1" }, "geometry": { "type": "MultiPolygon", "coordinates": [ [ [ [ -68.399439160628233, -34.591662206215908, 0.0 ], [ -68.399349127231517, -34.591488727928684, 0.0 ], [ -68.399133087805808, -34.591563308247302, 0.0 ], [ -68.399218078350984, -34.59173112111521, 0.0 ], [ -68.399439160628233, -34.591662206215908, 0.0 ] ] ] ] } },
{ "type": "Feature", "properties": { "IATA": "EQS", "Name": "EQS - Aeroplanta YPF", "descriptio": "JET A1 - Avgas 100LL" }, "geometry": { "type": "MultiPolygon", "coordinates": [ [ [ [ -71.1456166, -42.9054962, 0.0 ], [ -71.1455596, -42.9054703, 0.0 ], [ -71.1454989, -42.905542, 0.0 ], [ -71.1455559, -42.9055679, 0.0 ], [ -71.1456166, -42.9054962, 0.0 ] ] ] ] } },
{ "type": "Feature", "properties": { "IATA": "EQS", "Name": "EQS - Aeroplanta YPF", "descriptio": "JET A1 - Avgas 100LL" }, "geometry": { "type": "MultiPolygon", "coordinates": [ [ [ [ -71.1460043, -42.9057262, 0.0 ], [ -71.1458371, -42.9056436, 0.0 ], [ -71.1457842, -42.9057011, 0.0 ], [ -71.1459513, -42.9057837, 0.0 ], [ -71.1460043, -42.9057262, 0.0 ] ] ] ] } },
{ "type": "Feature", "properties": { "IATA": "EQS", "Name": "EQS - Aeroplanta YPF", "descriptio": "JET A1 - Avgas 100LL" }, "geometry": { "type": "MultiPolygon", "coordinates": [ [ [ [ -71.1456849, -42.9055905, 0.0 ], [ -71.1455937, -42.9055488, 0.0 ], [ -71.1455702, -42.9055764, 0.0 ], [ -71.1456613, -42.9056182, 0.0 ], [ -71.1456849, -42.9055905, 0.0 ] ] ] ] } },
{ "type": "Feature", "properties": { "IATA": "EZE", "Name": "EZE - Aeroplanta", "descriptio": null }, "geometry": { "type": "MultiPolygon", "coordinates": [ [ [ [ -58.5399089, -34.8112222, 0.0 ], [ -58.539797, -34.8111918, 0.0 ], [ -58.5397033, -34.8114242, 0.0 ], [ -58.5398152, -34.8114546, 0.0 ], [ -58.5399089, -34.8112222, 0.0 ] ] ] ] } },
{ "type": "Feature", "properties": { "IATA": "EZE", "Name": "EZE - Aeroplanta YPF", "descriptio": "JET A1" }, "geometry": { "type": "MultiPolygon", "coordinates": [ [ [ [ -58.541122177144985, -34.810735674772616, 0.0 ], [ -58.540965132718611, -34.810689989121272, 0.0 ], [ -58.540930868480189, -34.810782788100539, 0.0 ], [ -58.54078096243677, -34.810741385479105, 0.0 ], [ -58.540689591134139, -34.810988373531416, 0.0 ], [ -58.54082807576475, -34.811028348476384, 0.0 ], [ -58.540809515968817, -34.811082600187319, 0.0 ], [ -58.540969415748464, -34.811122575132174, 0.0 ], [ -58.541122177144985, -34.810735674772616, 0.0 ] ] ] ] } },
{ "type": "Feature", "properties": { "IATA": "EZE", "Name": "EZE - Aeroplanta", "descriptio": null }, "geometry": { "type": "MultiPolygon", "coordinates": [ [ [ [ -58.5407119, -34.8114248, 0.0 ], [ -58.5405965, -34.8113951, 0.0 ], [ -58.5404773, -34.811707, 0.0 ], [ -58.5405927, -34.8117367, 0.0 ], [ -58.5407119, -34.8114248, 0.0 ] ] ] ] } },
{ "type": "Feature", "properties": { "IATA": "EZE", "Name": "EZE - Aeroplanta Shell", "descriptio": "JET A1" }, "geometry": { "type": "MultiPolygon", "coordinates": [ [ [ [ -58.5404307, -34.8114341, 0.0 ], [ -58.5402699, -34.8113905, 0.0 ], [ -58.5402017, -34.8115596, 0.0 ], [ -58.5403625, -34.8116033, 0.0 ], [ -58.5404307, -34.8114341, 0.0 ] ] ] ] } },
{ "type": "Feature", "properties": { "IATA": "EZE", "Name": "EZE - Aeroplanta", "descriptio": null }, "geometry": { "type": "MultiPolygon", "coordinates": [ [ [ [ -58.5401604, -34.8113607, 0.0 ], [ -58.540001, -34.8113174, 0.0 ], [ -58.5399328, -34.8114865, 0.0 ], [ -58.5400922, -34.8115298, 0.0 ], [ -58.5401604, -34.8113607, 0.0 ] ] ] ] } },
{ "type": "Feature", "properties": { "IATA": "LUQ", "Name": "LUQ - Aeroplanta YPF", "descriptio": "JET A1" }, "geometry": { "type": "MultiPolygon", "coordinates": [ [ [ [ -66.350411525617687, -33.275524682155947, 0.0 ], [ -66.350233066042222, -33.275378940169389, 0.0 ], [ -66.350124800566505, -33.275469954552761, 0.0 ], [ -66.350308613929144, -33.275629973305513, 0.0 ], [ -66.350411525617687, -33.275524682155947, 0.0 ] ] ] ] } },
{ "type": "Feature", "properties": { "IATA": "JUJ", "Name": "JUJ - Aeroplanta YPF", "descriptio": "JET A1 / Avgas 100LL" }, "geometry": { "type": "MultiPolygon", "coordinates": [ [ [ [ -65.092672615858135, -24.387033657309132, 0.0 ], [ -65.092263348565098, -24.386813557166079, 0.0 ], [ -65.091914757527718, -24.387365592119352, 0.0 ], [ -65.09234662970033, -24.387598779298003, 0.0 ], [ -65.092485828169174, -24.387350125622845, 0.0 ], [ -65.092672615858135, -24.387033657309132, 0.0 ] ] ] ] } },
{ "type": "Feature", "properties": { "IATA": "MDZ", "Name": "MDZ - Aeroplanta YPF", "descriptio": "JET A1 / Avgas 100LL" }, "geometry": { "type": "MultiPolygon", "coordinates": [ [ [ [ -68.800759475759762, -32.833122247289182, 0.0 ], [ -68.800801890260161, -32.832490498876318, 0.0 ], [ -68.799749475948033, -32.832435212832408, 0.0 ], [ -68.799675806937813, -32.83306328023486, 0.0 ], [ -68.800083785761856, -32.833084810530728, 0.0 ], [ -68.800327889599288, -32.833092486712573, 0.0 ], [ -68.800759475759762, -32.833122247289182, 0.0 ] ] ] ] } },
{ "type": "Feature", "properties": { "IATA": "SDE", "Name": "SDE - Aeroplanta YPF", "descriptio": "JET A1 - Avgas 100LL" }, "geometry": { "type": "MultiPolygon", "coordinates": [ [ [ [ -64.296873201122239, -27.759344848372663, 0.0 ], [ -64.29675525027109, -27.759268922146976, 0.0 ], [ -64.296516901237041, -27.75911918750986, 0.0 ], [ -64.296364421989551, -27.759296330166165, 0.0 ], [ -64.296723058465133, -27.75952703282206, 0.0 ], [ -64.296873201122239, -27.759344848372663, 0.0 ] ] ] ] } },
{ "type": "Feature", "properties": { "IATA": "BHI", "Name": "BHI - Aeroplanta YPF", "descriptio": "JET A1 - Avgas 100LL" }, "geometry": { "type": "MultiPolygon", "coordinates": [ [ [ [ -62.164305178795274, -38.717716559658378, 0.0 ], [ -62.164227490989447, -38.717264965135875, 0.0 ], [ -62.163658920605535, -38.717321321781746, 0.0 ], [ -62.163730470587772, -38.717773906020398, 0.0 ], [ -62.164305178795274, -38.717716559658378, 0.0 ] ] ] ] } },
{ "type": "Feature", "properties": { "IATA": "CTC", "Name": "CTC - Aeroplanta YPF", "descriptio": "JET A1 / Avgas 100 LL" }, "geometry": { "type": "MultiPolygon", "coordinates": [ [ [ [ -65.754639162871214, -28.590202301057616, 0.0 ], [ -65.754129375528962, -28.590293168920589, 0.0 ], [ -65.754254639531993, -28.59083649221008, 0.0 ], [ -65.754764447145917, -28.590737974687542, 0.0 ], [ -65.754639162871214, -28.590202301057616, 0.0 ] ] ] ] } },
{ "type": "Feature", "properties": { "IATA": "AEP", "Name": "AEP - Aeroplanta AXION", "descriptio": "JET A1" }, "geometry": { "type": "MultiPolygon", "coordinates": [ [ [ [ -58.41541851363602, -34.562630441781259, 0.0 ], [ -58.416329644104337, -34.562015711319852, 0.0 ], [ -58.416036406531887, -34.56166625302285, 0.0 ], [ -58.415098520607486, -34.562199481555083, 0.0 ], [ -58.41541851363602, -34.562630441781259, 0.0 ] ] ] ] } },
{ "type": "Feature", "properties": { "IATA": "AEP", "Name": "AEP - Aeroplanta YPF", "descriptio": "JET A1" }, "geometry": { "type": "MultiPolygon", "coordinates": [ [ [ [ -58.416411402234736, -34.561946520507831, 0.0 ], [ -58.417285998221672, -34.561180899358774, 0.0 ], [ -58.417287012225707, -34.561130438887695, 0.0 ], [ -58.417222790577945, -34.561007546756791, 0.0 ], [ -58.417062329748362, -34.560837033667937, 0.0 ], [ -58.417033483956487, -34.560838203337838, 0.0 ], [ -58.41599647778763, -34.561415354489078, 0.0 ], [ -58.416411402234736, -34.561946520507831, 0.0 ] ] ] ] } },
{ "type": "Feature", "properties": { "IATA": "AEP", "Name": "AEP - Aeroplanta Shell", "descriptio": "JET A1" }, "geometry": { "type": "MultiPolygon", "coordinates": [ [ [ [ -58.417381707910131, -34.561076915583797, 0.0 ], [ -58.417400712152826, -34.561104850850583, 0.0 ], [ -58.4179525850506, -34.56056870743862, 0.0 ], [ -58.417932166591648, -34.560516907977686, 0.0 ], [ -58.417842196458814, -34.560439959411106, 0.0 ], [ -58.417759166076934, -34.560405052217234, 0.0 ], [ -58.41766791281912, -34.560381519202885, 0.0 ], [ -58.417575376148498, -34.560411401762025, 0.0 ], [ -58.417164169174733, -34.560783956873991, 0.0 ], [ -58.417381707910131, -34.561076915583797, 0.0 ] ] ] ] } },
{ "type": "Feature", "properties": { "IATA": "IGR", "Name": "IGR - Aeroplanta YPF", "descriptio": "JET A1 - Avgas 100LL" }, "geometry": { "type": "MultiPolygon", "coordinates": [ [ [ [ -54.479539573430728, -25.730483463939862, 0.0 ], [ -54.479258093389696, -25.729910350572943, 0.0 ], [ -54.47866749873031, -25.73012190042126, 0.0 ], [ -54.478937212608137, -25.730709667386346, 0.0 ], [ -54.479539573430728, -25.730483463939862, 0.0 ] ] ] ] } },
{ "type": "Feature", "properties": { "IATA": "USH", "Name": "USH - Aeroplanta YPF", "descriptio": "JET A1" }, "geometry": { "type": "MultiPolygon", "coordinates": [ [ [ [ -68.310364591570604, -54.838156471396644, 0.0 ], [ -68.308011311756943, -54.838044596749945, 0.0 ], [ -68.307887997045597, -54.838820988118222, 0.0 ], [ -68.310232821725421, -54.838923811688119, 0.0 ], [ -68.310364591570604, -54.838156471396644, 0.0 ] ] ] ] } },
{ "type": "Feature", "properties": { "IATA": "PMY", "Name": "PMY - Aeroplanta YPF", "descriptio": "JET A1" }, "geometry": { "type": "MultiPolygon", "coordinates": [ [ [ [ -65.102941275745692, -42.753985194441682, 0.0 ], [ -65.102373751305052, -42.753778614196783, 0.0 ], [ -65.102093490763892, -42.754192811453763, 0.0 ], [ -65.102683016527493, -42.754395522810277, 0.0 ], [ -65.102941275745692, -42.753985194441682, 0.0 ] ] ] ] } },
{ "type": "Feature", "properties": { "IATA": "RGL", "Name": "RGL - Aeroplanta YPF", "descriptio": "JET A1 / Avgas 100LL" }, "geometry": { "type": "MultiPolygon", "coordinates": [ [ [ [ -69.302085013806575, -51.611990987055755, 0.0 ], [ -69.301156689780925, -51.611946341086465, 0.0 ], [ -69.301068018527147, -51.612444301519851, 0.0 ], [ -69.302024970530155, -51.612483978685034, 0.0 ], [ -69.302085013806575, -51.611990987055755, 0.0 ] ] ] ] } },
{ "type": "Feature", "properties": { "IATA": "RGA", "Name": "RGA - Aeroplanta YPF", "descriptio": "JET A1 / Avgas 100LL" }, "geometry": { "type": "MultiPolygon", "coordinates": [ [ [ [ -67.751323072741769, -53.782615894334491, 0.0 ], [ -67.751359779680243, -53.781905860028864, 0.0 ], [ -67.750107004529497, -53.781886355395486, 0.0 ], [ -67.750070095006336, -53.782592030467086, 0.0 ], [ -67.751323072741769, -53.782615894334491, 0.0 ] ] ] ] } },
{ "type": "Feature", "properties": { "IATA": "FTE", "Name": "FTE - Aeroplanta YPF", "descriptio": "JET A1 - Avgas 100LL" }, "geometry": { "type": "MultiPolygon", "coordinates": [ [ [ [ -72.049113470297755, -50.283570524945617, 0.0 ], [ -72.049079251842159, -50.283871125836754, 0.0 ], [ -72.049975793579335, -50.283942668640009, 0.0 ], [ -72.049978847708815, -50.283625132176553, 0.0 ], [ -72.049113470297755, -50.283570524945617, 0.0 ] ] ] ] } },
{ "type": "Feature", "properties": { "IATA": "CRD", "Name": "CRD - Aeroplanta YPF", "descriptio": "JET A1 / Avgas 100LL" }, "geometry": { "type": "MultiPolygon", "coordinates": [ [ [ [ -67.474337801120342, -45.79009668494777, 0.0 ], [ -67.473344129478221, -45.790057620371542, 0.0 ], [ -67.473296882744862, -45.790606717126245, 0.0 ], [ -67.474298086641497, -45.790618750071218, 0.0 ], [ -67.474337801120342, -45.79009668494777, 0.0 ] ] ] ] } },
{ "type": "Feature", "properties": { "IATA": "BRC", "Name": "BRC - Aeroplanta YPF", "descriptio": "JET A1  / Avgas 100LL" }, "geometry": { "type": "MultiPolygon", "coordinates": [ [ [ [ -71.160404742959045, -41.147249699418516, 0.0 ], [ -71.160201336404057, -41.14690009210085, 0.0 ], [ -71.159513241334906, -41.147150574172052, 0.0 ], [ -71.159728006264601, -41.147488907631384, 0.0 ], [ -71.160404742959045, -41.147249699418516, 0.0 ] ] ] ] } },
{ "type": "Feature", "properties": { "IATA": "MDQ", "Name": "MDQ - Aeroplanta YPF", "descriptio": "JET A1 - Avgas 100LL" }, "geometry": { "type": "MultiPolygon", "coordinates": [ [ [ [ -57.582935454589069, -37.932691411527919, 0.0 ], [ -57.583548922263624, -37.932390375034686, 0.0 ], [ -57.583060174063341, -37.931783363790075, 0.0 ], [ -57.582435964077717, -37.93208901803547, 0.0 ], [ -57.582935454589069, -37.932691411527919, 0.0 ] ] ] ] } },
{ "type": "Feature", "properties": { "IATA": "CNQ", "Name": "CNQ - Aeroplanta YPF", "descriptio": "JET A1 / Avgas 100LL" }, "geometry": { "type": "MultiPolygon", "coordinates": [ [ [ [ -58.757365171045102, -27.446080988830239, 0.0 ], [ -58.756884866965116, -27.446138420736268, 0.0 ], [ -58.756961941003759, -27.446668369334603, 0.0 ], [ -58.75744174510892, -27.446618589013731, 0.0 ], [ -58.757365171045102, -27.446080988830239, 0.0 ] ] ] ] } },
{ "type": "Feature", "properties": { "IATA": "RES", "Name": "RES - Aeroplanta YPF", "descriptio": "JET A1 / Avgas 100LL" }, "geometry": { "type": "MultiPolygon", "coordinates": [ [ [ [ -59.046486202038125, -27.44989023920656, 0.0 ], [ -59.046788714798815, -27.449621157885698, 0.0 ], [ -59.04636407243445, -27.449252584504165, 0.0 ], [ -59.046058076387297, -27.44950540024481, 0.0 ], [ -59.046486202038125, -27.44989023920656, 0.0 ] ] ] ] } },
{ "type": "Feature", "properties": { "IATA": "FMA", "Name": "FMA - Aeroplanta YPF", "descriptio": "JET A1 / Avgas 100LL" }, "geometry": { "type": "MultiPolygon", "coordinates": [ [ [ [ -58.229253144304643, -26.211954235376208, 0.0 ], [ -58.229545967111449, -26.211791068206992, 0.0 ], [ -58.229260843396986, -26.211363659779149, 0.0 ], [ -58.228956152681732, -26.211526181115879, 0.0 ], [ -58.229253144304643, -26.211954235376208, 0.0 ] ] ] ] } },
{ "type": "Feature", "properties": { "IATA": "RCQ", "Name": "RCQ - Aeroplanta YPF", "descriptio": "JET A1 / Avgas 100LL" }, "geometry": { "type": "MultiPolygon", "coordinates": [ [ [ [ -59.694006689880503, -29.202279545576829, 0.0 ], [ -59.693060891788754, -29.202384221510453, 0.0 ], [ -59.693208943407164, -29.203435915198838, 0.0 ], [ -59.694140292849021, -29.203348558157842, 0.0 ], [ -59.694006689880503, -29.202279545576829, 0.0 ] ] ] ] } },
{ "type": "Feature", "properties": { "IATA": "NQN", "Name": "NQN - Aeroplanta YPF", "descriptio": "JET A1 / Avgas 100LL" }, "geometry": { "type": "MultiPolygon", "coordinates": [ [ [ [ -68.144703669688553, -38.953364418198205, 0.0 ], [ -68.144627124907942, -38.952908221798275, 0.0 ], [ -68.143825586952673, -38.952999999677083, 0.0 ], [ -68.143910740117121, -38.95344436488503, 0.0 ], [ -68.144703669688553, -38.953364418198205, 0.0 ] ] ] ] } },
{ "type": "Feature", "properties": { "IATA": "SFN", "Name": "SFN - Aeroplanta YPF", "descriptio": "JET A1 / Avgas 100LL" }, "geometry": { "type": "MultiPolygon", "coordinates": [ [ [ [ -60.807690653808109, -31.711905201040839, 0.0 ], [ -60.807185789688567, -31.712079762639313, 0.0 ], [ -60.807490027453447, -31.712649214788897, 0.0 ], [ -60.807994283149668, -31.712485592410577, 0.0 ], [ -60.807690653808109, -31.711905201040839, 0.0 ] ] ] ] } },
{ "type": "Feature", "properties": { "IATA": "PRA", "Name": "PRA - Aeroplanta YPF", "descriptio": null }, "geometry": { "type": "MultiPolygon", "coordinates": [ [ [ [ -60.483494220941431, -31.790305129058268, 0.0 ], [ -60.483173268615737, -31.79034314737692, 0.0 ], [ -60.483204388587204, -31.790561640768509, 0.0 ], [ -60.483530465905339, -31.790527797421021, 0.0 ], [ -60.483494220941431, -31.790305129058268, 0.0 ] ] ] ] } },
{ "type": "Feature", "properties": { "IATA": "ROS", "Name": "ROS - Aeroplanta YPF", "descriptio": "JET A1 / Avgas 100LL" }, "geometry": { "type": "MultiPolygon", "coordinates": [ [ [ [ -60.777441172997904, -32.909591118441632, 0.0 ], [ -60.77662942990947, -32.909849811686826, 0.0 ], [ -60.777041607764737, -32.910751837855258, 0.0 ], [ -60.777857096801412, -32.910496625388618, 0.0 ], [ -60.777441172997904, -32.909591118441632, 0.0 ] ] ] ] } },
{ "type": "Feature", "properties": { "IATA": "EPA", "Name": "EPA - Aeroplanta YPF", "descriptio": "JET A1 / Avgas 100LL" }, "geometry": { "type": "MultiPolygon", "coordinates": [ [ [ [ -58.605035336039968, -34.615767747453752, 0.0 ], [ -58.605622452070733, -34.615576783517668, 0.0 ], [ -58.605225357311241, -34.614757326284774, 0.0 ], [ -58.604261100437611, -34.615069446498637, 0.0 ], [ -58.604669158400739, -34.61589767306657, 0.0 ], [ -58.605035336039968, -34.615767747453752, 0.0 ] ] ] ] } },
{ "type": "Feature", "properties": { "IATA": "CPC", "Name": "CPC - Aeroplanta YPF", "descriptio": "JET A1 / Avgas 100LL" }, "geometry": { "type": "MultiPolygon", "coordinates": [ [ [ [ -71.144978720164033, -40.081530749830215, 0.0 ], [ -71.144648943424585, -40.081394068746633, 0.0 ], [ -71.144498803718363, -40.081600283734609, 0.0 ], [ -71.144836106579149, -40.081737776794782, 0.0 ], [ -71.144978720164033, -40.081530749830215, 0.0 ] ] ] ] } },
{ "type": "Feature", "properties": { "IATA": "RSA", "Name": "RSA - Aeroplanta YPF", "descriptio": "JET A1 / Avgas 100LL" }, "geometry": { "type": "MultiPolygon", "coordinates": [ [ [ [ -64.280818121449045, -36.592559612374181, 0.0 ], [ -64.279310067884737, -36.59257533615142, 0.0 ], [ -64.279318960006421, -36.593520796614136, 0.0 ], [ -64.28084001463364, -36.593518650502041, 0.0 ], [ -64.280818121449045, -36.592559612374181, 0.0 ] ] ] ] } },
{ "type": "Feature", "properties": { "IATA": "GPO", "Name": "GPO - Aeroplanta YPF", "descriptio": "JET A1 / Avgas 100LL" }, "geometry": { "type": "MultiPolygon", "coordinates": [ [ [ [ -63.758870576361339, -35.688652013508836, 0.0 ], [ -63.758956292212531, -35.688461204895482, 0.0 ], [ -63.75875101572489, -35.688408750890247, 0.0 ], [ -63.758685731423427, -35.688569646503105, 0.0 ], [ -63.758715039347365, -35.688608336352011, 0.0 ], [ -63.758870576361339, -35.688652013508836, 0.0 ] ] ] ] } },
{ "type": "Feature", "properties": { "IATA": "COR", "Name": "COR - Aeroplanta YPF", "descriptio": "JET A1 / Avgas 100LL" }, "geometry": { "type": "MultiPolygon", "coordinates": [ [ [ [ -64.21280909047114, -31.317830970915256, 0.0 ], [ -64.213104519145659, -31.317835084117803, 0.0 ], [ -64.213087410999222, -31.317073754186875, 0.0 ], [ -64.212794092044064, -31.317086306261771, 0.0 ], [ -64.21280909047114, -31.317830970915256, 0.0 ] ] ] ] } },
{ "type": "Feature", "properties": { "IATA": "VDM", "Name": "VDM - Aeroplanta YPF", "descriptio": "JET A1 / Avgas 100LL" }, "geometry": { "type": "MultiPolygon", "coordinates": [ [ [ [ -63.004815903566929, -40.861101632860112, 0.0 ], [ -63.005221780225376, -40.860771355661264, 0.0 ], [ -63.005003300793199, -40.860598542345635, 0.0 ], [ -63.005160421840522, -40.860483675197244, 0.0 ], [ -63.005020838152923, -40.860364392142777, 0.0 ], [ -63.004429531252121, -40.860830877517728, 0.0 ], [ -63.004815903566929, -40.861101632860112, 0.0 ] ] ] ] } },
{ "type": "Feature", "properties": { "IATA": "REL", "Name": "REL - Aeroplanta YPF", "descriptio": "JET A1 / Avgas 100LL" }, "geometry": { "type": "MultiPolygon", "coordinates": [ [ [ [ -65.28915084923905, -43.211501657480049, 0.0 ], [ -65.289369998994857, -43.211109496186289, 0.0 ], [ -65.28852131488371, -43.210876529998188, 0.0 ], [ -65.288316277155403, -43.211273177507451, 0.0 ], [ -65.28915084923905, -43.211501657480049, 0.0 ] ] ] ] } },
{ "type": "Feature", "properties": { "IATA": "VME", "Name": "VME - Aeroplanta YPF", "descriptio": "JET A1 / Avgas 100LL" }, "geometry": { "type": "MultiPolygon", "coordinates": [ [ [ [ -65.378332878689747, -33.715774538387073, 0.0 ], [ -65.376557804644449, -33.716174311034052, 0.0 ], [ -65.376782844285557, -33.716882291635656, 0.0 ], [ -65.378552039710257, -33.716501720183508, 0.0 ], [ -65.378332878689747, -33.715774538387073, 0.0 ] ] ] ] } },
{ "type": "Feature", "properties": { "IATA": "LPG", "Name": "LPG - Aeroplanta YPF", "descriptio": null }, "geometry": { "type": "MultiPolygon", "coordinates": [ [ [ [ -57.89471570773533, -34.965443214968474, 0.0 ], [ -57.894480585985576, -34.965491062909365, 0.0 ], [ -57.894548873592399, -34.965709333945725, 0.0 ], [ -57.894771918529379, -34.965665432029901, 0.0 ], [ -57.89471570773533, -34.965443214968474, 0.0 ] ] ] ] } },
{ "type": "Feature", "properties": { "IATA": "LGS", "Name": "LGS - Aeroplanta YPF", "descriptio": null }, "geometry": { "type": "MultiPolygon", "coordinates": [ [ [ [ -69.5846543604017, -35.482821068095973, 0.0 ], [ -69.58449547654277, -35.482821851671645, 0.0 ], [ -69.584493146077008, -35.483041691381075, 0.0 ], [ -69.584659485921705, -35.483038217708163, 0.0 ], [ -69.5846543604017, -35.482821068095973, 0.0 ] ] ] ] } },
{ "type": "Feature", "properties": { "IATA": "RHD", "Name": "RHD - Aeroplanta LAION SRL", "descriptio": null }, "geometry": { "type": "MultiPolygon", "coordinates": [ [ [ [ -64.934720010138406, -27.508313351955675, 0.0 ], [ -64.93468510289226, -27.50820548118131, 0.0 ], [ -64.934211239611727, -27.508058447122131, 0.0 ], [ -64.934080189376544, -27.508097822674412, 0.0 ], [ -64.933876607735129, -27.508707541601034, 0.0 ], [ -64.933888540010685, -27.508801499868497, 0.0 ], [ -64.934375003060154, -27.508944882868199, 0.0 ], [ -64.934519351847399, -27.508886463301309, 0.0 ], [ -64.934720010138406, -27.508313351955675, 0.0 ] ] ] ] } },
{ "type": "Feature", "properties": { "IATA": "EZE", "Name": "EZE - Aeroplanta AXION", "descriptio": "JET A1" }, "geometry": { "type": "MultiPolygon", "coordinates": [ [ [ [ -58.54036979157496, -34.810624315997529, 0.0 ], [ -58.540152784731276, -34.810565781256855, 0.0 ], [ -58.540047136662565, -34.810842750517963, 0.0 ], [ -58.540265571182886, -34.810901285258637, 0.0 ], [ -58.54036979157496, -34.810624315997529, 0.0 ] ] ] ] } }
]
}
