{
  "type": "FeatureCollection",
  "name": "aip_pistas_superficies",
  "features": [
    {
      "type": "Feature",
      "properties": {
        "icao": "SAAC",
        "iata": "COC",
        "aeropuerto": "CONCORDIA / COMODORO JUAN JOSÉ PIERRESTEGUI",
        "fuente_seccion": "AD 2.12",
        "fecha_seccion": "2026-06-11",
        "amdt_airac": "1/2026",
        "aip_pagina": 4,
        "archivo_aip": "aip-69e10469037bf.pdf",
        "url_fuente": "https://ais.anac.gob.ar/descarga/aip-69e10469037bf",
        "fecha_extraccion": "2026-08-13",
        "rwy_1": "04",
        "rwy_2": "22",
        "designacion": "04/22",
        "longitud_publicada_m": 2000.0,
        "ancho_m": 30.0,
        "resistencia_superficie": "500/R/C/W/T",
        "brg_geo_1": 27.9,
        "brg_geo_2": 207.9,
        "metodo_geometria": "eje_extremos + ancho_AIP",
        "precision_geometria": "publicada/derivada"
      },
      "geometry": {
        "type": "Polygon",
        "coordinates": [
          [
            [
              -58.00227819707701,
              -31.30580900892118
            ],
            [
              -57.99246428473266,
              -31.289861786541863
            ],
            [
              -57.99218571508146,
              -31.289988213306493
            ],
            [
              -58.00199958051473,
              -31.305935435371556
            ],
            [
              -58.00227819707701,
              -31.30580900892118
            ]
          ]
        ]
      }
    },
    {
      "type": "Feature",
      "properties": {
        "icao": "SAAG",
        "iata": null,
        "aeropuerto": "GUALEGUAYCHÚ",
        "fuente_seccion": "AD 2.12",
        "fecha_seccion": "2023-11-30",
        "amdt_airac": "2/2023",
        "aip_pagina": 4,
        "archivo_aip": "aip-69ebb97edc7dc.pdf",
        "url_fuente": "https://ais.anac.gob.ar/descarga/aip-69ebb97edc7dc",
        "fecha_extraccion": "2026-08-13",
        "rwy_1": "01",
        "rwy_2": "19",
        "designacion": "01/19",
        "longitud_publicada_m": 1330.0,
        "ancho_m": 30.0,
        "resistencia_superficie": "16t/1 20t/2 32t/4",
        "brg_geo_1": 10.0,
        "brg_geo_2": 190.0,
        "metodo_geometria": "eje_extremos + ancho_AIP",
        "precision_geometria": "publicada/derivada"
      },
      "geometry": {
        "type": "Polygon",
        "coordinates": [
          [
            [
              -58.613085507508735,
              -33.01156722754026
            ],
            [
              -58.61285215245441,
              -32.99957278309158
            ],
            [
              -58.6125311808709,
              -32.999577216702114
            ],
            [
              -58.61276449248324,
              -33.011571661142256
            ],
            [
              -58.613085507508735,
              -33.01156722754026
            ]
          ]
        ]
      }
    },
    {
      "type": "Feature",
      "properties": {
        "icao": "SAAP",
        "iata": "PRA",
        "aeropuerto": "PARANÁ / GENERAL URQUIZA",
        "fuente_seccion": "AD 2.12",
        "fecha_seccion": "2026-06-11",
        "amdt_airac": "1/2026",
        "aip_pagina": 6,
        "archivo_aip": "aip-69e12b515db21.pdf",
        "url_fuente": "https://ais.anac.gob.ar/descarga/aip-69e12b515db21",
        "fecha_extraccion": "2026-08-13",
        "rwy_1": "02",
        "rwy_2": "20",
        "designacion": "02/20",
        "longitud_publicada_m": 2100.0,
        "ancho_m": 45.0,
        "resistencia_superficie": "36/F/C/W/T",
        "brg_geo_1": 8.0,
        "brg_geo_2": 188.0,
        "metodo_geometria": "eje_extremos + ancho_AIP",
        "precision_geometria": "publicada/derivada"
      },
      "geometry": {
        "type": "Polygon",
        "coordinates": [
          [
            [
              -60.482223922273796,
              -31.80410076084394
            ],
            [
              -60.478968319316984,
              -31.785367427422997
            ],
            [
              -60.478498347198986,
              -31.785427016587708
            ],
            [
              -60.48175385535314,
              -31.804160349833094
            ],
            [
              -60.482223922273796,
              -31.80410076084394
            ]
          ]
        ]
      }
    },
    {
      "type": "Feature",
      "properties": {
        "icao": "SAAR",
        "iata": "ROS",
        "aeropuerto": "ROSARIO / ISLAS MALVINAS",
        "fuente_seccion": "AD 2.12",
        "fecha_seccion": "2026-06-11",
        "amdt_airac": "1/2026",
        "aip_pagina": 5,
        "archivo_aip": "aip-69e105dba2f99.pdf",
        "url_fuente": "https://ais.anac.gob.ar/descarga/aip-69e105dba2f99",
        "fecha_extraccion": "2026-08-13",
        "rwy_1": "02",
        "rwy_2": "20",
        "designacion": "02/20",
        "longitud_publicada_m": 3001.0,
        "ancho_m": 45.0,
        "resistencia_superficie": "RWY 1.230/R/C/W/ T CONC 983/F/C/X/T ASPH",
        "brg_geo_1": 10.87,
        "brg_geo_2": 190.87,
        "metodo_geometria": "eje_extremos + ancho_AIP",
        "precision_geometria": "publicada/derivada"
      },
      "geometry": {
        "type": "Polygon",
        "coordinates": [
          [
            [
              -60.78790566471826,
              -32.91672840528751
            ],
            [
              -60.781855594159794,
              -32.89014784956926
            ],
            [
              -60.781383294526094,
              -32.89022437220679
            ],
            [
              -60.78743322396735,
              -32.91680492759922
            ],
            [
              -60.78790566471826,
              -32.91672840528751
            ]
          ]
        ]
      }
    },
    {
      "type": "Feature",
      "properties": {
        "icao": "SAAV",
        "iata": "SFN",
        "aeropuerto": "SANTA FE / SAUCE VIEJO",
        "fuente_seccion": "AD 2.12",
        "fecha_seccion": "2025-06-12",
        "amdt_airac": "1/2025",
        "aip_pagina": 5,
        "archivo_aip": "aip-69e13318f081b.pdf",
        "url_fuente": "https://ais.anac.gob.ar/descarga/aip-69e13318f081b",
        "fecha_extraccion": "2026-08-13",
        "rwy_1": "03",
        "rwy_2": "21",
        "designacion": "03/21",
        "longitud_publicada_m": 2325.0,
        "ancho_m": 30.0,
        "resistencia_superficie": "53/F/C/X/T",
        "brg_geo_1": 22.0,
        "brg_geo_2": 202.0,
        "metodo_geometria": "eje_extremos + ancho_AIP",
        "precision_geometria": "publicada/derivada"
      },
      "geometry": {
        "type": "Polygon",
        "coordinates": [
          [
            [
              -60.8161958206836,
              -31.72043631083431
            ],
            [
              -60.806665234902844,
              -31.70111964400822
            ],
            [
              -60.80637365382159,
              -31.70122480026913
            ],
            [
              -60.815904179151765,
              -31.720541466776247
            ],
            [
              -60.8161958206836,
              -31.72043631083431
            ]
          ]
        ]
      }
    },
    {
      "type": "Feature",
      "properties": {
        "icao": "SABE",
        "iata": "AEP",
        "aeropuerto": "AEROPARQUE JORGE NEWBERY",
        "fuente_seccion": "AD 2.12",
        "fecha_seccion": "2026-06-11",
        "amdt_airac": "1/2026",
        "aip_pagina": 8,
        "archivo_aip": "aip-6a10684a7a5bd.pdf",
        "url_fuente": "https://ais.anac.gob.ar/descarga/aip-6a10684a7a5bd",
        "fecha_extraccion": "2026-08-13",
        "rwy_1": "13",
        "rwy_2": "31",
        "designacion": "13/31",
        "longitud_publicada_m": 2350.0,
        "ancho_m": 45.0,
        "resistencia_superficie": "1170/R/C/W/T",
        "brg_geo_1": 124.01,
        "brg_geo_2": 304.0,
        "metodo_geometria": "eje_extremos + ancho_AIP",
        "precision_geometria": "publicada/derivada"
      },
      "geometry": {
        "type": "Polygon",
        "coordinates": [
          [
            [
              -58.425115670508056,
              -34.5537651948964
            ],
            [
              -58.40729065418608,
              -34.56371241739306
            ],
            [
              -58.407564901921404,
              -34.564048693559386
            ],
            [
              -58.42538988559916,
              -34.55410147161166
            ],
            [
              -58.425115670508056,
              -34.5537651948964
            ]
          ]
        ]
      }
    },
    {
      "type": "Feature",
      "properties": {
        "icao": "SACO",
        "iata": "COR",
        "aeropuerto": "CÓRDOBA / ING. AER. A. L. V. TARAVELLA",
        "fuente_seccion": "AD 2.12",
        "fecha_seccion": "2025-11-27",
        "amdt_airac": "2/2025",
        "aip_pagina": 6,
        "archivo_aip": "aip-69e1078aa7f9d.pdf",
        "url_fuente": "https://ais.anac.gob.ar/descarga/aip-69e1078aa7f9d",
        "fecha_extraccion": "2026-08-13",
        "rwy_1": "05",
        "rwy_2": "23",
        "designacion": "05/23",
        "longitud_publicada_m": 2200.0,
        "ancho_m": 45.0,
        "resistencia_superficie": "395/F/A/X/T ASPH",
        "brg_geo_1": 44.2,
        "brg_geo_2": 224.2,
        "metodo_geometria": "eje_extremos + ancho_AIP",
        "precision_geometria": "publicada/derivada"
      },
      "geometry": {
        "type": "Polygon",
        "coordinates": [
          [
            [
              -64.20767231517459,
              -31.32302524772483
            ],
            [
              -64.19155562299726,
              -31.308783580744205
            ],
            [
              -64.19121659871851,
              -31.309066419028934
            ],
            [
              -64.20733323987413,
              -31.323308085381495
            ],
            [
              -64.20767231517459,
              -31.32302524772483
            ]
          ]
        ]
      }
    },
    {
      "type": "Feature",
      "properties": {
        "icao": "SACO",
        "iata": "COR",
        "aeropuerto": "CÓRDOBA / ING. AER. A. L. V. TARAVELLA",
        "fuente_seccion": "AD 2.12",
        "fecha_seccion": "2025-11-27",
        "amdt_airac": "2/2025",
        "aip_pagina": 6,
        "archivo_aip": "aip-69e1078aa7f9d.pdf",
        "url_fuente": "https://ais.anac.gob.ar/descarga/aip-69e1078aa7f9d",
        "fecha_extraccion": "2026-08-13",
        "rwy_1": "01",
        "rwy_2": "19",
        "designacion": "01/19",
        "longitud_publicada_m": 3200.0,
        "ancho_m": 45.0,
        "resistencia_superficie": "680/R/B/W/T",
        "brg_geo_1": 359.2,
        "brg_geo_2": 179.2,
        "metodo_geometria": "eje_extremos + ancho_AIP",
        "precision_geometria": "publicada/derivada"
      },
      "geometry": {
        "type": "Polygon",
        "coordinates": [
          [
            [
              -64.20833637264325,
              -31.324533404862375
            ],
            [
              -64.20880852277435,
              -31.295658404875464
            ],
            [
              -64.20833592168434,
              -31.29565270580096
            ],
            [
              -64.207863627371,
              -31.324527705813534
            ],
            [
              -64.20833637264325,
              -31.324533404862375
            ]
          ]
        ]
      }
    },
    {
      "type": "Feature",
      "properties": {
        "icao": "SADF",
        "iata": "FDO",
        "aeropuerto": "SAN FERNANDO",
        "fuente_seccion": "AD 2.12",
        "fecha_seccion": "2026-06-11",
        "amdt_airac": "1/2026",
        "aip_pagina": 7,
        "archivo_aip": "aip-6a68fbe672145.pdf",
        "url_fuente": "https://ais.anac.gob.ar/descarga/aip-6a68fbe672145",
        "fecha_extraccion": "2026-08-13",
        "rwy_1": "05",
        "rwy_2": "23",
        "designacion": "05/23",
        "longitud_publicada_m": 1690.0,
        "ancho_m": 30.0,
        "resistencia_superficie": "18 F/C/X/U",
        "brg_geo_1": 44.19,
        "brg_geo_2": 224.18,
        "metodo_geometria": "eje_extremos + ancho_AIP",
        "precision_geometria": "publicada/derivada"
      },
      "geometry": {
        "type": "Polygon",
        "coordinates": [
          [
            [
              -58.59634761038687,
              -34.45901963620998
            ],
            [
              -58.585633708758586,
              -34.44988908051341
            ],
            [
              -58.585399624311805,
              -34.450077586039754
            ],
            [
              -58.59611350046116,
              -34.45920814145428
            ],
            [
              -58.59634761038687,
              -34.45901963620998
            ]
          ]
        ]
      }
    },
    {
      "type": "Feature",
      "properties": {
        "icao": "SADJ",
        "iata": null,
        "aeropuerto": "MARIANO MORENO",
        "fuente_seccion": "AD 2.12",
        "fecha_seccion": "2026-06-11",
        "amdt_airac": "1/2026",
        "aip_pagina": 4,
        "archivo_aip": "aip-69e16419c624e.pdf",
        "url_fuente": "https://ais.anac.gob.ar/descarga/aip-69e16419c624e",
        "fecha_extraccion": "2026-08-13",
        "rwy_1": "16",
        "rwy_2": "34",
        "designacion": "16/34",
        "longitud_publicada_m": 2403.0,
        "ancho_m": 40.0,
        "resistencia_superficie": "57t/1 74t/2 118t/4 143t/5",
        "brg_geo_1": 169.0,
        "brg_geo_2": 349.0,
        "metodo_geometria": "eje_extremos + ancho_AIP",
        "precision_geometria": "publicada/derivada"
      },
      "geometry": {
        "type": "Polygon",
        "coordinates": [
          [
            [
              -58.79352691933255,
              -34.55015056960962
            ],
            [
              -58.78419528707249,
              -34.57297185977611
            ],
            [
              -58.78460822813109,
              -34.57308738644137
            ],
            [
              -58.79393974761939,
              -34.550266096707546
            ],
            [
              -58.79352691933255,
              -34.55015056960962
            ]
          ]
        ]
      }
    },
    {
      "type": "Feature",
      "properties": {
        "icao": "SADM",
        "iata": null,
        "aeropuerto": "MORÓN",
        "fuente_seccion": "AD 2.12",
        "fecha_seccion": "2026-06-11",
        "amdt_airac": "1/2026",
        "aip_pagina": 5,
        "archivo_aip": "aip-69e135e507da0.pdf",
        "url_fuente": "https://ais.anac.gob.ar/descarga/aip-69e135e507da0",
        "fecha_extraccion": "2026-08-13",
        "rwy_1": "02",
        "rwy_2": "20",
        "designacion": "02/20",
        "longitud_publicada_m": 2303.0,
        "ancho_m": 3.0,
        "resistencia_superficie": "26t/1 34t/2 5",
        "brg_geo_1": 13.51,
        "brg_geo_2": 193.51,
        "metodo_geometria": "eje_extremos + ancho_AIP",
        "precision_geometria": "publicada/derivada"
      },
      "geometry": {
        "type": "Polygon",
        "coordinates": [
          [
            [
              -58.64643814525363,
              -34.68877186275958
            ],
            [
              -58.640610363612545,
              -34.66858575163805
            ],
            [
              -58.640578525275146,
              -34.66859202613764
            ],
            [
              -58.6464062991896,
              -34.688778137238344
            ],
            [
              -58.64643814525363,
              -34.68877186275958
            ]
          ]
        ]
      }
    },
    {
      "type": "Feature",
      "properties": {
        "icao": "SADP",
        "iata": "EPA",
        "aeropuerto": "EL PALOMAR",
        "fuente_seccion": "AD 2.12",
        "fecha_seccion": "2024-11-28",
        "amdt_airac": "2/2024",
        "aip_pagina": 7,
        "archivo_aip": "aip-69e26822c76b6.pdf",
        "url_fuente": "https://ais.anac.gob.ar/descarga/aip-69e26822c76b6",
        "fecha_extraccion": "2026-08-13",
        "rwy_1": "17",
        "rwy_2": "35",
        "designacion": "17/35",
        "longitud_publicada_m": 2110.0,
        "ancho_m": 45.0,
        "resistencia_superficie": "UW 55t/1 83t/2 125t/4 270t/8",
        "brg_geo_1": 156.8,
        "brg_geo_2": 336.8,
        "metodo_geometria": "eje_extremos + ancho_AIP",
        "precision_geometria": "publicada/derivada"
      },
      "geometry": {
        "type": "Polygon",
        "coordinates": [
          [
            [
              -58.61690506650759,
              -34.60107572449549
            ],
            [
              -58.6087078014908,
              -34.61690350248063
            ],
            [
              -58.60915886560772,
              -34.617063163768066
            ],
            [
              -58.61735604503504,
              -34.60123538619789
            ],
            [
              -58.61690506650759,
              -34.60107572449549
            ]
          ]
        ]
      }
    },
    {
      "type": "Feature",
      "properties": {
        "icao": "SAEZ",
        "iata": "EZE",
        "aeropuerto": "EZEIZA / MINISTRO PISTARINI",
        "fuente_seccion": "AD 2.12",
        "fecha_seccion": "2025-06-12",
        "amdt_airac": "1/2025",
        "aip_pagina": 5,
        "archivo_aip": "aip-69e10875b7c89.pdf",
        "url_fuente": "https://ais.anac.gob.ar/descarga/aip-69e10875b7c89",
        "fecha_extraccion": "2026-08-13",
        "rwy_1": "11",
        "rwy_2": "29",
        "designacion": "11/29",
        "longitud_publicada_m": 3300.0,
        "ancho_m": 60.0,
        "resistencia_superficie": "82/R/B/W/T ASPH 92/F/C/W/T CONC",
        "brg_geo_1": 102.3,
        "brg_geo_2": 282.2,
        "metodo_geometria": "eje_extremos + ancho_AIP",
        "precision_geometria": "publicada/derivada"
      },
      "geometry": {
        "type": "Polygon",
        "coordinates": [
          [
            [
              -58.55338030827666,
              -34.818788532826495
            ],
            [
              -58.51818030296325,
              -34.825096866434315
            ],
            [
              -58.51831969748196,
              -34.82562535573648
            ],
            [
              -58.553519692168415,
              -34.81931702267766
            ],
            [
              -58.55338030827666,
              -34.818788532826495
            ]
          ]
        ]
      }
    },
    {
      "type": "Feature",
      "properties": {
        "icao": "SAEZ",
        "iata": "EZE",
        "aeropuerto": "EZEIZA / MINISTRO PISTARINI",
        "fuente_seccion": "AD 2.12",
        "fecha_seccion": "2025-06-12",
        "amdt_airac": "1/2025",
        "aip_pagina": 5,
        "archivo_aip": "aip-69e10875b7c89.pdf",
        "url_fuente": "https://ais.anac.gob.ar/descarga/aip-69e10875b7c89",
        "fecha_extraccion": "2026-08-13",
        "rwy_1": "17",
        "rwy_2": "35",
        "designacion": "17/35",
        "longitud_publicada_m": 3105.0,
        "ancho_m": 45.0,
        "resistencia_superficie": "70 R/B/W/T ASPH",
        "brg_geo_1": 164.0,
        "brg_geo_2": 344.0,
        "metodo_geometria": "eje_extremos + ancho_AIP",
        "precision_geometria": "publicada/derivada"
      },
      "geometry": {
        "type": "Polygon",
        "coordinates": [
          [
            [
              -58.533710829672536,
              -34.80820803757194
            ],
            [
              -58.524356735519945,
              -34.835132501862056
            ],
            [
              -58.5248296748028,
              -34.835244203540974
            ],
            [
              -58.53418361509085,
              -34.80831973974612
            ],
            [
              -58.533710829672536,
              -34.80820803757194
            ]
          ]
        ]
      }
    },
    {
      "type": "Feature",
      "properties": {
        "icao": "SAME",
        "iata": "MDZ",
        "aeropuerto": "MENDOZA / El Plumerillo",
        "fuente_seccion": "AD 2.12",
        "fecha_seccion": "2025-06-12",
        "amdt_airac": "1/2025",
        "aip_pagina": 5,
        "archivo_aip": "aip-69fc9d7664864.pdf",
        "url_fuente": "https://ais.anac.gob.ar/descarga/aip-69fc9d7664864",
        "fecha_extraccion": "2026-08-13",
        "rwy_1": "18",
        "rwy_2": "36",
        "designacion": "18/36",
        "longitud_publicada_m": 2835.0,
        "ancho_m": 54.0,
        "resistencia_superficie": "970/R/B/W/T CONC",
        "brg_geo_1": 180.74,
        "brg_geo_2": 0.7,
        "metodo_geometria": "eje_extremos + ancho_AIP",
        "precision_geometria": "publicada/derivada"
      },
      "geometry": {
        "type": "Polygon",
        "coordinates": [
          [
            [
              -68.79239780603147,
              -32.819178064111185
            ],
            [
              -68.79277272475949,
              -32.84432528632076
            ],
            [
              -68.79334949744293,
              -32.844319157459154
            ],
            [
              -68.79297441617095,
              -32.8191719352249
            ],
            [
              -68.79239780603147,
              -32.819178064111185
            ]
          ]
        ]
      }
    },
    {
      "type": "Feature",
      "properties": {
        "icao": "SAMM",
        "iata": "LGS",
        "aeropuerto": "MALARGÜE / COMODORO D. R. SALOMÓN",
        "fuente_seccion": "AD 2.12",
        "fecha_seccion": "2025-06-12",
        "amdt_airac": "1/2025",
        "aip_pagina": 4,
        "archivo_aip": "aip-69e168cc06ad1.pdf",
        "url_fuente": "https://ais.anac.gob.ar/descarga/aip-69e168cc06ad1",
        "fecha_extraccion": "2026-08-13",
        "rwy_1": "09",
        "rwy_2": "27",
        "designacion": "09/27",
        "longitud_publicada_m": 1450.0,
        "ancho_m": 20.0,
        "resistencia_superficie": "ASPH 11t/1 15t/2",
        "brg_geo_1": 95.0,
        "brg_geo_2": 275.0,
        "metodo_geometria": "eje_extremos + ancho_AIP",
        "precision_geometria": "publicada/derivada"
      },
      "geometry": {
        "type": "Polygon",
        "coordinates": [
          [
            [
              -69.58229860634351,
              -35.484010451071384
            ],
            [
              -69.5636986060746,
              -35.48574656220831
            ],
            [
              -69.56372361617537,
              -35.485925660011276
            ],
            [
              -69.58232361590645,
              -35.48418954892598
            ],
            [
              -69.58229860634351,
              -35.484010451071384
            ]
          ]
        ]
      }
    },
    {
      "type": "Feature",
      "properties": {
        "icao": "SAMM",
        "iata": "LGS",
        "aeropuerto": "MALARGÜE / COMODORO D. R. SALOMÓN",
        "fuente_seccion": "AD 2.12",
        "fecha_seccion": "2025-06-12",
        "amdt_airac": "1/2025",
        "aip_pagina": 4,
        "archivo_aip": "aip-69e168cc06ad1.pdf",
        "url_fuente": "https://ais.anac.gob.ar/descarga/aip-69e168cc06ad1",
        "fecha_extraccion": "2026-08-13",
        "rwy_1": "14",
        "rwy_2": "32",
        "designacion": "14/32",
        "longitud_publicada_m": 2650.0,
        "ancho_m": 30.0,
        "resistencia_superficie": "ASPH",
        "brg_geo_1": 143.0,
        "brg_geo_2": 323.0,
        "metodo_geometria": "eje_extremos + ancho_AIP",
        "precision_geometria": "publicada/derivada"
      },
      "geometry": {
        "type": "Polygon",
        "coordinates": [
          [
            [
              -69.57980410966441,
              -35.4871772825676
            ],
            [
              -69.56589297179578,
              -35.50319672722024
            ],
            [
              -69.56616258402136,
              -35.50335327262812
            ],
            [
              -69.58007366837475,
              -35.48733382839196
            ],
            [
              -69.57980410966441,
              -35.4871772825676
            ]
          ]
        ]
      }
    },
    {
      "type": "Feature",
      "properties": {
        "icao": "SAMR",
        "iata": "AFA",
        "aeropuerto": "SAN RAFAEL / S. A. SANTIAGO GERMANO",
        "fuente_seccion": "AD 2.12",
        "fecha_seccion": "2025-11-27",
        "amdt_airac": "2/2025",
        "aip_pagina": 5,
        "archivo_aip": "aip-69e169708997f.pdf",
        "url_fuente": "https://ais.anac.gob.ar/descarga/aip-69e169708997f",
        "fecha_extraccion": "2026-08-13",
        "rwy_1": "11",
        "rwy_2": "29",
        "designacion": "11/29",
        "longitud_publicada_m": 2102.0,
        "ancho_m": 30.0,
        "resistencia_superficie": "430/F/B/X/T",
        "brg_geo_1": 108.46,
        "brg_geo_2": 288.46,
        "metodo_geometria": "eje_extremos + ancho_AIP",
        "precision_geometria": "publicada/derivada"
      },
      "geometry": {
        "type": "Polygon",
        "coordinates": [
          [
            [
              -68.41440374260546,
              -34.58468841965804
            ],
            [
              -68.39267318332374,
              -34.5906911975622
            ],
            [
              -68.39277681683552,
              -34.590947691302
            ],
            [
              -68.41450736866486,
              -34.584944913650595
            ],
            [
              -68.41440374260546,
              -34.58468841965804
            ]
          ]
        ]
      }
    },
    {
      "type": "Feature",
      "properties": {
        "icao": "SANC",
        "iata": "CTC",
        "aeropuerto": "CATAMARCA",
        "fuente_seccion": "AD 2.12",
        "fecha_seccion": "2026-06-11",
        "amdt_airac": "1/2026",
        "aip_pagina": 4,
        "archivo_aip": "aip-69e256ccb0f13.pdf",
        "url_fuente": "https://ais.anac.gob.ar/descarga/aip-69e256ccb0f13",
        "fecha_extraccion": "2026-08-13",
        "rwy_1": "02",
        "rwy_2": "20",
        "designacion": "02/20",
        "longitud_publicada_m": 2800.0,
        "ancho_m": 30.0,
        "resistencia_superficie": "550/R/B/W/T CONC",
        "brg_geo_1": 12.0,
        "brg_geo_2": 192.0,
        "metodo_geometria": "eje_extremos + ancho_AIP",
        "precision_geometria": "publicada/derivada"
      },
      "geometry": {
        "type": "Polygon",
        "coordinates": [
          [
            [
              -65.7543027990591,
              -28.605435785991965
            ],
            [
              -65.74836109731586,
              -28.580727452556275
            ],
            [
              -65.74806112482665,
              -28.580783658388924
            ],
            [
              -65.7540027564166,
              -28.605491991619747
            ],
            [
              -65.7543027990591,
              -28.605435785991965
            ]
          ]
        ]
      }
    },
    {
      "type": "Feature",
      "properties": {
        "icao": "SANE",
        "iata": "SDE",
        "aeropuerto": "SANTIAGO DEL ESTERO / VCOM. ÁNGEL D. LA PAZ ARAGONÉS",
        "fuente_seccion": "AD 2.12",
        "fecha_seccion": "2026-06-11",
        "amdt_airac": "1/2026",
        "aip_pagina": 4,
        "archivo_aip": "aip-69e1098092c2d.pdf",
        "url_fuente": "https://ais.anac.gob.ar/descarga/aip-69e1098092c2d",
        "fecha_extraccion": "2026-08-13",
        "rwy_1": "03",
        "rwy_2": "21",
        "designacion": "03/21",
        "longitud_publicada_m": 2435.0,
        "ancho_m": 45.0,
        "resistencia_superficie": "71t/1 96t/2 152t/4",
        "brg_geo_1": 36.0,
        "brg_geo_2": 216.0,
        "metodo_geometria": "eje_extremos + ancho_AIP",
        "precision_geometria": "publicada/derivada"
      },
      "geometry": {
        "type": "Polygon",
        "coordinates": [
          [
            [
              -64.31590752984378,
              -27.775266494101412
            ],
            [
              -64.30439916062686,
              -27.75582760494651
            ],
            [
              -64.30399528346842,
              -27.756016839201774
            ],
            [
              -64.31550358091782,
              -27.7754557278244
            ],
            [
              -64.31590752984378,
              -27.775266494101412
            ]
          ]
        ]
      }
    },
    {
      "type": "Feature",
      "properties": {
        "icao": "SANL",
        "iata": "IRJ",
        "aeropuerto": "LA RIOJA / CAPITÁN VICENTE A. ALMONACID",
        "fuente_seccion": "AD 2.12",
        "fecha_seccion": "2025-06-12",
        "amdt_airac": "1/2025",
        "aip_pagina": 5,
        "archivo_aip": "aip-69e254b904105.pdf",
        "url_fuente": "https://ais.anac.gob.ar/descarga/aip-69e254b904105",
        "fecha_extraccion": "2026-08-13",
        "rwy_1": "03",
        "rwy_2": "21",
        "designacion": "03/21",
        "longitud_publicada_m": 2806.0,
        "ancho_m": 30.0,
        "resistencia_superficie": "46t/1 60t/2 95t/4",
        "brg_geo_1": 28.0,
        "brg_geo_2": 208.0,
        "metodo_geometria": "eje_extremos + ancho_AIP",
        "precision_geometria": "publicada/derivada"
      },
      "geometry": {
        "type": "Polygon",
        "coordinates": [
          [
            [
              -66.80271382345911,
              -29.391519154667815
            ],
            [
              -66.78900546047993,
              -29.36922748778649
            ],
            [
              -66.78873342823836,
              -29.369355845407526
            ],
            [
              -66.80244173192563,
              -29.391647511859407
            ],
            [
              -66.80271382345911,
              -29.391519154667815
            ]
          ]
        ]
      }
    },
    {
      "type": "Feature",
      "properties": {
        "icao": "SANR",
        "iata": "RHD",
        "aeropuerto": "TERMAS DE RIO HONDO",
        "fuente_seccion": "AD 2.12",
        "fecha_seccion": "2026-06-11",
        "amdt_airac": "1/2026",
        "aip_pagina": 4,
        "archivo_aip": "aip-69e6130f69047.pdf",
        "url_fuente": "https://ais.anac.gob.ar/descarga/aip-69e6130f69047",
        "fecha_extraccion": "2026-08-13",
        "rwy_1": "01",
        "rwy_2": "19",
        "designacion": "01/19",
        "longitud_publicada_m": 2500.0,
        "ancho_m": 30.0,
        "resistencia_superficie": "ASPH -",
        "brg_geo_1": 2.0,
        "brg_geo_2": 182.0,
        "metodo_geometria": "eje_extremos + ancho_AIP",
        "precision_geometria": "publicada/derivada"
      },
      "geometry": {
        "type": "Polygon",
        "coordinates": [
          [
            [
              -64.93668499038712,
              -27.507877179225122
            ],
            [
              -64.93553495950609,
              -27.485341068094158
            ],
            [
              -64.93523170714373,
              -27.485353376185127
            ],
            [
              -64.9363816762627,
              -27.507889487276216
            ],
            [
              -64.93668499038712,
              -27.507877179225122
            ]
          ]
        ]
      }
    },
    {
      "type": "Feature",
      "properties": {
        "icao": "SANT",
        "iata": "TUC",
        "aeropuerto": "SAN MIGUEL de TUCUMÁN / Tte. BENJAMÍN MATIENZO",
        "fuente_seccion": "AD 2.12",
        "fecha_seccion": "2026-06-11",
        "amdt_airac": "1/2026",
        "aip_pagina": 4,
        "archivo_aip": "aip-69e10b1142729.pdf",
        "url_fuente": "https://ais.anac.gob.ar/descarga/aip-69e10b1142729",
        "fecha_extraccion": "2026-08-13",
        "rwy_1": "02",
        "rwy_2": "20",
        "designacion": "02/20",
        "longitud_publicada_m": 3500.0,
        "ancho_m": 45.0,
        "resistencia_superficie": "82/R/B/W/T",
        "brg_geo_1": 9.78,
        "brg_geo_2": 189.77,
        "metodo_geometria": "eje_extremos + ancho_AIP",
        "precision_geometria": "publicada/derivada"
      },
      "geometry": {
        "type": "Polygon",
        "coordinates": [
          [
            [
              -65.1075425539163,
              -26.853748853269785
            ],
            [
              -65.10156471514446,
              -26.822621075340493
            ],
            [
              -65.10111861805383,
              -26.82269003541892
            ],
            [
              -65.10709633483735,
              -26.853817813044696
            ],
            [
              -65.1075425539163,
              -26.853748853269785
            ]
          ]
        ]
      }
    },
    {
      "type": "Feature",
      "properties": {
        "icao": "SANU",
        "iata": "UAQ",
        "aeropuerto": "SAN JUAN / DOMINGO FAUSTINO SARMIENTO",
        "fuente_seccion": "AD 2.12",
        "fecha_seccion": "2026-06-11",
        "amdt_airac": "1/2026",
        "aip_pagina": 5,
        "archivo_aip": "aip-69e10b2277811.pdf",
        "url_fuente": "https://ais.anac.gob.ar/descarga/aip-69e10b2277811",
        "fecha_extraccion": "2026-08-13",
        "rwy_1": "18",
        "rwy_2": "36",
        "designacion": "18/36",
        "longitud_publicada_m": 2460.0,
        "ancho_m": 45.0,
        "resistencia_superficie": "ASPH 430/F/B/X/T",
        "brg_geo_1": 179.51,
        "brg_geo_2": 359.51,
        "metodo_geometria": "eje_extremos + ancho_AIP",
        "precision_geometria": "publicada/derivada"
      },
      "geometry": {
        "type": "Polygon",
        "coordinates": [
          [
            [
              -68.4181685755508,
              -31.560367704324474
            ],
            [
              -68.41794629720611,
              -31.582553815441443
            ],
            [
              -68.41842036946936,
              -31.58255729523001
            ],
            [
              -68.41864253556913,
              -31.56037118412514
            ],
            [
              -68.4181685755508,
              -31.560367704324474
            ]
          ]
        ]
      }
    },
    {
      "type": "Feature",
      "properties": {
        "icao": "SAOC",
        "iata": "RCU",
        "aeropuerto": "RÍO CUARTO / ÁREA DE MATERIAL",
        "fuente_seccion": "AD 2.12",
        "fecha_seccion": "2026-06-11",
        "amdt_airac": "1/2026",
        "aip_pagina": 4,
        "archivo_aip": "aip-69e10b83ad8fa.pdf",
        "url_fuente": "https://ais.anac.gob.ar/descarga/aip-69e10b83ad8fa",
        "fecha_extraccion": "2026-08-13",
        "rwy_1": "05",
        "rwy_2": "23",
        "designacion": "05/23",
        "longitud_publicada_m": 2265.0,
        "ancho_m": 45.0,
        "resistencia_superficie": "490/F/A/X/T",
        "brg_geo_1": 44.32,
        "brg_geo_2": 224.32,
        "metodo_geometria": "eje_extremos + ancho_AIP",
        "precision_geometria": "publicada/derivada"
      },
      "geometry": {
        "type": "Polygon",
        "coordinates": [
          [
            [
              -64.27797244071444,
              -33.099327698277754
            ],
            [
              -64.26101685662746,
              -33.084711031278296
            ],
            [
              -64.26067203170825,
              -33.084994524035615
            ],
            [
              -64.277627558732,
              -33.09961119036936
            ],
            [
              -64.27797244071444,
              -33.099327698277754
            ]
          ]
        ]
      }
    },
    {
      "type": "Feature",
      "properties": {
        "icao": "SAOC",
        "iata": "RCU",
        "aeropuerto": "RÍO CUARTO / ÁREA DE MATERIAL",
        "fuente_seccion": "AD 2.12",
        "fecha_seccion": "2026-06-11",
        "amdt_airac": "1/2026",
        "aip_pagina": 4,
        "archivo_aip": "aip-69e10b83ad8fa.pdf",
        "url_fuente": "https://ais.anac.gob.ar/descarga/aip-69e10b83ad8fa",
        "fecha_extraccion": "2026-08-13",
        "rwy_1": "01",
        "rwy_2": "19",
        "designacion": "01/19",
        "longitud_publicada_m": 2075.0,
        "ancho_m": 40.0,
        "resistencia_superficie": "440/F/B/X/T",
        "brg_geo_1": 359.33,
        "brg_geo_2": 179.33,
        "metodo_geometria": "eje_extremos + ancho_AIP",
        "precision_geometria": "publicada/derivada"
      },
      "geometry": {
        "type": "Polygon",
        "coordinates": [
          [
            [
              -64.26144757730624,
              -33.1023048734137
            ],
            [
              -64.26170586526122,
              -33.08359376230902
            ],
            [
              -64.26127746808228,
              -33.08358957065633
            ],
            [
              -64.2610190893706,
              -33.102300681773606
            ],
            [
              -64.26144757730624,
              -33.1023048734137
            ]
          ]
        ]
      }
    },
    {
      "type": "Feature",
      "properties": {
        "icao": "SAOR",
        "iata": "VME",
        "aeropuerto": "VILLA REYNOLDS",
        "fuente_seccion": "AD 2.12",
        "fecha_seccion": "2026-06-11",
        "amdt_airac": "2/2026",
        "aip_pagina": 4,
        "archivo_aip": "aip-69e10c27bbaf1.pdf",
        "url_fuente": "https://ais.anac.gob.ar/descarga/aip-69e10c27bbaf1",
        "fecha_extraccion": "2026-08-13",
        "rwy_1": "06",
        "rwy_2": "24",
        "designacion": "06/24",
        "longitud_publicada_m": 2362.0,
        "ancho_m": 50.0,
        "resistencia_superficie": "65t/1 80t/2 135t/4 ASPH",
        "brg_geo_1": 62.0,
        "brg_geo_2": 242.0,
        "metodo_geometria": "eje_extremos + ancho_AIP",
        "precision_geometria": "publicada/derivada"
      },
      "geometry": {
        "type": "Polygon",
        "coordinates": [
          [
            [
              -65.3891242248545,
              -33.73046334754046
            ],
            [
              -65.3673908733453,
              -33.71933834719366
            ],
            [
              -65.3671091260268,
              -33.71972276375078
            ],
            [
              -65.38884244118395,
              -33.73084776340393
            ],
            [
              -65.3891242248545,
              -33.73046334754046
            ]
          ]
        ]
      }
    },
    {
      "type": "Feature",
      "properties": {
        "icao": "SAOR",
        "iata": "VME",
        "aeropuerto": "VILLA REYNOLDS",
        "fuente_seccion": "AD 2.12",
        "fecha_seccion": "2026-06-11",
        "amdt_airac": "2/2026",
        "aip_pagina": 4,
        "archivo_aip": "aip-69e10c27bbaf1.pdf",
        "url_fuente": "https://ais.anac.gob.ar/descarga/aip-69e10c27bbaf1",
        "fecha_extraccion": "2026-08-13",
        "rwy_1": "10",
        "rwy_2": "28",
        "designacion": "10/28",
        "longitud_publicada_m": 2397.0,
        "ancho_m": 45.0,
        "resistencia_superficie": "35t/1 45t/2 71t/4 ASPH A",
        "brg_geo_1": 105.0,
        "brg_geo_2": 285.0,
        "metodo_geometria": "eje_extremos + ancho_AIP",
        "precision_geometria": "publicada/derivada"
      },
      "geometry": {
        "type": "Polygon",
        "coordinates": [
          [
            [
              -65.3884251902719,
              -33.72948154488617
            ],
            [
              -65.36305296576735,
              -33.73366487835454
            ],
            [
              -65.3631470344498,
              -33.734062899398914
            ],
            [
              -65.38851925438969,
              -33.72987956620062
            ],
            [
              -65.3884251902719,
              -33.72948154488617
            ]
          ]
        ]
      }
    },
    {
      "type": "Feature",
      "properties": {
        "icao": "SAOS",
        "iata": "RLO",
        "aeropuerto": "VALLE DEL CONLARA",
        "fuente_seccion": "AD 2.12",
        "fecha_seccion": "2026-06-11",
        "amdt_airac": "1/2026",
        "aip_pagina": 4,
        "archivo_aip": "aip-69e10c3899e4a.pdf",
        "url_fuente": "https://ais.anac.gob.ar/descarga/aip-69e10c3899e4a",
        "fecha_extraccion": "2026-08-13",
        "rwy_1": "02",
        "rwy_2": "20",
        "designacion": "02/20",
        "longitud_publicada_m": 2550.0,
        "ancho_m": 45.0,
        "resistencia_superficie": "40/R/C/W/T CONC",
        "brg_geo_1": 17.57,
        "brg_geo_2": 197.57,
        "metodo_geometria": "eje_extremos + ancho_AIP",
        "precision_geometria": "publicada/derivada"
      },
      "geometry": {
        "type": "Polygon",
        "coordinates": [
          [
            [
              -65.19009187430864,
              -32.39536929967221
            ],
            [
              -65.1819112636994,
              -32.373447077236854
            ],
            [
              -65.18145540265978,
              -32.373569589017194
            ],
            [
              -65.18963590316133,
              -32.395491811025934
            ],
            [
              -65.19009187430864,
              -32.39536929967221
            ]
          ]
        ]
      }
    },
    {
      "type": "Feature",
      "properties": {
        "icao": "SAOU",
        "iata": "LUQ",
        "aeropuerto": "SAN LUIS / BRIG.MY. CESAR RAUL OJEDA",
        "fuente_seccion": "AD 2.12",
        "fecha_seccion": "2026-06-11",
        "amdt_airac": "1/2026",
        "aip_pagina": 5,
        "archivo_aip": "aip-69e23dcde0868(1).pdf",
        "url_fuente": "https://ais.anac.gob.ar/descarga/aip-69e23dcde0868",
        "fecha_extraccion": "2026-08-13",
        "rwy_1": "01",
        "rwy_2": "19",
        "designacion": "01/19",
        "longitud_publicada_m": 2955.0,
        "ancho_m": 30.0,
        "resistencia_superficie": "PCN 36/F/B/W/T",
        "brg_geo_1": 9.0,
        "brg_geo_2": 189.0,
        "metodo_geometria": "eje_extremos + ancho_AIP",
        "precision_geometria": "publicada/derivada"
      },
      "geometry": {
        "type": "Polygon",
        "coordinates": [
          [
            [
              -66.35846276394334,
              -33.28638740067941
            ],
            [
              -66.35485716012208,
              -33.25991795616951
            ],
            [
              -66.3545372842663,
              -33.259948710291425
            ],
            [
              -66.35814279155609,
              -33.28641815467017
            ],
            [
              -66.35846276394334,
              -33.28638740067941
            ]
          ]
        ]
      }
    },
    {
      "type": "Feature",
      "properties": {
        "icao": "SARC",
        "iata": "CNQ",
        "aeropuerto": "CORRIENTES",
        "fuente_seccion": "AD 2.12",
        "fecha_seccion": "2026-06-11",
        "amdt_airac": "1/2026",
        "aip_pagina": 5,
        "archivo_aip": "aip-69e10de8df659(1).pdf",
        "url_fuente": "https://ais.anac.gob.ar/descarga/aip-69e10de8df659",
        "fecha_extraccion": "2026-08-13",
        "rwy_1": "02",
        "rwy_2": "20",
        "designacion": "02/20",
        "longitud_publicada_m": 2250.0,
        "ancho_m": 45.0,
        "resistencia_superficie": "500/R/C/W/T ASPH",
        "brg_geo_1": 7.9,
        "brg_geo_2": 187.9,
        "metodo_geometria": "eje_extremos + ancho_AIP",
        "precision_geometria": "publicada/derivada"
      },
      "geometry": {
        "type": "Polygon",
        "coordinates": [
          [
            [
              -58.76347569309363,
              -27.454926883708104
            ],
            [
              -58.76035856923796,
              -27.43481747657873
            ],
            [
              -58.75990771881501,
              -27.434873112082148
            ],
            [
              -58.763024760917304,
              -27.454982519050894
            ],
            [
              -58.76347569309363,
              -27.454926883708104
            ]
          ]
        ]
      }
    },
    {
      "type": "Feature",
      "properties": {
        "icao": "SARE",
        "iata": "RES",
        "aeropuerto": "RESISTENCIA",
        "fuente_seccion": "AD 2.12",
        "fecha_seccion": "2025-11-27",
        "amdt_airac": "2/2025",
        "aip_pagina": 5,
        "archivo_aip": "aip-69e23557ecfd0(1).pdf",
        "url_fuente": "https://ais.anac.gob.ar/descarga/aip-69e23557ecfd0",
        "fecha_extraccion": "2026-08-13",
        "rwy_1": "03",
        "rwy_2": "21",
        "designacion": "03/21",
        "longitud_publicada_m": 2770.0,
        "ancho_m": 45.0,
        "resistencia_superficie": "410/F/A/X/T",
        "brg_geo_1": 20.7,
        "brg_geo_2": 200.7,
        "metodo_geometria": "eje_extremos + ancho_AIP",
        "precision_geometria": "publicada/derivada"
      },
      "geometry": {
        "type": "Polygon",
        "coordinates": [
          [
            [
              -59.06127931946815,
              -27.46153035134534
            ],
            [
              -59.05128483023773,
              -27.438174795547052
            ],
            [
              -59.05085961392911,
              -27.438319648572282
            ],
            [
              -59.06085401358724,
              -27.461675203884784
            ],
            [
              -59.06127931946815,
              -27.46153035134534
            ]
          ]
        ]
      }
    },
    {
      "type": "Feature",
      "properties": {
        "icao": "SARF",
        "iata": "FMA",
        "aeropuerto": "FORMOSA",
        "fuente_seccion": "AD 2.12",
        "fecha_seccion": "2026-06-11",
        "amdt_airac": "1/2026",
        "aip_pagina": 6,
        "archivo_aip": "aip-69e249b1a7ad5(1).pdf",
        "url_fuente": "https://ais.anac.gob.ar/descarga/aip-69e249b1a7ad5",
        "fecha_extraccion": "2026-08-13",
        "rwy_1": "04",
        "rwy_2": "22",
        "designacion": "04/22",
        "longitud_publicada_m": 1800.0,
        "ancho_m": 30.0,
        "resistencia_superficie": "430/F/D/X/T",
        "brg_geo_1": 40.0,
        "brg_geo_2": 220.0,
        "metodo_geometria": "eje_extremos + ancho_AIP",
        "precision_geometria": "publicada/derivada"
      },
      "geometry": {
        "type": "Polygon",
        "coordinates": [
          [
            [
              -58.23208326365019,
              -26.220073338577578
            ],
            [
              -58.22448046877238,
              -26.205365005127238
            ],
            [
              -58.224208419983555,
              -26.205479439188114
            ],
            [
              -58.23181118066117,
              -26.22018777240436
            ],
            [
              -58.23208326365019,
              -26.220073338577578
            ]
          ]
        ]
      }
    },
    {
      "type": "Feature",
      "properties": {
        "icao": "SARI",
        "iata": "IGR",
        "aeropuerto": "CATARATAS DEL IGUAZÚ / Mayor D. Carlos Eduardo Krause",
        "fuente_seccion": "AD 2.12",
        "fecha_seccion": "2025-06-12",
        "amdt_airac": "1/2025",
        "aip_pagina": 5,
        "archivo_aip": "aip-69e6163c31b23(1).pdf",
        "url_fuente": "https://ais.anac.gob.ar/descarga/aip-69e6163c31b23",
        "fecha_extraccion": "2026-08-13",
        "rwy_1": "13",
        "rwy_2": "31",
        "designacion": "13/31",
        "longitud_publicada_m": 3300.0,
        "ancho_m": 45.0,
        "resistencia_superficie": "69/F/B/W/T",
        "brg_geo_1": 131.0,
        "brg_geo_2": 311.0,
        "metodo_geometria": "eje_extremos + ancho_AIP",
        "precision_geometria": "publicada/derivada"
      },
      "geometry": {
        "type": "Polygon",
        "coordinates": [
          [
            [
              -54.48828383548424,
              -25.730854474870817
            ],
            [
              -54.458417159008334,
              -25.743332252964485
            ],
            [
              -54.458605063503946,
              -25.743701080303584
            ],
            [
              -54.48847172036117,
              -25.731223302841713
            ],
            [
              -54.48828383548424,
              -25.730854474870817
            ]
          ]
        ]
      }
    },
    {
      "type": "Feature",
      "properties": {
        "icao": "SARP",
        "iata": "PSS",
        "aeropuerto": "POSADAS / Libertador Gral. D. José de San Martín",
        "fuente_seccion": "AD 2.12",
        "fecha_seccion": "2026-06-11",
        "amdt_airac": "1/2026",
        "aip_pagina": 5,
        "archivo_aip": "aip-69e1137370dba(1).pdf",
        "url_fuente": "https://ais.anac.gob.ar/descarga/aip-69e1137370dba",
        "fecha_extraccion": "2026-08-13",
        "rwy_1": "02",
        "rwy_2": "20",
        "designacion": "02/20",
        "longitud_publicada_m": 2252.0,
        "ancho_m": 30.0,
        "resistencia_superficie": "590/F/C/X/T ASPH",
        "brg_geo_1": 359.15,
        "brg_geo_2": 179.15,
        "metodo_geometria": "eje_extremos + ancho_AIP",
        "precision_geometria": "publicada/derivada"
      },
      "geometry": {
        "type": "Polygon",
        "coordinates": [
          [
            [
              -55.97049331120965,
              -27.39591309271404
            ],
            [
              -55.970826616825555,
              -27.375588092719884
            ],
            [
              -55.970523383179845,
              -27.375584129337646
            ],
            [
              -55.970190022129096,
              -27.395909129343355
            ],
            [
              -55.97049331120965,
              -27.39591309271404
            ]
          ]
        ]
      }
    },
    {
      "type": "Feature",
      "properties": {
        "icao": "SASA",
        "iata": "SLA",
        "aeropuerto": "SALTA / Gral. Don Martín Miguel de Güemes",
        "fuente_seccion": "AD 2.12",
        "fecha_seccion": "2025-11-27",
        "amdt_airac": "2/2025",
        "aip_pagina": 7,
        "archivo_aip": "aip-69e1138586777(1).pdf",
        "url_fuente": "https://ais.anac.gob.ar/descarga/aip-69e1138586777",
        "fecha_extraccion": "2026-08-13",
        "rwy_1": "02",
        "rwy_2": "20",
        "designacion": "02/20",
        "longitud_publicada_m": 2989.0,
        "ancho_m": 45.0,
        "resistencia_superficie": "530/R/A/W/T CONC 395/F/A/X/T ASPH",
        "brg_geo_1": 20.0,
        "brg_geo_2": 200.0,
        "metodo_geometria": "eje_extremos + ancho_AIP",
        "precision_geometria": "publicada/derivada"
      },
      "geometry": {
        "type": "Polygon",
        "coordinates": [
          [
            [
              -65.49015723066623,
              -24.87279355175923
            ],
            [
              -65.48436551754153,
              -24.846332440507393
            ],
            [
              -65.4839289267633,
              -24.84641200361796
            ],
            [
              -65.48972054697175,
              -24.87287311458797
            ],
            [
              -65.49015723066623,
              -24.87279355175923
            ]
          ]
        ]
      }
    },
    {
      "type": "Feature",
      "properties": {
        "icao": "SASA",
        "iata": "SLA",
        "aeropuerto": "SALTA / Gral. Don Martín Miguel de Güemes",
        "fuente_seccion": "AD 2.12",
        "fecha_seccion": "2025-11-27",
        "amdt_airac": "2/2025",
        "aip_pagina": 7,
        "archivo_aip": "aip-69e1138586777(1).pdf",
        "url_fuente": "https://ais.anac.gob.ar/descarga/aip-69e1138586777",
        "fecha_extraccion": "2026-08-13",
        "rwy_1": "06",
        "rwy_2": "24",
        "designacion": "06/24",
        "longitud_publicada_m": 2400.0,
        "ancho_m": 30.0,
        "resistencia_superficie": "430/F/B/X/T",
        "brg_geo_1": 61.0,
        "brg_geo_2": 241.0,
        "metodo_geometria": "eje_extremos + ancho_AIP",
        "precision_geometria": "publicada/derivada"
      },
      "geometry": {
        "type": "Polygon",
        "coordinates": [
          [
            [
              -65.48966590713744,
              -24.85799018152206
            ],
            [
              -65.47089645299423,
              -24.844717959109726
            ],
            [
              -65.47071465796051,
              -24.844932040833456
            ],
            [
              -65.48948409270606,
              -24.858204262865527
            ],
            [
              -65.48966590713744,
              -24.85799018152206
            ]
          ]
        ]
      }
    },
    {
      "type": "Feature",
      "properties": {
        "icao": "SASJ",
        "iata": "JUJ",
        "aeropuerto": "JUJUY / Gobernador Horacio Guzmán",
        "fuente_seccion": "AD 2.12",
        "fecha_seccion": "2025-11-27",
        "amdt_airac": "2/2025",
        "aip_pagina": 7,
        "archivo_aip": "aip-69e113f9e6050(1).pdf",
        "url_fuente": "https://ais.anac.gob.ar/descarga/aip-69e113f9e6050",
        "fecha_extraccion": "2026-08-13",
        "rwy_1": "16",
        "rwy_2": "34",
        "designacion": "16/34",
        "longitud_publicada_m": 2944.0,
        "ancho_m": 40.0,
        "resistencia_superficie": "470/F/C/X/U",
        "brg_geo_1": 150.15,
        "brg_geo_2": 330.15,
        "metodo_geometria": "eje_extremos + ancho_AIP",
        "precision_geometria": "publicada/derivada"
      },
      "geometry": {
        "type": "Polygon",
        "coordinates": [
          [
            [
              -65.10485956448969,
              -24.381115689105773
            ],
            [
              -65.09041231123695,
              -24.40417124493469
            ],
            [
              -65.09075435567175,
              -24.404350977093316
            ],
            [
              -65.10520154686316,
              -24.381295421811334
            ],
            [
              -65.10485956448969,
              -24.381115689105773
            ]
          ]
        ]
      }
    },
    {
      "type": "Feature",
      "properties": {
        "icao": "SATR",
        "iata": "RCQ",
        "aeropuerto": "RECONQUISTA",
        "fuente_seccion": "AD 2.12",
        "fecha_seccion": "2026-06-11",
        "amdt_airac": "1/2026",
        "aip_pagina": 5,
        "archivo_aip": "aip-69e11419cd188(1).pdf",
        "url_fuente": "https://ais.anac.gob.ar/descarga/aip-69e11419cd188",
        "fecha_extraccion": "2026-08-13",
        "rwy_1": "02",
        "rwy_2": "20",
        "designacion": "02/20",
        "longitud_publicada_m": 1250.0,
        "ancho_m": 34.0,
        "resistencia_superficie": "310/R/C/W/T CONC",
        "brg_geo_1": 7.05,
        "brg_geo_2": 187.05,
        "metodo_geometria": "eje_extremos + ancho_AIP",
        "precision_geometria": "publicada/derivada"
      },
      "geometry": {
        "type": "Polygon",
        "coordinates": [
          [
            [
              -59.691029056132656,
              -29.21003394923779
            ],
            [
              -59.6894512595087,
              -29.198842282539655
            ],
            [
              -59.68910429598346,
              -29.198879939457658
            ],
            [
              -59.690682054915015,
              -29.210071606092775
            ],
            [
              -59.691029056132656,
              -29.21003394923779
            ]
          ]
        ]
      }
    },
    {
      "type": "Feature",
      "properties": {
        "icao": "SATR",
        "iata": "RCQ",
        "aeropuerto": "RECONQUISTA",
        "fuente_seccion": "AD 2.12",
        "fecha_seccion": "2026-06-11",
        "amdt_airac": "1/2026",
        "aip_pagina": 5,
        "archivo_aip": "aip-69e11419cd188(1).pdf",
        "url_fuente": "https://ais.anac.gob.ar/descarga/aip-69e11419cd188",
        "fecha_extraccion": "2026-08-13",
        "rwy_1": "10",
        "rwy_2": "28",
        "designacion": "10/28",
        "longitud_publicada_m": 2800.0,
        "ancho_m": 50.0,
        "resistencia_superficie": "310/R/C/W/T CONC",
        "brg_geo_1": 89.57,
        "brg_geo_2": 269.56,
        "metodo_geometria": "eje_extremos + ancho_AIP",
        "precision_geometria": "publicada/derivada"
      },
      "geometry": {
        "type": "Polygon",
        "coordinates": [
          [
            [
              -59.6942713627135,
              -29.210155009948583
            ],
            [
              -59.66546580715437,
              -29.20996334327545
            ],
            [
              -59.665461970615,
              -29.210414434494687
            ],
            [
              -59.69426752616699,
              -29.210606101154895
            ],
            [
              -59.6942713627135,
              -29.210155009948583
            ]
          ]
        ]
      }
    },
    {
      "type": "Feature",
      "properties": {
        "icao": "SAVC",
        "iata": "CRD",
        "aeropuerto": "COMODORO RIVADAVIA / GRAL. E. MOSCONI",
        "fuente_seccion": "AD 2.12",
        "fecha_seccion": "2025-11-27",
        "amdt_airac": "2/2025",
        "aip_pagina": 6,
        "archivo_aip": "aip-69e1143c25a85(1).pdf",
        "url_fuente": "https://ais.anac.gob.ar/descarga/aip-69e1143c25a85",
        "fecha_extraccion": "2026-08-13",
        "rwy_1": "07",
        "rwy_2": "25",
        "designacion": "07/25",
        "longitud_publicada_m": 2760.0,
        "ancho_m": 50.0,
        "resistencia_superficie": "710/R/C/W/T",
        "brg_geo_1": 74.0,
        "brg_geo_2": 254.0,
        "metodo_geometria": "eje_extremos + ancho_AIP",
        "precision_geometria": "publicada/derivada"
      },
      "geometry": {
        "type": "Polygon",
        "coordinates": [
          [
            [
              -67.4739674389934,
              -45.78612057342209
            ],
            [
              -67.447986879842,
              -45.78271779551204
            ],
            [
              -67.44786867524631,
              -45.78315998222656
            ],
            [
              -67.47384922720596,
              -45.78656275987208
            ],
            [
              -67.4739674389934,
              -45.78612057342209
            ]
          ]
        ]
      }
    },
    {
      "type": "Feature",
      "properties": {
        "icao": "SAVE",
        "iata": "EQS",
        "aeropuerto": "ESQUEL / Brigadier General Antonio Parodi",
        "fuente_seccion": "AD 2.12",
        "fecha_seccion": "2026-06-11",
        "amdt_airac": "1/2026",
        "aip_pagina": 5,
        "archivo_aip": "aip-69e114f5ef93e(1).pdf",
        "url_fuente": "https://ais.anac.gob.ar/descarga/aip-69e114f5ef93e",
        "fecha_extraccion": "2026-08-13",
        "rwy_1": "05",
        "rwy_2": "23",
        "designacion": "05/23",
        "longitud_publicada_m": 2393.0,
        "ancho_m": 40.0,
        "resistencia_superficie": "50t/1 74t/2 115t/4 178/t5 220/t8 ASPH",
        "brg_geo_1": 49.0,
        "brg_geo_2": 229.0,
        "metodo_geometria": "eje_extremos + ancho_AIP",
        "precision_geometria": "publicada/derivada"
      },
      "geometry": {
        "type": "Polygon",
        "coordinates": [
          [
            [
              -71.14795795257112,
              -42.909501580831865
            ],
            [
              -71.12334959410504,
              -42.897804358299595
            ],
            [
              -71.12308373857876,
              -42.89810675265318
            ],
            [
              -71.14769204677899,
              -42.909803974565264
            ],
            [
              -71.14795795257112,
              -42.909501580831865
            ]
          ]
        ]
      }
    },
    {
      "type": "Feature",
      "properties": {
        "icao": "SAVE",
        "iata": "EQS",
        "aeropuerto": "ESQUEL / Brigadier General Antonio Parodi",
        "fuente_seccion": "AD 2.12",
        "fecha_seccion": "2026-06-11",
        "amdt_airac": "1/2026",
        "aip_pagina": 5,
        "archivo_aip": "aip-69e114f5ef93e(1).pdf",
        "url_fuente": "https://ais.anac.gob.ar/descarga/aip-69e114f5ef93e",
        "fecha_extraccion": "2026-08-13",
        "rwy_1": "08",
        "rwy_2": "26",
        "designacion": "08/26",
        "longitud_publicada_m": 1239.0,
        "ancho_m": 30.0,
        "resistencia_superficie": "GND",
        "brg_geo_1": 83.0,
        "brg_geo_2": 263.0,
        "metodo_geometria": "eje_extremos + ancho_AIP",
        "precision_geometria": "publicada/derivada"
      },
      "geometry": {
        "type": "Polygon",
        "coordinates": [
          [
            [
              -71.15033749950787,
              -42.91171775722213
            ],
            [
              -71.13516805506156,
              -42.91180109055744
            ],
            [
              -71.13517083383343,
              -42.91207113166158
            ],
            [
              -71.15034027827599,
              -42.91198779833021
            ],
            [
              -71.15033749950787,
              -42.91171775722213
            ]
          ]
        ]
      }
    },
    {
      "type": "Feature",
      "properties": {
        "icao": "SAVT",
        "iata": "REL",
        "aeropuerto": "TRELEW / ALMIRANTE ZAR",
        "fuente_seccion": "AD 2.12",
        "fecha_seccion": "2026-06-11",
        "amdt_airac": "1/2026",
        "aip_pagina": 4,
        "archivo_aip": "aip-69e11508bc15d.pdf",
        "url_fuente": "https://ais.anac.gob.ar/descarga/aip-69e11508bc15d",
        "fecha_extraccion": "2026-08-13",
        "rwy_1": "07",
        "rwy_2": "25",
        "designacion": "07/25",
        "longitud_publicada_m": 2560.0,
        "ancho_m": 45.0,
        "resistencia_superficie": "ASPH",
        "brg_geo_1": 67.0,
        "brg_geo_2": 247.0,
        "metodo_geometria": "eje_extremos + ancho_AIP",
        "precision_geometria": "publicada/derivada"
      },
      "geometry": {
        "type": "Polygon",
        "coordinates": [
          [
            [
              -65.28519563630991,
              -43.2143690305741
            ],
            [
              -65.2557484009135,
              -43.20617458585749
            ],
            [
              -65.25555159847794,
              -43.20655319182939
            ],
            [
              -65.28499880752572,
              -43.21474763600162
            ],
            [
              -65.28519563630991,
              -43.2143690305741
            ]
          ]
        ]
      }
    },
    {
      "type": "Feature",
      "properties": {
        "icao": "SAVV",
        "iata": "VDM",
        "aeropuerto": "VIEDMA / GOBERNADOR CASTELLO",
        "fuente_seccion": "AD 2.12",
        "fecha_seccion": "2025-06-12",
        "amdt_airac": "1/2025",
        "aip_pagina": 5,
        "archivo_aip": "aip-69e7b1a89ea5e.pdf",
        "url_fuente": "https://ais.anac.gob.ar/descarga/aip-69e7b1a89ea5e",
        "fecha_extraccion": "2026-08-13",
        "rwy_1": "11",
        "rwy_2": "29",
        "designacion": "11/29",
        "longitud_publicada_m": 1457.0,
        "ancho_m": 45.0,
        "resistencia_superficie": "23t/1 29t/2 47t/4 ASPH 60t/1 94t/2 150t/4 230t/5",
        "brg_geo_1": 26.0,
        "brg_geo_2": 287.0,
        "metodo_geometria": "eje_extremos + ancho_AIP",
        "precision_geometria": "publicada/derivada"
      },
      "geometry": {
        "type": "Polygon",
        "coordinates": [
          [
            [
              -63.00142219819474,
              -40.87082455597043
            ],
            [
              -62.98198886358961,
              -40.87299677826837
            ],
            [
              -62.98206669220067,
              -40.87339766615595
            ],
            [
              -63.00150002426219,
              -40.871225444009475
            ],
            [
              -63.00142219819474,
              -40.87082455597043
            ]
          ]
        ]
      }
    },
    {
      "type": "Feature",
      "properties": {
        "icao": "SAVY",
        "iata": "PMY",
        "aeropuerto": "PUERTO MADRYN",
        "fuente_seccion": "AD 2.12",
        "fecha_seccion": "2026-06-11",
        "amdt_airac": "1/2026",
        "aip_pagina": 4,
        "archivo_aip": "aip-69e1155398740.pdf",
        "url_fuente": "https://ais.anac.gob.ar/descarga/aip-69e1155398740",
        "fecha_extraccion": "2026-08-13",
        "rwy_1": "06",
        "rwy_2": "24",
        "designacion": "06/24",
        "longitud_publicada_m": 2500.0,
        "ancho_m": 45.0,
        "resistencia_superficie": "430/F/B/W/T (**)",
        "brg_geo_1": 58.02,
        "brg_geo_2": 238.0,
        "metodo_geometria": "eje_extremos + ancho_AIP",
        "precision_geometria": "publicada/derivada"
      },
      "geometry": {
        "type": "Polygon",
        "coordinates": [
          [
            [
              -65.11578447083647,
              -42.7650198611268
            ],
            [
              -65.0898733318115,
              -42.75309486076776
            ],
            [
              -65.08958222293995,
              -42.75343847237541
            ],
            [
              -65.11549330613673,
              -42.7653634720163
            ],
            [
              -65.11578447083647,
              -42.7650198611268
            ]
          ]
        ]
      }
    },
    {
      "type": "Feature",
      "properties": {
        "icao": "SAWB",
        "iata": null,
        "aeropuerto": "MARAMBIO / VICECOMODORO MARAMBIO",
        "fuente_seccion": "AD 2.12",
        "fecha_seccion": "2025-06-12",
        "amdt_airac": "1/2025",
        "aip_pagina": 4,
        "archivo_aip": "aip-69e11573197e5.pdf",
        "url_fuente": "https://ais.anac.gob.ar/descarga/aip-69e11573197e5",
        "fecha_extraccion": "2026-08-13",
        "rwy_1": "05",
        "rwy_2": "23",
        "designacion": "05/23",
        "longitud_publicada_m": 1208.0,
        "ancho_m": 40.0,
        "resistencia_superficie": null,
        "brg_geo_1": null,
        "brg_geo_2": null,
        "metodo_geometria": "eje_extremos + ancho_AIP",
        "precision_geometria": "publicada/derivada"
      },
      "geometry": {
        "type": "Polygon",
        "coordinates": [
          [
            [
              -56.64232681540284,
              -64.2412568089203
            ],
            [
              -56.619718453259466,
              -64.23667347548415
            ],
            [
              -56.61937043358519,
              -64.23699874652729
            ],
            [
              -56.64197873810771,
              -64.24158207975776
            ],
            [
              -56.64232681540284,
              -64.2412568089203
            ]
          ]
        ]
      }
    },
    {
      "type": "Feature",
      "properties": {
        "icao": "SAWC",
        "iata": "FTE",
        "aeropuerto": "EL CALAFATE",
        "fuente_seccion": "AD 2.12",
        "fecha_seccion": "2026-06-11",
        "amdt_airac": "1/2026",
        "aip_pagina": 5,
        "archivo_aip": "aip-69e7b256c1c2c.pdf",
        "url_fuente": "https://ais.anac.gob.ar/descarga/aip-69e7b256c1c2c",
        "fecha_extraccion": "2026-08-13",
        "rwy_1": "07",
        "rwy_2": "25",
        "designacion": "07/25",
        "longitud_publicada_m": 2550.0,
        "ancho_m": 45.0,
        "resistencia_superficie": "CONC",
        "brg_geo_1": 72.0,
        "brg_geo_2": 252.0,
        "metodo_geometria": "eje_extremos + ancho_AIP",
        "precision_geometria": "publicada/derivada"
      },
      "geometry": {
        "type": "Polygon",
        "coordinates": [
          [
            [
              -72.07110141144035,
              -50.28111525785708
            ],
            [
              -72.03543752125034,
              -50.27898748000518
            ],
            [
              -72.03537914517003,
              -50.27939029775826
            ],
            [
              -72.07104303275773,
              -50.28151807546191
            ],
            [
              -72.07110141144035,
              -50.28111525785708
            ]
          ]
        ]
      }
    },
    {
      "type": "Feature",
      "properties": {
        "icao": "SAWE",
        "iata": "RGA",
        "aeropuerto": "RÍO GRANDE",
        "fuente_seccion": "AD 2.12",
        "fecha_seccion": "2026-06-11",
        "amdt_airac": "1/2026",
        "aip_pagina": 5,
        "archivo_aip": "aip-69e1380c9247f.pdf",
        "url_fuente": "https://ais.anac.gob.ar/descarga/aip-69e1380c9247f",
        "fecha_extraccion": "2026-08-13",
        "rwy_1": "08",
        "rwy_2": "26",
        "designacion": "08/26",
        "longitud_publicada_m": 2000.0,
        "ancho_m": 45.0,
        "resistencia_superficie": "630 /R/A/W/T CONC",
        "brg_geo_1": 76.0,
        "brg_geo_2": 256.0,
        "metodo_geometria": "eje_extremos + ancho_AIP",
        "precision_geometria": "publicada/derivada"
      },
      "geometry": {
        "type": "Polygon",
        "coordinates": [
          [
            [
              -67.76468446490566,
              -53.777795263314005
            ],
            [
              -67.73438446462198,
              -53.77700081884263
            ],
            [
              -67.73435442412267,
              -53.777404736704185
            ],
            [
              -67.76465442383902,
              -53.77819918112171
            ],
            [
              -67.76468446490566,
              -53.777795263314005
            ]
          ]
        ]
      }
    },
    {
      "type": "Feature",
      "properties": {
        "icao": "SAWG",
        "iata": "RGL",
        "aeropuerto": "RÍO GALLEGOS / Piloto Civil Norberto Fernández",
        "fuente_seccion": "AD 2.12",
        "fecha_seccion": "2026-06-11",
        "amdt_airac": "1/2026",
        "aip_pagina": 5,
        "archivo_aip": "aip-69e1165d02be1.pdf",
        "url_fuente": "https://ais.anac.gob.ar/descarga/aip-69e1165d02be1",
        "fecha_extraccion": "2026-08-13",
        "rwy_1": "08",
        "rwy_2": "26",
        "designacion": "08/26",
        "longitud_publicada_m": 2750.0,
        "ancho_m": 45.0,
        "resistencia_superficie": "590/R/A/W/T",
        "brg_geo_1": 85.6,
        "brg_geo_2": 265.56,
        "metodo_geometria": "eje_extremos + ancho_AIP",
        "precision_geometria": "publicada/derivada"
      },
      "geometry": {
        "type": "Polygon",
        "coordinates": [
          [
            [
              -69.32674695399801,
              -51.609298357968704
            ],
            [
              -69.28716361963836,
              -51.607409469014556
            ],
            [
              -69.28711415792031,
              -51.607812753195496
            ],
            [
              -69.32669749022729,
              -51.60970164201913
            ],
            [
              -69.32674695399801,
              -51.609298357968704
            ]
          ]
        ]
      }
    },
    {
      "type": "Feature",
      "properties": {
        "icao": "SAWH",
        "iata": "USH",
        "aeropuerto": "USHUAIA / MALVINAS ARGENTINAS",
        "fuente_seccion": "AD 2.12",
        "fecha_seccion": "2023-11-30",
        "amdt_airac": "2/2023",
        "aip_pagina": 6,
        "archivo_aip": "aip-69e7b2b7ee74b(1).pdf",
        "url_fuente": "https://ais.anac.gob.ar/descarga/aip-69e7b2b7ee74b",
        "fecha_extraccion": "2026-08-13",
        "rwy_1": "07",
        "rwy_2": "25",
        "designacion": "07/25",
        "longitud_publicada_m": 2804.0,
        "ancho_m": 45.0,
        "resistencia_superficie": "54/R/A/W/U CONC",
        "brg_geo_1": null,
        "brg_geo_2": null,
        "metodo_geometria": "eje_extremos + ancho_AIP",
        "precision_geometria": "publicada/derivada"
      },
      "geometry": {
        "type": "Polygon",
        "coordinates": [
          [
            [
              -68.31469552992458,
              -54.84383999589637
            ],
            [
              -68.27645941796183,
              -54.842362218069184
            ],
            [
              -68.27641280402796,
              -54.8427655596974
            ],
            [
              -68.3146489142874,
              -54.84424333742577
            ],
            [
              -68.31469552992458,
              -54.84383999589637
            ]
          ]
        ]
      }
    },
    {
      "type": "Feature",
      "properties": {
        "icao": "SAZB",
        "iata": "BHI",
        "aeropuerto": "BAHÍA BLANCA / COMANDANTE ESPORA",
        "fuente_seccion": "AD 2.12",
        "fecha_seccion": "2023-11-30",
        "amdt_airac": "2/2023",
        "aip_pagina": 5,
        "archivo_aip": "aip-69e7b314ac7f0(1).pdf",
        "url_fuente": "https://ais.anac.gob.ar/descarga/aip-69e7b314ac7f0",
        "fecha_extraccion": "2026-08-13",
        "rwy_1": "17L",
        "rwy_2": "35R",
        "designacion": "17L/35R",
        "longitud_publicada_m": 2410.0,
        "ancho_m": 45.0,
        "resistencia_superficie": "42/F/B/W/U ASPH",
        "brg_geo_1": 166.0,
        "brg_geo_2": null,
        "metodo_geometria": "eje_extremos + ancho_AIP",
        "precision_geometria": "publicada/derivada"
      },
      "geometry": {
        "type": "Polygon",
        "coordinates": [
          [
            [
              -62.15712946075976,
              -38.71661258003699
            ],
            [
              -62.149354388638685,
              -38.737445913573325
            ],
            [
              -62.14985116731078,
              -38.73755964145393
            ],
            [
              -62.1576260951893,
              -38.71672630832399
            ],
            [
              -62.15712946075976,
              -38.71661258003699
            ]
          ]
        ]
      }
    },
    {
      "type": "Feature",
      "properties": {
        "icao": "SAZB",
        "iata": "BHI",
        "aeropuerto": "BAHÍA BLANCA / COMANDANTE ESPORA",
        "fuente_seccion": "AD 2.12",
        "fecha_seccion": "2023-11-30",
        "amdt_airac": "2/2023",
        "aip_pagina": 5,
        "archivo_aip": "aip-69e7b314ac7f0(1).pdf",
        "url_fuente": "https://ais.anac.gob.ar/descarga/aip-69e7b314ac7f0",
        "fecha_extraccion": "2026-08-13",
        "rwy_1": "06",
        "rwy_2": "24",
        "designacion": "06/24",
        "longitud_publicada_m": 1980.0,
        "ancho_m": 30.0,
        "resistencia_superficie": "8t/1 85t/2 136t/4 136t/5 240 t/8 ASPH",
        "brg_geo_1": 346.0,
        "brg_geo_2": null,
        "metodo_geometria": "eje_extremos + ancho_AIP",
        "precision_geometria": "publicada/derivada"
      },
      "geometry": {
        "type": "Polygon",
        "coordinates": [
          [
            [
              -62.18065655976235,
              -38.72738212869646
            ],
            [
              -62.16078988284079,
              -38.718657128520086
            ],
            [
              -62.160621227993296,
              -38.71889287141671
            ],
            [
              -62.18048788440494,
              -38.72761787124031
            ],
            [
              -62.18065655976235,
              -38.72738212869646
            ]
          ]
        ]
      }
    },
    {
      "type": "Feature",
      "properties": {
        "icao": "SAZB",
        "iata": "BHI",
        "aeropuerto": "BAHÍA BLANCA / COMANDANTE ESPORA",
        "fuente_seccion": "AD 2.12",
        "fecha_seccion": "2023-11-30",
        "amdt_airac": "2/2023",
        "aip_pagina": 5,
        "archivo_aip": "aip-69e7b314ac7f0(1).pdf",
        "url_fuente": "https://ais.anac.gob.ar/descarga/aip-69e7b314ac7f0",
        "fecha_extraccion": "2026-08-13",
        "rwy_1": "17R",
        "rwy_2": "35L",
        "designacion": "17R/35L",
        "longitud_publicada_m": 1498.0,
        "ancho_m": 30.0,
        "resistencia_superficie": "2 t/1 30 t/2 48 t/4 48 t/5 90 t/8",
        "brg_geo_1": 243.0,
        "brg_geo_2": 167.0,
        "metodo_geometria": "eje_extremos + ancho_AIP",
        "precision_geometria": "publicada/derivada"
      },
      "geometry": {
        "type": "Polygon",
        "coordinates": [
          [
            [
              -62.18415628490259,
              -38.71967980626402
            ],
            [
              -62.17945625487019,
              -38.73266313967938
            ],
            [
              -62.17978818974483,
              -38.73273686008478
            ],
            [
              -62.184488159712316,
              -38.71975352683358
            ],
            [
              -62.18415628490259,
              -38.71967980626402
            ]
          ]
        ]
      }
    },
    {
      "type": "Feature",
      "properties": {
        "icao": "SAZM",
        "iata": "MDQ",
        "aeropuerto": "MAR DEL PLATA / ASTOR PIAZZOLLA",
        "fuente_seccion": "AD 2.12",
        "fecha_seccion": "2026-06-11",
        "amdt_airac": "1/2026",
        "aip_pagina": 6,
        "archivo_aip": "aip-69e1232468b6a(1).pdf",
        "url_fuente": "https://ais.anac.gob.ar/descarga/aip-69e1232468b6a",
        "fecha_extraccion": "2026-08-13",
        "rwy_1": "13",
        "rwy_2": "31",
        "designacion": "13/31",
        "longitud_publicada_m": 2200.0,
        "ancho_m": 45.0,
        "resistencia_superficie": "450/R/B/W/T Rigido / Rigid 350/F/BF/X/T",
        "brg_geo_1": 122.68,
        "brg_geo_2": 302.66,
        "metodo_geometria": "eje_extremos + ancho_AIP",
        "precision_geometria": "publicada/derivada"
      },
      "geometry": {
        "type": "Polygon",
        "coordinates": [
          [
            [
              -57.58365347776292,
              -37.92868493568239
            ],
            [
              -57.562589568841865,
              -37.93938493599342
            ],
            [
              -57.56286598735271,
              -37.939726174950394
            ],
            [
              -57.58392985620911,
              -37.92902617526148
            ],
            [
              -57.58365347776292,
              -37.92868493568239
            ]
          ]
        ]
      }
    },
    {
      "type": "Feature",
      "properties": {
        "icao": "SAZN",
        "iata": "NQN",
        "aeropuerto": "NEUQUÉN / Presidente Perón",
        "fuente_seccion": "AD 2.12",
        "fecha_seccion": "2025-06-12",
        "amdt_airac": "1/2025",
        "aip_pagina": 6,
        "archivo_aip": "aip-69e1234aab580(1).pdf",
        "url_fuente": "https://ais.anac.gob.ar/descarga/aip-69e1234aab580",
        "fecha_extraccion": "2026-08-13",
        "rwy_1": "09",
        "rwy_2": "27",
        "designacion": "09/27",
        "longitud_publicada_m": 2570.0,
        "ancho_m": 45.0,
        "resistencia_superficie": "RWY 80/R/D/W/U ASPH SWY NIL ASPH",
        "brg_geo_1": 90.23,
        "brg_geo_2": 270.22,
        "metodo_geometria": "eje_extremos + ancho_AIP",
        "precision_geometria": "publicada/derivada"
      },
      "geometry": {
        "type": "Polygon",
        "coordinates": [
          [
            [
              -68.17053504093343,
              -38.94876121439477
            ],
            [
              -68.14089615204315,
              -38.94885288106464
            ],
            [
              -68.14089829240739,
              -38.949258230039405
            ],
            [
              -68.1705371812949,
              -38.949166563375925
            ],
            [
              -68.17053504093343,
              -38.94876121439477
            ]
          ]
        ]
      }
    },
    {
      "type": "Feature",
      "properties": {
        "icao": "SAZR",
        "iata": "RSA",
        "aeropuerto": "SANTA ROSA",
        "fuente_seccion": "AD 2.12",
        "fecha_seccion": "2026-06-11",
        "amdt_airac": "1/2026",
        "aip_pagina": 5,
        "archivo_aip": "aip-69e123c163177(1).pdf",
        "url_fuente": "https://ais.anac.gob.ar/descarga/aip-69e123c163177",
        "fecha_extraccion": "2026-08-13",
        "rwy_1": "01",
        "rwy_2": "19",
        "designacion": "01/19",
        "longitud_publicada_m": 2300.0,
        "ancho_m": 30.0,
        "resistencia_superficie": "430/F/B/X/T ASPH A",
        "brg_geo_1": 15.0,
        "brg_geo_2": 195.0,
        "metodo_geometria": "eje_extremos + ancho_AIP",
        "precision_geometria": "publicada/derivada"
      },
      "geometry": {
        "type": "Polygon",
        "coordinates": [
          [
            [
              -64.27825885690436,
              -36.598298605402704
            ],
            [
              -64.27324214714051,
              -36.577976383090366
            ],
            [
              -64.27291340830314,
              -36.57802917223846
            ],
            [
              -64.27793003187253,
              -36.5983513943704
            ],
            [
              -64.27825885690436,
              -36.598298605402704
            ]
          ]
        ]
      }
    },
    {
      "type": "Feature",
      "properties": {
        "icao": "SAZS",
        "iata": "BRC",
        "aeropuerto": "SAN CARLOS DE BARILOCHE",
        "fuente_seccion": "AD 2.12",
        "fecha_seccion": "2026-06-11",
        "amdt_airac": "1/2026",
        "aip_pagina": 6,
        "archivo_aip": "aip-69e8bacf19c28(1).pdf",
        "url_fuente": "https://ais.anac.gob.ar/descarga/aip-69e8bacf19c28",
        "fecha_extraccion": "2026-08-13",
        "rwy_1": "11",
        "rwy_2": "29",
        "designacion": "11/29",
        "longitud_publicada_m": 2348.0,
        "ancho_m": 48.0,
        "resistencia_superficie": "720/R/A/W/T ASPH, base",
        "brg_geo_1": 114.74,
        "brg_geo_2": 294.73,
        "metodo_geometria": "eje_extremos + ancho_AIP",
        "precision_geometria": "publicada/derivada"
      },
      "geometry": {
        "type": "Polygon",
        "coordinates": [
          [
            [
              -71.17049146379972,
              -41.1464703966951
            ],
            [
              -71.14508866994159,
              -41.155314841441886
            ],
            [
              -71.14532799743895,
              -41.155707380649304
            ],
            [
              -71.17073075913603,
              -41.146862936507254
            ],
            [
              -71.17049146379972,
              -41.1464703966951
            ]
          ]
        ]
      }
    },
    {
      "type": "Feature",
      "properties": {
        "icao": "SAZT",
        "iata": "TDL",
        "aeropuerto": "TANDIL / HÉROES DE MALVINAS",
        "fuente_seccion": "AD 2.12",
        "fecha_seccion": null,
        "amdt_airac": "1/2026",
        "aip_pagina": 4,
        "archivo_aip": "aip-69e12466c7a15(1).pdf",
        "url_fuente": "https://ais.anac.gob.ar/descarga/aip-69e12466c7a15",
        "fecha_extraccion": "2026-08-13",
        "rwy_1": "01",
        "rwy_2": "19",
        "designacion": "01/19",
        "longitud_publicada_m": 2550.0,
        "ancho_m": 48.0,
        "resistencia_superficie": "320/R/B/W/T AMD",
        "brg_geo_1": 13.0,
        "brg_geo_2": 193.0,
        "metodo_geometria": "eje_extremos + ancho_AIP",
        "precision_geometria": "publicada/derivada"
      },
      "geometry": {
        "type": "Polygon",
        "coordinates": [
          [
            [
              -59.23013332018622,
              -37.24580301103726
            ],
            [
              -59.22758046096817,
              -37.22291412207421
            ],
            [
              -59.22704176111743,
              -37.222952543979886
            ],
            [
              -59.22959445745478,
              -37.24584143279408
            ],
            [
              -59.23013332018622,
              -37.24580301103726
            ]
          ]
        ]
      }
    },
    {
      "type": "Feature",
      "properties": {
        "icao": "SAZY",
        "iata": "CPC",
        "aeropuerto": "SAN MARTÍN DE LOS ANDES / AVIADOR C. CAMPOS",
        "fuente_seccion": "AD 2.12",
        "fecha_seccion": "2026-06-11",
        "amdt_airac": "1/2026",
        "aip_pagina": 5,
        "archivo_aip": "aip-69fcdbcd57a67(1).pdf",
        "url_fuente": "https://ais.anac.gob.ar/descarga/aip-69fcdbcd57a67",
        "fecha_extraccion": "2026-08-13",
        "rwy_1": "06",
        "rwy_2": "24",
        "designacion": "06/24",
        "longitud_publicada_m": 2501.0,
        "ancho_m": 45.0,
        "resistencia_superficie": "38/F/B/X/T ASPH",
        "brg_geo_1": 63.0,
        "brg_geo_2": 243.0,
        "metodo_geometria": "eje_extremos + ancho_AIP",
        "precision_geometria": "publicada/derivada"
      },
      "geometry": {
        "type": "Polygon",
        "coordinates": [
          [
            [
              -71.15098888535644,
              -40.0792560713613
            ],
            [
              -71.12373054021369,
              -40.070950515534854
            ],
            [
              -71.1235361259174,
              -40.07132726215523
            ],
            [
              -71.15079444744109,
              -40.079632817439865
            ],
            [
              -71.15098888535644,
              -40.0792560713613
            ]
          ]
        ]
      }
    }
  ]
}