{
  "type": "FeatureCollection",
  "name": "aip_helicopteros",
  "features": [
    {
      "type": "Feature",
      "properties": {
        "icao": "SATR",
        "iata": "RCQ",
        "aeropuerto": "RECONQUISTA",
        "fuente_seccion": "AD 2.16",
        "fecha_seccion": "2026-06-11",
        "amdt_airac": "1/2026",
        "aip_pagina": 7,
        "archivo_aip": "aip-69e11419cd188(1).pdf",
        "url_fuente": "https://ais.anac.gob.ar/descarga/aip-69e11419cd188",
        "fecha_extraccion": "2026-08-13",
        "tipo": "TLOF",
        "detalle": "COORD GEO y GUND del centro geométrico de la TLOF / 291217.95S – 0594134.58W TLOF geometric center GEO COORD and GUND 1",
        "texto_ad216": "AD 2.16 ZONA DE ATERRIZAJE PARA HELICÓPTEROS / HELICOPTER LANDING AREA COORD GEO y GUND del centro geométrico de la TLOF / 291217.95S – 0594134.58W TLOF geometric center GEO COORD and GUND 1 COORD GEO y GUND THR de cada FATO / No Each FATO GEO COORD and GUND Elevación del área TLOF / TLOF elevation area No 2 Elevación del área FATO / FATO elevation area No Dimensiones de las áreas TLOF y FATO, su tipo de superficie, No carga admisible y señales / 3 TLOF and FATO area dimensions, Surface type, bearing strength and markings 4 BRG GEO de la FATO / BRG GEO of the FATO No 5 Distancias declaradas disponibles /Declared distances available No 6 LGT de aproximación / Approach LGT No 7 LGT de la FATO / FATO LGT No 8 Observaciones / Remarks NIL",
        "metodo_geometria": "coordenada_AIP",
        "precision_geometria": "publicada"
      },
      "geometry": {
        "type": "Point",
        "coordinates": [
          -59.69293888888888,
          -29.20498611111111
        ]
      }
    }
  ]
}