{
"type": "FeatureCollection",
"name": "Cabeceras2026",
"crs": { "type": "name", "properties": { "name": "urn:ogc:def:crs:OGC:1.3:CRS84" } },
"features": [
{ "type": "Feature", "properties": { "Id": 0, "IATA": "IGR", "Cabecera": "31" }, "geometry": { "type": "Point", "coordinates": [ -54.459106850050816, -25.74325796335 ] } },
{ "type": "Feature", "properties": { "Id": 0, "IATA": "IGR", "Cabecera": "13" }, "geometry": { "type": "Point", "coordinates": [ -54.487676236712545, -25.731352031187331 ] } },
{ "type": "Feature", "properties": { "Id": 0, "IATA": "JUJ", "Cabecera": "16" }, "geometry": { "type": "Point", "coordinates": [ -65.104761785636256, -24.381631403308003 ] } },
{ "type": "Feature", "properties": { "Id": 0, "IATA": "JUJ", "Cabecera": "34" }, "geometry": { "type": "Point", "coordinates": [ -65.090846511844632, -24.403863452873871 ] } },
{ "type": "Feature", "properties": { "Id": 0, "IATA": "IRJ", "Cabecera": "03" }, "geometry": { "type": "Point", "coordinates": [ -66.802318204075519, -29.391167436814893 ] } },
{ "type": "Feature", "properties": { "Id": 0, "IATA": "IRJ", "Cabecera": "21" }, "geometry": { "type": "Point", "coordinates": [ -66.789152183041679, -29.369707872332409 ] } },
{ "type": "Feature", "properties": { "Id": 0, "IATA": "MDQ", "Cabecera": "31" }, "geometry": { "type": "Point", "coordinates": [ -57.56335207527335, -37.939252052633499 ] } },
{ "type": "Feature", "properties": { "Id": 0, "IATA": "MDQ", "Cabecera": "13" }, "geometry": { "type": "Point", "coordinates": [ -57.583245626601219, -37.929128036987272 ] } },
{ "type": "Feature", "properties": { "Id": 0, "IATA": "MDZ", "Cabecera": "18" }, "geometry": { "type": "Point", "coordinates": [ -68.792703819000948, -32.81964431523064 ] } },
{ "type": "Feature", "properties": { "Id": 0, "IATA": "MDZ", "Cabecera": "36" }, "geometry": { "type": "Point", "coordinates": [ -68.793068595220518, -32.843865855955237 ] } },
{ "type": "Feature", "properties": { "Id": 0, "IATA": "NQN", "Cabecera": "27" }, "geometry": { "type": "Point", "coordinates": [ -68.141543679670335, -38.949034539315036 ] } },
{ "type": "Feature", "properties": { "Id": 0, "IATA": "NQN", "Cabecera": "09" }, "geometry": { "type": "Point", "coordinates": [ -68.169912927169818, -38.948976943641703 ] } },
{ "type": "Feature", "properties": { "Id": 0, "IATA": "PRA", "Cabecera": "20" }, "geometry": { "type": "Point", "coordinates": [ -60.478793120844479, -31.785889588202163 ] } },
{ "type": "Feature", "properties": { "Id": 0, "IATA": "PRA", "Cabecera": "02" }, "geometry": { "type": "Point", "coordinates": [ -60.481920610599097, -31.80366981493091 ] } },
{ "type": "Feature", "properties": { "Id": 0, "IATA": "PSS", "Cabecera": "02" }, "geometry": { "type": "Point", "coordinates": [ -55.970351288849187, -27.39545823285032 ] } },
{ "type": "Feature", "properties": { "Id": 0, "IATA": "PSS", "Cabecera": "20" }, "geometry": { "type": "Point", "coordinates": [ -55.970683264812685, -27.376072846734967 ] } },
{ "type": "Feature", "properties": { "Id": 0, "IATA": "RES", "Cabecera": "21" }, "geometry": { "type": "Point", "coordinates": [ -59.051256836976634, -27.43876274447155 ] } },
{ "type": "Feature", "properties": { "Id": 0, "IATA": "RES", "Cabecera": "03" }, "geometry": { "type": "Point", "coordinates": [ -59.060897368349181, -27.461187218005708 ] } },
{ "type": "Feature", "properties": { "Id": 0, "IATA": "RCU", "Cabecera": "18" }, "geometry": { "type": "Point", "coordinates": [ -64.26154630762457, -33.084036711444575 ] } },
{ "type": "Feature", "properties": { "Id": 0, "IATA": "RCU", "Cabecera": "23" }, "geometry": { "type": "Point", "coordinates": [ -64.261155790441791, -33.08514752143865 ] } },
{ "type": "Feature", "properties": { "Id": 0, "IATA": "RCU", "Cabecera": "05" }, "geometry": { "type": "Point", "coordinates": [ -64.277449030681126, -33.099119278295184 ] } },
{ "type": "Feature", "properties": { "Id": 0, "IATA": "RCU", "Cabecera": "36" }, "geometry": { "type": "Point", "coordinates": [ -64.261267289330334, -33.101832848523777 ] } },
{ "type": "Feature", "properties": { "Id": 0, "IATA": "RGL", "Cabecera": "07" }, "geometry": { "type": "Point", "coordinates": [ -69.33645112375612, -51.609991546225054 ] } },
{ "type": "Feature", "properties": { "Id": 0, "IATA": "RGL", "Cabecera": "25" }, "geometry": { "type": "Point", "coordinates": [ -69.287885379552478, -51.607646037437505 ] } },
{ "type": "Feature", "properties": { "Id": 0, "IATA": "RGA", "Cabecera": "08" }, "geometry": { "type": "Point", "coordinates": [ -67.76390218456757, -53.777997962750788 ] } },
{ "type": "Feature", "properties": { "Id": 0, "IATA": "RGA", "Cabecera": "26" }, "geometry": { "type": "Point", "coordinates": [ -67.735140298168673, -53.777218596943854 ] } },
{ "type": "Feature", "properties": { "Id": 0, "IATA": "ROS", "Cabecera": "02" }, "geometry": { "type": "Point", "coordinates": [ -60.787562298449679, -32.916292087465656 ] } },
{ "type": "Feature", "properties": { "Id": 0, "IATA": "ROS", "Cabecera": "20" }, "geometry": { "type": "Point", "coordinates": [ -60.781738954301694, -32.890647807665644 ] } },
{ "type": "Feature", "properties": { "Id": 0, "IATA": "SLA", "Cabecera": "20" }, "geometry": { "type": "Point", "coordinates": [ -65.484241305767966, -24.846829374105049 ] } },
{ "type": "Feature", "properties": { "Id": 0, "IATA": "SLA", "Cabecera": "02" }, "geometry": { "type": "Point", "coordinates": [ -65.489832651832728, -24.872354388139534 ] } },
{ "type": "Feature", "properties": { "Id": 0, "IATA": "FDO", "Cabecera": "23" }, "geometry": { "type": "Point", "coordinates": [ -58.585893098820215, -34.450327989201469 ] } },
{ "type": "Feature", "properties": { "Id": 0, "IATA": "FDO", "Cabecera": "05" }, "geometry": { "type": "Point", "coordinates": [ -58.595835434582973, -34.45878029873559 ] } },
{ "type": "Feature", "properties": { "Id": 0, "IATA": "UAQ", "Cabecera": "18" }, "geometry": { "type": "Point", "coordinates": [ -68.418387458216898, -31.560836885770847 ] } },
{ "type": "Feature", "properties": { "Id": 0, "IATA": "UAQ", "Cabecera": "36" }, "geometry": { "type": "Point", "coordinates": [ -68.418151147259238, -31.582075290361953 ] } },
{ "type": "Feature", "properties": { "Id": 0, "IATA": "SFN", "Cabecera": "21" }, "geometry": { "type": "Point", "coordinates": [ -60.806745391879389, -31.701583761845573 ] } },
{ "type": "Feature", "properties": { "Id": 0, "IATA": "SFN", "Cabecera": "03" }, "geometry": { "type": "Point", "coordinates": [ -60.815851598814007, -31.720050504580509 ] } },
{ "type": "Feature", "properties": { "Id": 0, "IATA": "RSA", "Cabecera": "19" }, "geometry": { "type": "Point", "coordinates": [ -64.273216817945936, -36.578440555295863 ] } },
{ "type": "Feature", "properties": { "Id": 0, "IATA": "RSA", "Cabecera": "01" }, "geometry": { "type": "Point", "coordinates": [ -64.27802420541498, -36.59784911892492 ] } },
{ "type": "Feature", "properties": { "Id": 0, "IATA": "RHD", "Cabecera": "19" }, "geometry": { "type": "Point", "coordinates": [ -64.935403338547459, -27.485841034804594 ] } },
{ "type": "Feature", "properties": { "Id": 0, "IATA": "RHD", "Cabecera": "01" }, "geometry": { "type": "Point", "coordinates": [ -64.936506891189552, -27.507406594286913 ] } },
{ "type": "Feature", "properties": { "Id": 0, "IATA": "REL", "Cabecera": "25" }, "geometry": { "type": "Point", "coordinates": [ -65.256219170521987, -43.206520609737893 ] } },
{ "type": "Feature", "properties": { "Id": 0, "IATA": "REL", "Cabecera": "07" }, "geometry": { "type": "Point", "coordinates": [ -65.284497726592036, -43.214387270095401 ] } },
{ "type": "Feature", "properties": { "Id": 0, "IATA": "TUC", "Cabecera": "20" }, "geometry": { "type": "Point", "coordinates": [ -65.10142312638304, -26.823120121816643 ] } },
{ "type": "Feature", "properties": { "Id": 0, "IATA": "TUC", "Cabecera": "02" }, "geometry": { "type": "Point", "coordinates": [ -65.107214909105835, -26.853323748606641 ] } },
{ "type": "Feature", "properties": { "Id": 0, "IATA": "USH", "Cabecera": "07" }, "geometry": { "type": "Point", "coordinates": [ -68.313823630381066, -54.843970299408511 ] } },
{ "type": "Feature", "properties": { "Id": 0, "IATA": "USH", "Cabecera": "25" }, "geometry": { "type": "Point", "coordinates": [ -68.277278406155403, -54.842592058674867 ] } },
{ "type": "Feature", "properties": { "Id": 0, "IATA": "VME", "Cabecera": "06" }, "geometry": { "type": "Point", "coordinates": [ -65.38854383173404, -33.730416583807269 ] } },
{ "type": "Feature", "properties": { "Id": 0, "IATA": "FTE", "Cabecera": "07" }, "geometry": { "type": "Point", "coordinates": [ -72.070309020109462, -50.281270077979428 ] } },
{ "type": "Feature", "properties": { "Id": 0, "IATA": "FTE", "Cabecera": "25" }, "geometry": { "type": "Point", "coordinates": [ -72.036120936049898, -50.279212146307842 ] } },
{ "type": "Feature", "properties": { "Id": 0, "IATA": "TTG", "Cabecera": "02" }, "geometry": { "type": "Point", "coordinates": [ -63.79433847320967, -22.626392559476791 ] } },
{ "type": "Feature", "properties": { "Id": 0, "IATA": "TTG", "Cabecera": "20" }, "geometry": { "type": "Point", "coordinates": [ -63.791695468220951, -22.607294191968677 ] } },
{ "type": "Feature", "properties": { "Id": 0, "IATA": "FMA", "Cabecera": "04" }, "geometry": { "type": "Point", "coordinates": [ -58.231743883013401, -26.219699500666479 ] } },
{ "type": "Feature", "properties": { "Id": 0, "IATA": "FMA", "Cabecera": "22" }, "geometry": { "type": "Point", "coordinates": [ -58.224564069537472, -26.205818060777617 ] } },
{ "type": "Feature", "properties": { "Id": 0, "IATA": "CNQ", "Cabecera": "20" }, "geometry": { "type": "Point", "coordinates": [ -58.760442567341173, -27.436634308181564 ] } },
{ "type": "Feature", "properties": { "Id": 0, "IATA": "CNQ", "Cabecera": "02" }, "geometry": { "type": "Point", "coordinates": [ -58.762981330582441, -27.453156460693634 ] } },
{ "type": "Feature", "properties": { "Id": 0, "IATA": "SDE", "Cabecera": "21" }, "geometry": { "type": "Point", "coordinates": [ -64.304431999675259, -27.756350913925594 ] } },
{ "type": "Feature", "properties": { "Id": 0, "IATA": "SDE", "Cabecera": "03" }, "geometry": { "type": "Point", "coordinates": [ -64.315484536076397, -27.77493210161828 ] } },
{ "type": "Feature", "properties": { "Id": 0, "IATA": "CTC", "Cabecera": "20" }, "geometry": { "type": "Point", "coordinates": [ -65.748311156164405, -28.58121933304778 ] } },
{ "type": "Feature", "properties": { "Id": 0, "IATA": "CTC", "Cabecera": "02" }, "geometry": { "type": "Point", "coordinates": [ -65.754040516276859, -28.605007084374332 ] } },
{ "type": "Feature", "properties": { "Id": 0, "IATA": "RCQ", "Cabecera": "10" }, "geometry": { "type": "Point", "coordinates": [ -59.69374574529769, -29.210404528574038 ] } },
{ "type": "Feature", "properties": { "Id": 0, "IATA": "RCQ", "Cabecera": "28" }, "geometry": { "type": "Point", "coordinates": [ -59.666011426443816, -29.210166935419252 ] } },
{ "type": "Feature", "properties": { "Id": 0, "IATA": "RCQ", "Cabecera": "20" }, "geometry": { "type": "Point", "coordinates": [ -59.689344595663734, -29.199350083194101 ] } },
{ "type": "Feature", "properties": { "Id": 0, "IATA": "RCQ", "Cabecera": "02" }, "geometry": { "type": "Point", "coordinates": [ -59.690799729241107, -29.209647791319981 ] } },
{ "type": "Feature", "properties": { "Id": 0, "IATA": "COR", "Cabecera": "05" }, "geometry": { "type": "Point", "coordinates": [ -64.207102692524145, -31.322840877962012 ] } },
{ "type": "Feature", "properties": { "Id": 0, "IATA": "COR", "Cabecera": "01" }, "geometry": { "type": "Point", "coordinates": [ -64.208116132032075, -31.324056582749421 ] } },
{ "type": "Feature", "properties": { "Id": 0, "IATA": "COR", "Cabecera": "19" }, "geometry": { "type": "Point", "coordinates": [ -64.208572382375834, -31.296126818487178 ] } },
{ "type": "Feature", "properties": { "Id": 0, "IATA": "COR", "Cabecera": "23" }, "geometry": { "type": "Point", "coordinates": [ -64.191750444819249, -31.309281417781612 ] } },
{ "type": "Feature", "properties": { "Id": 0, "IATA": "RLO", "Cabecera": "20" }, "geometry": { "type": "Point", "coordinates": [ -65.181888546651962, -32.373973421082013 ] } },
{ "type": "Feature", "properties": { "Id": 0, "IATA": "RLO", "Cabecera": "02" }, "geometry": { "type": "Point", "coordinates": [ -65.189691668616248, -32.395000907331472 ] } },
{ "type": "Feature", "properties": { "Id": 0, "IATA": "LUQ", "Cabecera": "01" }, "geometry": { "type": "Point", "coordinates": [ -66.358244942350737, -33.285960213701671 ] } },
{ "type": "Feature", "properties": { "Id": 0, "IATA": "LUQ", "Cabecera": "19" }, "geometry": { "type": "Point", "coordinates": [ -66.354795085026836, -33.260403639195069 ] } },
{ "type": "Feature", "properties": { "Id": 0, "IATA": "AEP", "Cabecera": "31" }, "geometry": { "type": "Point", "coordinates": [ -58.407886501829587, -34.563628059532462 ] } },
{ "type": "Feature", "properties": { "Id": 0, "IATA": "AEP", "Cabecera": "13" }, "geometry": { "type": "Point", "coordinates": [ -58.424764600949089, -34.554200005339034 ] } },
{ "type": "Feature", "properties": { "Id": 0, "IATA": "EPA", "Cabecera": "17" }, "geometry": { "type": "Point", "coordinates": [ -58.61685258172551, -34.601628189916482 ] } },
{ "type": "Feature", "properties": { "Id": 0, "IATA": "EPA", "Cabecera": "35" }, "geometry": { "type": "Point", "coordinates": [ -58.609153457880538, -34.616533380962316 ] } },
{ "type": "Feature", "properties": { "Id": 0, "IATA": "EZE", "Cabecera": "11" }, "geometry": { "type": "Point", "coordinates": [ -58.552857062998804, -34.819202112225327 ] } },
{ "type": "Feature", "properties": { "Id": 0, "IATA": "EZE", "Cabecera": "29" }, "geometry": { "type": "Point", "coordinates": [ -58.518751140197622, -34.825296991255755 ] } },
{ "type": "Feature", "properties": { "Id": 0, "IATA": "EZE", "Cabecera": "35" }, "geometry": { "type": "Point", "coordinates": [ -58.525656226861891, -34.832159571277884 ] } },
{ "type": "Feature", "properties": { "Id": 0, "IATA": "EZE", "Cabecera": "17" }, "geometry": { "type": "Point", "coordinates": [ -58.533776635992716, -34.808763323376546 ] } },
{ "type": "Feature", "properties": { "Id": 0, "IATA": "LPG", "Cabecera": "20" }, "geometry": { "type": "Point", "coordinates": [ -57.8916858439759, -34.964932714091454 ] } },
{ "type": "Feature", "properties": { "Id": 0, "IATA": "LPG", "Cabecera": "02" }, "geometry": { "type": "Point", "coordinates": [ -57.89476412177752, -34.975050383050792 ] } },
{ "type": "Feature", "properties": { "Id": 0, "IATA": "SST", "Cabecera": "17" }, "geometry": { "type": "Point", "coordinates": [ -56.722910343214146, -36.536008829222503 ] } },
{ "type": "Feature", "properties": { "Id": 0, "IATA": "SST", "Cabecera": "35" }, "geometry": { "type": "Point", "coordinates": [ -56.720144797165801, -36.548534158823628 ] } },
{ "type": "Feature", "properties": { "Id": 0, "IATA": "VLG", "Cabecera": "29" }, "geometry": { "type": "Point", "coordinates": [ -57.020154270791416, -37.236849042549281 ] } },
{ "type": "Feature", "properties": { "Id": 0, "IATA": "VLG", "Cabecera": "11" }, "geometry": { "type": "Point", "coordinates": [ -57.037506963157533, -37.233950803851798 ] } },
{ "type": "Feature", "properties": { "Id": 0, "IATA": "TDL", "Cabecera": "19" }, "geometry": { "type": "Point", "coordinates": [ -59.227370477445071, -37.223434407836862 ] } },
{ "type": "Feature", "properties": { "Id": 0, "IATA": "TDL", "Cabecera": "01" }, "geometry": { "type": "Point", "coordinates": [ -59.22984142934029, -37.245319627315148 ] } },
{ "type": "Feature", "properties": { "Id": 0, "IATA": "NEC", "Cabecera": "36" }, "geometry": { "type": "Point", "coordinates": [ -58.81665152221931, -38.495811265402423 ] } },
{ "type": "Feature", "properties": { "Id": 0, "IATA": "NEC", "Cabecera": "18" }, "geometry": { "type": "Point", "coordinates": [ -58.815794056565849, -38.483279110568148 ] } },
{ "type": "Feature", "properties": { "Id": 0, "IATA": "NEC", "Cabecera": "17" }, "geometry": { "type": "Point", "coordinates": [ -58.809323746354622, -38.484841050176144 ] } },
{ "type": "Feature", "properties": { "Id": 0, "IATA": "NEC", "Cabecera": "35" }, "geometry": { "type": "Point", "coordinates": [ -58.808041617743264, -38.495020115720045 ] } },
{ "type": "Feature", "properties": { "Id": 0, "IATA": "NEC", "Cabecera": "31" }, "geometry": { "type": "Point", "coordinates": [ -58.807309978388709, -38.494292505123077 ] } },
{ "type": "Feature", "properties": { "Id": 0, "IATA": "NEC", "Cabecera": "13" }, "geometry": { "type": "Point", "coordinates": [ -58.814324715945673, -38.489675266182772 ] } },
{ "type": "Feature", "properties": { "Id": 0, "IATA": "BHI", "Cabecera": "17L" }, "geometry": { "type": "Point", "coordinates": [ -62.157347162817842, -38.716778546635268 ] } },
{ "type": "Feature", "properties": { "Id": 0, "IATA": "BHI", "Cabecera": "35R" }, "geometry": { "type": "Point", "coordinates": [ -62.149955540642559, -38.736556071707007 ] } },
{ "type": "Feature", "properties": { "Id": 0, "IATA": "BHI", "Cabecera": "35L" }, "geometry": { "type": "Point", "coordinates": [ -62.17996144151077, -38.732295878158276 ] } },
{ "type": "Feature", "properties": { "Id": 0, "IATA": "BHI", "Cabecera": "17R" }, "geometry": { "type": "Point", "coordinates": [ -62.184086223250965, -38.719867048993954 ] } },
{ "type": "Feature", "properties": { "Id": 0, "IATA": "BHI", "Cabecera": "06" }, "geometry": { "type": "Point", "coordinates": [ -62.180152478874177, -38.727477682172868 ] } },
{ "type": "Feature", "properties": { "Id": 0, "IATA": "BHI", "Cabecera": "24" }, "geometry": { "type": "Point", "coordinates": [ -62.16120076818811, -38.718958827507144 ] } },
{ "type": "Feature", "properties": { "Id": 0, "IATA": "GNR", "Cabecera": "27" }, "geometry": { "type": "Point", "coordinates": [ -67.608598642320302, -39.000660190156026 ] } },
{ "type": "Feature", "properties": { "Id": 0, "IATA": "GNR", "Cabecera": "09" }, "geometry": { "type": "Point", "coordinates": [ -67.632255954498348, -38.999277125168071 ] } },
{ "type": "Feature", "properties": { "Id": 0, "IATA": "CPC", "Cabecera": "24" }, "geometry": { "type": "Point", "coordinates": [ -71.124317664310809, -40.071325707286825 ] } },
{ "type": "Feature", "properties": { "Id": 0, "IATA": "CPC", "Cabecera": "06" }, "geometry": { "type": "Point", "coordinates": [ -71.150234035505179, -40.079218597819221 ] } },
{ "type": "Feature", "properties": { "Id": 0, "IATA": "BRC", "Cabecera": "11" }, "geometry": { "type": "Point", "coordinates": [ -71.169955787159736, -41.146909843802199 ] } },
{ "type": "Feature", "properties": { "Id": 0, "IATA": "BRC", "Cabecera": "29" }, "geometry": { "type": "Point", "coordinates": [ -71.14580031079737, -41.155292497555017 ] } },
{ "type": "Feature", "properties": { "Id": 0, "IATA": "EQS", "Cabecera": "23" }, "geometry": { "type": "Point", "coordinates": [ -71.123684650897019, -42.898193384300185 ] } },
{ "type": "Feature", "properties": { "Id": 0, "IATA": "EQS", "Cabecera": "05" }, "geometry": { "type": "Point", "coordinates": [ -71.147345615647438, -42.909424881187071 ] } },
{ "type": "Feature", "properties": { "Id": 0, "IATA": "EQS", "Cabecera": "08" }, "geometry": { "type": "Point", "coordinates": [ -71.151064058436987, -42.911856965920144 ] } },
{ "type": "Feature", "properties": { "Id": 0, "IATA": "EQS", "Cabecera": "26" }, "geometry": { "type": "Point", "coordinates": [ -71.13504679730282, -42.911953501261252 ] } },
{ "type": "Feature", "properties": { "Id": 0, "IATA": "PMY", "Cabecera": "24" }, "geometry": { "type": "Point", "coordinates": [ -65.090295368668464, -42.753505454366199 ] } },
{ "type": "Feature", "properties": { "Id": 0, "IATA": "PMY", "Cabecera": "06" }, "geometry": { "type": "Point", "coordinates": [ -65.11512982594256, -42.764928546570715 ] } },
{ "type": "Feature", "properties": { "Id": 0, "IATA": "VDM", "Cabecera": "11" }, "geometry": { "type": "Point", "coordinates": [ -63.010623350012544, -40.867154966580536 ] } },
{ "type": "Feature", "properties": { "Id": 0, "IATA": "VDM", "Cabecera": "29" }, "geometry": { "type": "Point", "coordinates": [ -62.982655654880062, -40.873058001108909 ] } },
{ "type": "Feature", "properties": { "Id": 0, "IATA": "CRD", "Cabecera": "07" }, "geometry": { "type": "Point", "coordinates": [ -67.473133999082393, -45.786238465126068 ] } },
{ "type": "Feature", "properties": { "Id": 0, "IATA": "CRD", "Cabecera": "25" }, "geometry": { "type": "Point", "coordinates": [ -67.448593342796386, -45.782953856456714 ] } },
{ "type": "Feature", "properties": { "Id": 0, "IATA": "PMQ", "Cabecera": "28" }, "geometry": { "type": "Point", "coordinates": [ -70.968895436790632, -46.540502316417182 ] } },
{ "type": "Feature", "properties": { "Id": 0, "IATA": "PMQ", "Cabecera": "10" }, "geometry": { "type": "Point", "coordinates": [ -70.987387273278003, -46.535235402618184 ] } },
{ "type": "Feature", "properties": { "Id": 0, "IATA": "RYO", "Cabecera": "06" }, "geometry": { "type": "Point", "coordinates": [ -72.230789360001111, -51.60730489154269 ] } },
{ "type": "Feature", "properties": { "Id": 0, "IATA": "RYO", "Cabecera": "24" }, "geometry": { "type": "Point", "coordinates": [ -72.209949031112075, -51.602757939474401 ] } },
{ "type": "Feature", "properties": { "Id": 0, "IATA": "JNI", "Cabecera": "18" }, "geometry": { "type": "Point", "coordinates": [ -60.931190794214821, -34.53964072486869 ] } },
{ "type": "Feature", "properties": { "Id": 0, "IATA": "JNI", "Cabecera": "36" }, "geometry": { "type": "Point", "coordinates": [ -60.929658812938527, -34.552137203322445 ] } },
{ "type": "Feature", "properties": { "Id": 0, "IATA": "GPO", "Cabecera": "16" }, "geometry": { "type": "Point", "coordinates": [ -63.762588389769398, -35.686493149017032 ] } },
{ "type": "Feature", "properties": { "Id": 0, "IATA": "GPO", "Cabecera": "34" }, "geometry": { "type": "Point", "coordinates": [ -63.755372920251013, -35.703228078471177 ] } },
{ "type": "Feature", "properties": { "Id": 0, "IATA": "AFA", "Cabecera": "11" }, "geometry": { "type": "Point", "coordinates": [ -68.413955328921276, -34.584959474533171 ] } },
{ "type": "Feature", "properties": { "Id": 0, "IATA": "AFA", "Cabecera": "29" }, "geometry": { "type": "Point", "coordinates": [ -68.393309951001797, -34.590652577940681 ] } },
{ "type": "Feature", "properties": { "Id": 0, "IATA": "AOL", "Cabecera": "18" }, "geometry": { "type": "Point", "coordinates": [ -57.15360606239053, -29.681008513839107 ] } },
{ "type": "Feature", "properties": { "Id": 0, "IATA": "AOL", "Cabecera": "36" }, "geometry": { "type": "Point", "coordinates": [ -57.15051832334558, -29.697812858124102 ] } },
{ "type": "Feature", "properties": { "Id": 0, "IATA": "COC", "Cabecera": "22" }, "geometry": { "type": "Point", "coordinates": [ -57.992956640866723, -31.290980483981045 ] } },
{ "type": "Feature", "properties": { "Id": 0, "IATA": "COC", "Cabecera": "04" }, "geometry": { "type": "Point", "coordinates": [ -58.000358528852971, -31.303004763147584 ] } },
{ "type": "Feature", "properties": { "Id": 0, "IATA": "LGS", "Cabecera": "14" }, "geometry": { "type": "Point", "coordinates": [ -69.579635291532355, -35.487632596916434 ] } },
{ "type": "Feature", "properties": { "Id": 0, "IATA": "LGS", "Cabecera": "32" }, "geometry": { "type": "Point", "coordinates": [ -69.566384808840041, -35.502853355425856 ] } }
]
}
