{
"type": "FeatureCollection",
"name": "Estacionamientos_vehiculares2024",
"crs": { "type": "name", "properties": { "name": "urn:ogc:def:crs:OGC:1.3:CRS84" } },
"features": [
{ "type": "Feature", "properties": { "Name": "EZE - Zona de espera y Estacionamiento de larga estadía", "Shape_Area": 35379.8593865, "IATA": "EZE", "Obs": null }, "geometry": { "type": "MultiPolygon", "coordinates": [ [ [ [ -58.549293499999976, -34.809411799999964, 0.0 ], [ -58.545280899999966, -34.810160599999961, 0.0 ], [ -58.54552769999998, -34.811015, 0.0 ], [ -58.549475899999948, -34.810204599999963, 0.0 ], [ -58.549293499999976, -34.809411799999964, 0.0 ] ] ] ] } },
{ "type": "Feature", "properties": { "Name": "EZE - Descubierto", "Shape_Area": 26979.334387899999, "IATA": "EZE", "Obs": null }, "geometry": { "type": "MultiPolygon", "coordinates": [ [ [ [ -58.545352399999956, -34.811019, 0.0 ], [ -58.544386799999984, -34.81118639999994, 0.0 ], [ -58.544515599999954, -34.811565199999961, 0.0 ], [ -58.54458, -34.811864699999944, 0.0 ], [ -58.544408299999986, -34.812534099999937, 0.0 ], [ -58.544461899999988, -34.813018599999964, 0.0 ], [ -58.544612099999938, -34.813450199999977, 0.0 ], [ -58.545931799999948, -34.813150699999937, 0.0 ], [ -58.545352399999956, -34.811019, 0.0 ] ] ] ] } },
{ "type": "Feature", "properties": { "Name": "EZE - Descubierto 2 ", "Shape_Area": 59094.963048099999, "IATA": "EZE", "Obs": null }, "geometry": { "type": "MultiPolygon", "coordinates": [ [ [ [ -58.542992099999935, -34.810649099999978, 0.0 ], [ -58.542359099999942, -34.810666699999956, 0.0 ], [ -58.541790499999934, -34.810781199999951, 0.0 ], [ -58.541533, -34.810913299999982, 0.0 ], [ -58.541350599999987, -34.811142399999937, 0.0 ], [ -58.541275499999983, -34.811353799999949, 0.0 ], [ -58.541264799999965, -34.811706099999981, 0.0 ], [ -58.541425699999934, -34.811926299999982, 0.0 ], [ -58.541575899999941, -34.812190599999951, 0.0 ], [ -58.541500799999937, -34.812472499999956, 0.0 ], [ -58.541382799999951, -34.812842399999965, 0.0 ], [ -58.541554499999961, -34.813256399999943, 0.0 ], [ -58.541801199999952, -34.813467799999955, 0.0 ], [ -58.542166, -34.81351189999998, 0.0 ], [ -58.542648799999938, -34.813459, 0.0 ], [ -58.542949199999953, -34.813168399999938, 0.0 ], [ -58.543045799999959, -34.812789599999974, 0.0 ], [ -58.543228199999987, -34.812569399999973, 0.0 ], [ -58.543775299999936, -34.812375599999939, 0.0 ], [ -58.544011399999931, -34.812137699999937, 0.0 ], [ -58.544172299999957, -34.81171489999997, 0.0 ], [ -58.544086499999935, -34.811459499999955, 0.0 ], [ -58.542992099999935, -34.810649099999978, 0.0 ] ] ] ] } },
{ "type": "Feature", "properties": { "Name": "EZE - Multinivel Partidas", "Shape_Area": 6283.1747182999998, "IATA": "EZE", "Obs": null }, "geometry": { "type": "MultiPolygon", "coordinates": [ [ [ [ -58.540475299999969, -34.813281899999936, 0.0 ], [ -58.540126599999951, -34.813510899999983, 0.0 ], [ -58.541376499999956, -34.814532699999972, 0.0 ], [ -58.541575, -34.814405, 0.0 ], [ -58.54150519999996, -34.81436089999994, 0.0 ], [ -58.541634, -34.814255199999934, 0.0 ], [ -58.540475299999969, -34.813281899999936, 0.0 ] ] ] ] } },
{ "type": "Feature", "properties": { "Name": "EZE - Multinivel Arribos (sin terminar)", "Shape_Area": 5568.3866436300004, "IATA": "EZE", "Obs": null }, "geometry": { "type": "MultiPolygon", "coordinates": [ [ [ [ -58.543570599999953, -34.813946899999962, 0.0 ], [ -58.542175799999939, -34.814264099999946, 0.0 ], [ -58.542315299999984, -34.814616399999977, 0.0 ], [ -58.543688599999939, -34.814321299999961, 0.0 ], [ -58.543570599999953, -34.813946899999962, 0.0 ] ] ] ] } },
{ "type": "Feature", "properties": { "Name": "EZE - Descubierto Membresías", "Shape_Area": 5614.3866225399997, "IATA": "EZE", "Obs": null }, "geometry": { "type": "MultiPolygon", "coordinates": [ [ [ [ -58.540064099999938, -34.812925399999983, 0.0 ], [ -58.540449, -34.812951799999951, 0.0 ], [ -58.540449, -34.81289449999997, 0.0 ], [ -58.540685, -34.812958399999957, 0.0 ], [ -58.540943899999945, -34.812175499999967, 0.0 ], [ -58.540345699999932, -34.812131499999964, 0.0 ], [ -58.540313499999968, -34.812270199999944, 0.0 ], [ -58.54011509999998, -34.812250399999982, 0.0 ], [ -58.540064099999938, -34.812925399999983, 0.0 ] ] ] ] } },
{ "type": "Feature", "properties": { "Name": "EZE - Descubierto Terminal C", "Shape_Area": 13132.070909800001, "IATA": "EZE", "Obs": null }, "geometry": { "type": "MultiPolygon", "coordinates": [ [ [ [ -58.544000299999936, -34.814456699999937, 0.0 ], [ -58.541762199999937, -34.814973099999975, 0.0 ], [ -58.542073399999936, -34.815255, 0.0 ], [ -58.542304, -34.815362899999968, 0.0 ], [ -58.542381799999987, -34.81537609999998, 0.0 ], [ -58.542346899999984, -34.815651299999956, 0.0 ], [ -58.542513199999973, -34.815649099999973, 0.0 ], [ -58.542789499999969, -34.81555439999994, 0.0 ], [ -58.543100599999946, -34.815362899999968, 0.0 ], [ -58.543280299999935, -34.815248399999973, 0.0 ], [ -58.543478799999946, -34.815171299999975, 0.0 ], [ -58.54374439999998, -34.81504579999995, 0.0 ], [ -58.543840899999964, -34.81494669999995, 0.0 ], [ -58.543918699999949, -34.814816699999938, 0.0 ], [ -58.544026, -34.814656, 0.0 ], [ -58.544085, -34.814545899999985, 0.0 ], [ -58.544000299999936, -34.814456699999937, 0.0 ] ] ] ] } },
{ "type": "Feature", "properties": { "Name": "PRA - Descubierto", "Shape_Area": 4709.4843810800003, "IATA": "PRA", "Obs": null }, "geometry": { "type": "MultiPolygon", "coordinates": [ [ [ [ -60.484998599999983, -31.789133, 0.0 ], [ -60.484212799999966, -31.789228699999967, 0.0 ], [ -60.484298599999931, -31.789789599999949, 0.0 ], [ -60.485073699999987, -31.789693799999952, 0.0 ], [ -60.484998599999983, -31.789133, 0.0 ] ] ] ] } },
{ "type": "Feature", "properties": { "Name": "SFN - Descubierto", "Shape_Area": 3390.2576138600002, "IATA": "SFN", "Obs": null }, "geometry": { "type": "MultiPolygon", "coordinates": [ [ [ [ -60.805129699999952, -31.708290399999953, 0.0 ], [ -60.804703199999949, -31.708429599999931, 0.0 ], [ -60.805017, -31.709068499999944, 0.0 ], [ -60.805456899999967, -31.708915599999955, 0.0 ], [ -60.805129699999952, -31.708290399999953, 0.0 ] ] ] ] } },
{ "type": "Feature", "properties": { "Name": "ROS - Descubierto", "Shape_Area": 6385.5457287, "IATA": "ROS", "Obs": null }, "geometry": { "type": "MultiPolygon", "coordinates": [ [ [ [ -60.778578599999946, -32.915546, 0.0 ], [ -60.778307699999971, -32.915627099999938, 0.0 ], [ -60.778895099999943, -32.916849699999943, 0.0 ], [ -60.779064099999971, -32.91708159999996, 0.0 ], [ -60.779337699999985, -32.917000599999938, 0.0 ], [ -60.779407399999968, -32.916876699999932, 0.0 ], [ -60.779066799999953, -32.916122499999972, 0.0 ], [ -60.778924599999982, -32.916113399999972, 0.0 ], [ -60.77885219999996, -32.916142699999966, 0.0 ], [ -60.778578599999946, -32.915546, 0.0 ] ] ] ] } },
{ "type": "Feature", "properties": { "Name": "MDQ - Descubierto ", "Shape_Area": 10600.424961299999, "IATA": "MDQ", "Obs": null }, "geometry": { "type": "MultiPolygon", "coordinates": [ [ [ [ -57.583162899999934, -37.932931, 0.0 ], [ -57.58252989999994, -37.932806099999937, 0.0 ], [ -57.582079299999975, -37.932744699999944, 0.0 ], [ -57.58184319999998, -37.933555, 0.0 ], [ -57.582178499999941, -37.933768699999973, 0.0 ], [ -57.582867799999974, -37.933906199999967, 0.0 ], [ -57.583162899999934, -37.932931, 0.0 ] ] ] ] } },
{ "type": "Feature", "properties": { "Name": "BHI - Descubierto", "Shape_Area": 8987.3919685000001, "IATA": "BHI", "Obs": null }, "geometry": { "type": "MultiPolygon", "coordinates": [ [ [ [ -62.164640899999938, -38.715099399999929, 0.0 ], [ -62.164034699999945, -38.715660299999968, 0.0 ], [ -62.164147399999933, -38.716493199999945, 0.0 ], [ -62.164286899999979, -38.716723399999978, 0.0 ], [ -62.164469199999985, -38.71670249999994, 0.0 ], [ -62.16470529999998, -38.716669, 0.0 ], [ -62.164834, -38.71649739999998, 0.0 ], [ -62.164893, -38.716376, 0.0 ], [ -62.164640899999938, -38.715099399999929, 0.0 ] ] ] ] } },
{ "type": "Feature", "properties": { "Name": "VDM - Descubierto", "Shape_Area": 6176.8188508499998, "IATA": "VDM", "Obs": null }, "geometry": { "type": "MultiPolygon", "coordinates": [ [ [ [ -63.005730399999948, -40.862216399999966, 0.0 ], [ -63.00518859999994, -40.862636299999963, 0.0 ], [ -63.006127299999946, -40.86329969999997, 0.0 ], [ -63.006610099999932, -40.862914199999977, 0.0 ], [ -63.005902, -40.862480199999936, 0.0 ], [ -63.005730399999948, -40.862216399999966, 0.0 ] ] ] ] } },
{ "type": "Feature", "properties": { "Name": "REL - Descubierto", "Shape_Area": 4673.0329576000004, "IATA": "REL", "Obs": null }, "geometry": { "type": "MultiPolygon", "coordinates": [ [ [ [ -65.284184899999957, -43.209310199999948, 0.0 ], [ -65.282921499999986, -43.208960299999944, 0.0 ], [ -65.282819599999982, -43.208975899999984, 0.0 ], [ -65.28273379999996, -43.208999399999982, 0.0 ], [ -65.282707, -43.209030699999971, 0.0 ], [ -65.282664, -43.209085399999935, 0.0 ], [ -65.282658699999956, -43.209149899999943, 0.0 ], [ -65.282698899999957, -43.20922029999997, 0.0 ], [ -65.282790099999943, -43.209277, 0.0 ], [ -65.28386839999996, -43.209582, 0.0 ], [ -65.284010499999965, -43.20958, 0.0 ], [ -65.284123199999954, -43.209558499999957, 0.0 ], [ -65.284206299999937, -43.209533099999931, 0.0 ], [ -65.284270699999979, -43.209478399999966, 0.0 ], [ -65.284262599999977, -43.209415799999931, 0.0 ], [ -65.28425459999994, -43.209365, 0.0 ], [ -65.284184899999957, -43.209310199999948, 0.0 ] ] ] ] } },
{ "type": "Feature", "properties": { "Name": "CRD - Descubierto 1 ", "Shape_Area": 9228.1626579200001, "IATA": "CRD", "Obs": null }, "geometry": { "type": "MultiPolygon", "coordinates": [ [ [ [ -67.469236, -45.790803099999948, 0.0 ], [ -67.469249399999967, -45.790516899999943, 0.0 ], [ -67.469241399999987, -45.790485099999955, 0.0 ], [ -67.469187699999964, -45.79044209999995, 0.0 ], [ -67.467259199999944, -45.790395299999943, 0.0 ], [ -67.467194799999959, -45.790427099999931, 0.0 ], [ -67.467173399999979, -45.790546799999959, 0.0 ], [ -67.467162599999938, -45.790853599999934, 0.0 ], [ -67.467178699999977, -45.790900299999976, 0.0 ], [ -67.467269899999962, -45.790919, 0.0 ], [ -67.469118, -45.790962, 0.0 ], [ -67.469236, -45.790803099999948, 0.0 ] ] ] ] } },
{ "type": "Feature", "properties": { "Name": "CRD - Descubierto 2", "Shape_Area": 4873.19753984, "IATA": "CRD", "Obs": null }, "geometry": { "type": "MultiPolygon", "coordinates": [ [ [ [ -67.465442499999938, -45.790316099999984, 0.0 ], [ -67.465246699999966, -45.790387099999975, 0.0 ], [ -67.465262799999948, -45.790688299999943, 0.0 ], [ -67.466764799999964, -45.790723799999967, 0.0 ], [ -67.466770199999985, -45.790346, 0.0 ], [ -67.465442499999938, -45.790316099999984, 0.0 ] ] ] ] } },
{ "type": "Feature", "properties": { "Name": "RGL - Descubierto ", "Shape_Area": 7215.7387441199999, "IATA": "RGL", "Obs": null }, "geometry": { "type": "MultiPolygon", "coordinates": [ [ [ [ -69.305950399999972, -51.612400799999932, 0.0 ], [ -69.305800199999965, -51.612475699999948, 0.0 ], [ -69.306511, -51.613000399999976, 0.0 ], [ -69.307382699999948, -51.612535699999967, 0.0 ], [ -69.307482, -51.612465699999973, 0.0 ], [ -69.307473899999934, -51.612387499999954, 0.0 ], [ -69.306878499999982, -51.611987699999986, 0.0 ], [ -69.306784599999958, -51.611954399999945, 0.0 ], [ -69.306693399999972, -51.611961099999974, 0.0 ], [ -69.305950399999972, -51.612400799999932, 0.0 ] ] ] ] } },
{ "type": "Feature", "properties": { "Name": "RGA - Descubierto ", "Shape_Area": 5627.8310352400003, "IATA": "RGA", "Obs": null }, "geometry": { "type": "MultiPolygon", "coordinates": [ [ [ [ -67.754299599999968, -53.781837899999971, 0.0 ], [ -67.752360299999964, -53.781782499999963, 0.0 ], [ -67.752325499999984, -53.782175499999937, 0.0 ], [ -67.754262, -53.782234099999982, 0.0 ], [ -67.754299599999968, -53.781837899999971, 0.0 ] ] ] ] } },
{ "type": "Feature", "properties": { "Name": "USH - Descubierto 1 ", "Shape_Area": 4389.5510389900001, "IATA": "USH", "Obs": null }, "geometry": { "type": "MultiPolygon", "coordinates": [ [ [ [ -68.31345349999998, -54.838338599999986, 0.0 ], [ -68.312439599999948, -54.838316899999938, 0.0 ], [ -68.312321599999962, -54.838360199999954, 0.0 ], [ -68.312289399999941, -54.838601199999971, 0.0 ], [ -68.312386, -54.838740199999961, 0.0 ], [ -68.312638099999958, -54.838857599999983, 0.0 ], [ -68.312852699999951, -54.838891599999954, 0.0 ], [ -68.313045799999941, -54.838885399999981, 0.0 ], [ -68.313335499999937, -54.838823599999955, 0.0 ], [ -68.313389099999938, -54.838792699999942, 0.0 ], [ -68.313539299999945, -54.838650599999937, 0.0 ], [ -68.313587599999948, -54.838499199999944, 0.0 ], [ -68.313587599999948, -54.838428199999953, 0.0 ], [ -68.31345349999998, -54.838338599999986, 0.0 ] ] ] ] } },
{ "type": "Feature", "properties": { "Name": "USH - Descubierto Exentos", "Shape_Area": 1931.5798104600001, "IATA": "USH", "Obs": null }, "geometry": { "type": "MultiPolygon", "coordinates": [ [ [ [ -68.311098499999957, -54.839018199999941, 0.0 ], [ -68.311087799999939, -54.839197399999932, 0.0 ], [ -68.31272389999998, -54.83924989999997, 0.0 ], [ -68.312729299999944, -54.839144899999951, 0.0 ], [ -68.312359199999946, -54.839070699999979, 0.0 ], [ -68.311098499999957, -54.839018199999941, 0.0 ] ] ] ] } },
{ "type": "Feature", "properties": { "Name": "FTE - Descubierto 1", "Shape_Area": 2032.83296705, "IATA": "FTE", "Obs": null }, "geometry": { "type": "MultiPolygon", "coordinates": [ [ [ [ -72.054222299999935, -50.284529799999973, 0.0 ], [ -72.053103799999974, -50.284466399999985, 0.0 ], [ -72.053069, -50.284682299999986, 0.0 ], [ -72.054203499999971, -50.284761199999934, 0.0 ], [ -72.054219599999954, -50.284709699999951, 0.0 ], [ -72.054222299999935, -50.284529799999973, 0.0 ] ] ] ] } },
{ "type": "Feature", "properties": { "Name": "FTE - Descubierto 2", "Shape_Area": 4903.5542218600003, "IATA": "FTE", "Obs": null }, "geometry": { "type": "MultiPolygon", "coordinates": [ [ [ [ -72.055383699999936, -50.284252599999945, 0.0 ], [ -72.054986799999938, -50.284250899999961, 0.0 ], [ -72.054933099999971, -50.285076899999979, 0.0 ], [ -72.05450929999995, -50.285064899999952, 0.0 ], [ -72.054530799999952, -50.285205499999961, 0.0 ], [ -72.054603199999974, -50.285364899999934, 0.0 ], [ -72.054678299999978, -50.28542479999993, 0.0 ], [ -72.055453499999942, -50.285476299999971, 0.0 ], [ -72.05545879999994, -50.285382, 0.0 ], [ -72.055370299999936, -50.285358, 0.0 ], [ -72.055386399999975, -50.285109499999976, 0.0 ], [ -72.05527909999995, -50.285095799999965, 0.0 ], [ -72.055383699999936, -50.284252599999945, 0.0 ] ] ] ] } },
{ "type": "Feature", "properties": { "Name": "EQS - REVISAR ", "Shape_Area": 3474.1003889, "IATA": "EQS", "Obs": null }, "geometry": { "type": "MultiPolygon", "coordinates": [ [ [ [ -71.147303099999988, -42.905287299999941, 0.0 ], [ -71.146900699999946, -42.905819799999961, 0.0 ], [ -71.146385799999962, -42.905584, 0.0 ], [ -71.146270399999935, -42.905699899999945, 0.0 ], [ -71.146978499999989, -42.906069299999956, 0.0 ], [ -71.147155599999962, -42.90593569999993, 0.0 ], [ -71.147434499999974, -42.905751, 0.0 ], [ -71.147654499999987, -42.905483799999956, 0.0 ], [ -71.147303099999988, -42.905287299999941, 0.0 ] ] ] ] } },
{ "type": "Feature", "properties": { "Name": "BRC - Descubierto", "Shape_Area": 17932.903921199999, "IATA": "BRC", "Obs": null }, "geometry": { "type": "MultiPolygon", "coordinates": [ [ [ [ -71.16330789999995, -41.144986, 0.0 ], [ -71.162100899999984, -41.144703199999981, 0.0 ], [ -71.161854199999937, -41.144691099999932, 0.0 ], [ -71.159939099999974, -41.145341499999972, 0.0 ], [ -71.160325299999954, -41.145991899999956, 0.0 ], [ -71.163039699999956, -41.145054699999946, 0.0 ], [ -71.16330789999995, -41.144986, 0.0 ] ] ] ] } },
{ "type": "Feature", "properties": { "Name": "BRC - Descubierto 2", "Shape_Area": 6263.0059319900001, "IATA": "BRC", "Obs": null }, "geometry": { "type": "MultiPolygon", "coordinates": [ [ [ [ -71.164332599999966, -41.145759899999973, 0.0 ], [ -71.163404499999956, -41.146058799999935, 0.0 ], [ -71.16378, -41.146672799999976, 0.0 ], [ -71.164678599999945, -41.146373899999958, 0.0 ], [ -71.164332599999966, -41.145759899999973, 0.0 ] ] ] ] } },
{ "type": "Feature", "properties": { "Name": "CPC - Descubierto", "Shape_Area": 9176.7860081500003, "IATA": "CPC", "Obs": null }, "geometry": { "type": "MultiPolygon", "coordinates": [ [ [ [ -71.143805, -40.081213099999957, 0.0 ], [ -71.143327599999964, -40.081007899999975, 0.0 ], [ -71.14268919999995, -40.081705699999929, 0.0 ], [ -71.142410299999938, -40.081668699999966, 0.0 ], [ -71.142120599999942, -40.081968399999937, 0.0 ], [ -71.143032499999947, -40.082354199999941, 0.0 ], [ -71.143365099999983, -40.081980699999974, 0.0 ], [ -71.143306099999961, -40.081919099999936, 0.0 ], [ -71.143805, -40.081213099999957, 0.0 ] ] ] ] } },
{ "type": "Feature", "properties": { "Name": "NQN - Descubierto 1 ", "Shape_Area": 19518.116513299999, "IATA": "NQN", "Obs": null }, "geometry": { "type": "MultiPolygon", "coordinates": [ [ [ [ -68.139612099999965, -38.95263019999993, 0.0 ], [ -68.139271399999984, -38.952788699999985, 0.0 ], [ -68.138147599999968, -38.953643899999975, 0.0 ], [ -68.138882499999966, -38.954173699999956, 0.0 ], [ -68.139418899999953, -38.954390699999976, 0.0 ], [ -68.139992899999982, -38.954361499999948, 0.0 ], [ -68.140025099999946, -38.953235099999972, 0.0 ], [ -68.139756899999952, -38.952980599999933, 0.0 ], [ -68.139612099999965, -38.95263019999993, 0.0 ] ] ] ] } },
{ "type": "Feature", "properties": { "Name": "NQN - Descubierto 2", "Shape_Area": 19001.748296599999, "IATA": "NQN", "Obs": null }, "geometry": { "type": "MultiPolygon", "coordinates": [ [ [ [ -68.140239699999938, -38.953201699999966, 0.0 ], [ -68.140271899999959, -38.954157, 0.0 ], [ -68.14032549999996, -38.954315599999973, 0.0 ], [ -68.140556199999935, -38.954411499999935, 0.0 ], [ -68.141275, -38.954253, 0.0 ], [ -68.141505699999982, -38.954111099999977, 0.0 ], [ -68.142122599999936, -38.953660599999978, 0.0 ], [ -68.140776099999982, -38.952567599999952, 0.0 ], [ -68.140743899999961, -38.952696899999978, 0.0 ], [ -68.140781499999946, -38.953018199999974, 0.0 ], [ -68.140239699999938, -38.953201699999966, 0.0 ] ] ] ] } },
{ "type": "Feature", "properties": { "Name": "NQN - Descubierto 3", "Shape_Area": 7641.0312736599999, "IATA": "NQN", "Obs": null }, "geometry": { "type": "MultiPolygon", "coordinates": [ [ [ [ -68.139179799999965, -38.952599799999973, 0.0 ], [ -68.138380499999982, -38.952462099999934, 0.0 ], [ -68.137479299999939, -38.953121299999964, 0.0 ], [ -68.13796739999998, -38.953521799999976, 0.0 ], [ -68.139179799999965, -38.952599799999973, 0.0 ] ] ] ] } },
{ "type": "Feature", "properties": { "Name": "LGS - Descubierto", "Shape_Area": 1367.74467757, "IATA": "LGS", "Obs": null }, "geometry": { "type": "MultiPolygon", "coordinates": [ [ [ [ -69.584961499999963, -35.483672299999967, 0.0 ], [ -69.584553799999981, -35.483681099999956, 0.0 ], [ -69.584529599999939, -35.483993399999974, 0.0 ], [ -69.584977599999945, -35.483993399999974, 0.0 ], [ -69.584961499999963, -35.483672299999967, 0.0 ] ] ] ] } },
{ "type": "Feature", "properties": { "Name": "AFA - Descubierto", "Shape_Area": 2808.37430649, "IATA": "AFA", "Obs": "GRATUITO - AA2000" }, "geometry": { "type": "MultiPolygon", "coordinates": [ [ [ [ -68.401049299999954, -34.591338899999975, 0.0 ], [ -68.400402899999932, -34.591555299999982, 0.0 ], [ -68.400351899999976, -34.591630399999914, 0.0 ], [ -68.400461899999968, -34.591873299999989, 0.0 ], [ -68.400614799999957, -34.591820299999917, 0.0 ], [ -68.400644299999939, -34.591855599999967, 0.0 ], [ -68.4011685625984, -34.591666052049064, 0.0 ], [ -68.401183141370907, -34.591616092799683, 0.0 ], [ -68.401208868550455, -34.591536110723275, 0.0 ], [ -68.401132927168916, -34.591401835086891, 0.0 ], [ -68.40112778197593, -34.591362198600557, 0.0 ], [ -68.401049299999954, -34.591338899999975, 0.0 ] ] ] ] } },
{ "type": "Feature", "properties": { "Name": "RSA - Descubierto", "Shape_Area": 2832.0622501600001, "IATA": "RSA", "Obs": "GRATUITO - AA2000" }, "geometry": { "type": "MultiPolygon", "coordinates": [ [ [ [ -64.279740899999979, -36.59151739999993, 0.0 ], [ -64.279684599999939, -36.591618599999947, 0.0 ], [ -64.279687299999978, -36.592060099999969, 0.0 ], [ -64.280229099999985, -36.592047199999968, 0.0 ], [ -64.280215699999985, -36.59151739999993, 0.0 ], [ -64.279740899999979, -36.59151739999993, 0.0 ] ] ] ] } },
{ "type": "Feature", "properties": { "Name": "RES - Descubierto", "Shape_Area": 6052.3360897700004, "IATA": "RES", "Obs": null }, "geometry": { "type": "MultiPolygon", "coordinates": [ [ [ [ -59.048752643213867, -27.444156257778303, 0.0 ], [ -59.047509370772168, -27.444299764369017, 0.0 ], [ -59.047200268934361, -27.444685470651105, 0.0 ], [ -59.047465931721668, -27.444672045869385, 0.0 ], [ -59.047855555089114, -27.444673752177334, 0.0 ], [ -59.048052642450948, -27.444637057647402, 0.0 ], [ -59.048436142822666, -27.444575157717878, 0.0 ], [ -59.048631943029825, -27.444468057754328, 0.0 ], [ -59.048783337274685, -27.444381474047464, 0.0 ], [ -59.048933715820532, -27.444215156797874, 0.0 ], [ -59.048752643213867, -27.444156257778303, 0.0 ] ] ] ] } },
{ "type": "Feature", "properties": { "Name": "CNQ - Descubierto", "Shape_Area": 7172.2590474500003, "IATA": "CNQ", "Obs": null }, "geometry": { "type": "MultiPolygon", "coordinates": [ [ [ [ -58.757236099999943, -27.449365199999932, 0.0 ], [ -58.757163699999978, -27.449560399999939, 0.0 ], [ -58.757104699999957, -27.449765099999979, 0.0 ], [ -58.757201299999963, -27.449807899999939, 0.0 ], [ -58.758722099999943, -27.449619899999959, 0.0 ], [ -58.758770299999981, -27.449572299999943, 0.0 ], [ -58.758773, -27.449481799999944, 0.0 ], [ -58.758732799999962, -27.449331899999947, 0.0 ], [ -58.75836529999998, -27.449284299999931, 0.0 ], [ -58.758182899999952, -27.449255699999981, 0.0 ], [ -58.757236099999943, -27.449365199999932, 0.0 ] ] ] ] } },
{ "type": "Feature", "properties": { "Name": "PSS - Descubierto", "Shape_Area": 6003.5951362300002, "IATA": "PSS", "Obs": null }, "geometry": { "type": "MultiPolygon", "coordinates": [ [ [ [ -55.966335899999933, -27.391326599999957, 0.0 ], [ -55.965705599999978, -27.391324199999929, 0.0 ], [ -55.96566, -27.391348, 0.0 ], [ -55.965641299999959, -27.392036299999972, 0.0 ], [ -55.96569489999996, -27.392112499999939, 0.0 ], [ -55.966180399999985, -27.392129099999977, 0.0 ], [ -55.966319899999974, -27.392091, 0.0 ], [ -55.966335899999933, -27.391326599999957, 0.0 ] ] ] ] } },
{ "type": "Feature", "properties": { "Name": "IGR - Descubierto", "Shape_Area": 13788.3240707, "IATA": "IGR", "Obs": "TERCERIZADO / AA2000" }, "geometry": { "type": "MultiPolygon", "coordinates": [ [ [ [ -54.475218499999983, -25.730996599999969, 0.0 ], [ -54.475478599999974, -25.731504, 0.0 ], [ -54.477246199999968, -25.730764699999952, 0.0 ], [ -54.477348099999972, -25.730643799999939, 0.0 ], [ -54.477315899999951, -25.730496399999936, 0.0 ], [ -54.477350799999954, -25.730257199999983, 0.0 ], [ -54.477211299999965, -25.730221, 0.0 ], [ -54.47707719999994, -25.730223399999943, 0.0 ], [ -54.475218499999983, -25.730996599999969, 0.0 ] ] ] ] } },
{ "type": "Feature", "properties": { "Name": "SLA - Cubierto 1", "Shape_Area": 7547.6355373699998, "IATA": "SLA", "Obs": null }, "geometry": { "type": "MultiPolygon", "coordinates": [ [ [ [ -65.479649299999949, -24.842937, 0.0 ], [ -65.478836599999966, -24.842856599999948, 0.0 ], [ -65.478823199999965, -24.842915099999971, 0.0 ], [ -65.478710499999977, -24.842910199999949, 0.0 ], [ -65.478619299999934, -24.843552799999941, 0.0 ], [ -65.479528599999981, -24.843684199999927, 0.0 ], [ -65.479649299999949, -24.842937, 0.0 ] ] ] ] } },
{ "type": "Feature", "properties": { "Name": "SLA - Cubierto / Descubierto", "Shape_Area": 6025.3962225699997, "IATA": "SLA", "Obs": null }, "geometry": { "type": "MultiPolygon", "coordinates": [ [ [ [ -65.477380199999971, -24.843292299999973, 0.0 ], [ -65.476940299999967, -24.843815599999971, 0.0 ], [ -65.477508899999975, -24.844205099999954, 0.0 ], [ -65.477613499999961, -24.844258599999932, 0.0 ], [ -65.477989, -24.843844799999943, 0.0 ], [ -65.47793269999994, -24.843791299999964, 0.0 ], [ -65.477924599999938, -24.843679299999962, 0.0 ], [ -65.477380199999971, -24.843292299999973, 0.0 ] ] ] ] } },
{ "type": "Feature", "properties": { "Name": "JUJ - Descubierto", "Shape_Area": 9863.1113018899996, "IATA": "JUJ", "Obs": null }, "geometry": { "type": "MultiPolygon", "coordinates": [ [ [ [ -65.093334099999936, -24.384915699999965, 0.0 ], [ -65.092805699999985, -24.385763399999973, 0.0 ], [ -65.092837799999984, -24.385870899999929, 0.0 ], [ -65.093258899999967, -24.386073599999975, 0.0 ], [ -65.093513799999982, -24.386198199999967, 0.0 ], [ -65.094058199999949, -24.385277199999962, 0.0 ], [ -65.093334099999936, -24.384915699999965, 0.0 ] ] ] ] } },
{ "type": "Feature", "properties": { "Name": "SDE - Descubierto", "Shape_Area": 1744.90240608, "IATA": "SDE", "Obs": null }, "geometry": { "type": "MultiPolygon", "coordinates": [ [ [ [ -64.298289399999987, -27.755829399999982, 0.0 ], [ -64.298561599999971, -27.756005, 0.0 ], [ -64.298601799999972, -27.756018099999949, 0.0 ], [ -64.298656799999947, -27.756001499999968, 0.0 ], [ -64.298721199999932, -27.755970599999955, 0.0 ], [ -64.29890359999996, -27.75572619999997, 0.0 ], [ -64.298926399999971, -27.755685799999981, 0.0 ], [ -64.298847299999977, -27.755628799999954, 0.0 ], [ -64.298693, -27.755612199999973, 0.0 ], [ -64.298403299999961, -27.755678699999976, 0.0 ], [ -64.298289399999987, -27.755829399999982, 0.0 ] ] ] ] } },
{ "type": "Feature", "properties": { "Name": "RHD - Descubierto ", "Shape_Area": 1951.8297592199999, "IATA": "RHD", "Obs": null }, "geometry": { "type": "MultiPolygon", "coordinates": [ [ [ [ -64.93257669999997, -27.506335, 0.0 ], [ -64.932364799999959, -27.506549099999972, 0.0 ], [ -64.932842199999982, -27.506920299999933, 0.0 ], [ -64.933035299999972, -27.50668479999996, 0.0 ], [ -64.93257669999997, -27.506335, 0.0 ] ] ] ] } },
{ "type": "Feature", "properties": { "Name": "TUC - Cubierto / Descubierto", "Shape_Area": 10278.449736500001, "IATA": "TUC", "Obs": null }, "geometry": { "type": "MultiPolygon", "coordinates": [ [ [ [ -65.108710699999961, -26.835245799999939, 0.0 ], [ -65.108965499999954, -26.836519, 0.0 ], [ -65.109673599999951, -26.836401799999976, 0.0 ], [ -65.109421499999939, -26.835128499999939, 0.0 ], [ -65.108710699999961, -26.835245799999939, 0.0 ] ] ] ] } },
{ "type": "Feature", "properties": { "Name": "CTC - Descubierto", "Shape_Area": 2539.9693544500001, "IATA": "CTC", "Obs": null }, "geometry": { "type": "MultiPolygon", "coordinates": [ [ [ [ -65.755346199999963, -28.591930099999956, 0.0 ], [ -65.755094099999951, -28.591991399999984, 0.0 ], [ -65.75531669999998, -28.592841499999963, 0.0 ], [ -65.755582199999935, -28.592794399999946, 0.0 ], [ -65.755346199999963, -28.591930099999956, 0.0 ] ] ] ] } },
{ "type": "Feature", "properties": { "Name": "IRJ - Descubierto ", "Shape_Area": 6388.65142259, "IATA": "IRJ", "Obs": null }, "geometry": { "type": "MultiPolygon", "coordinates": [ [ [ [ -66.792725099999984, -29.38248509999994, 0.0 ], [ -66.792470299999934, -29.382587899999976, 0.0 ], [ -66.792312099999947, -29.382814599999961, 0.0 ], [ -66.792263799999944, -29.382954799999936, 0.0 ], [ -66.792499799999973, -29.383380199999976, 0.0 ], [ -66.792628599999944, -29.383331099999964, 0.0 ], [ -66.792752, -29.383487699999932, 0.0 ], [ -66.792923599999938, -29.383405899999957, 0.0 ], [ -66.793044299999963, -29.383536799999945, 0.0 ], [ -66.793299099999956, -29.383394199999941, 0.0 ], [ -66.792725099999984, -29.38248509999994, 0.0 ] ] ] ] } },
{ "type": "Feature", "properties": { "Name": "COR - Descubierto 1 ", "Shape_Area": 18259.009492000001, "IATA": "COR", "Obs": null }, "geometry": { "type": "MultiPolygon", "coordinates": [ [ [ [ -64.215183199999956, -31.317056399999956, 0.0 ], [ -64.214255199999968, -31.317060899999944, 0.0 ], [ -64.214223, -31.31715719999994, 0.0 ], [ -64.213563199999953, -31.317134299999964, 0.0 ], [ -64.213547099999971, -31.31816079999993, 0.0 ], [ -64.215172499999937, -31.31816079999993, 0.0 ], [ -64.215183199999956, -31.317056399999956, 0.0 ] ] ] ] } },
{ "type": "Feature", "properties": { "Name": "COR - Descubierto 2", "Shape_Area": 2774.1105011499999, "IATA": "COR", "Obs": null }, "geometry": { "type": "MultiPolygon", "coordinates": [ [ [ [ -64.214217599999984, -31.316634699999952, 0.0 ], [ -64.214201499999945, -31.316905099999929, 0.0 ], [ -64.215177899999958, -31.316914299999951, 0.0 ], [ -64.215183199999956, -31.316717199999971, 0.0 ], [ -64.215070599999933, -31.316634699999952, 0.0 ], [ -64.214217599999984, -31.316634699999952, 0.0 ] ] ] ] } },
{ "type": "Feature", "properties": { "Name": "MDZ - Cubierto / Descubierto", "Shape_Area": 21470.731131600001, "IATA": "MDZ", "Obs": "AA2000 - PROPIO - COBRA " }, "geometry": { "type": "MultiPolygon", "coordinates": [ [ [ [ -68.800155899999936, -32.827028899999959, 0.0 ], [ -68.799072299999978, -32.827046899999971, 0.0 ], [ -68.798938099999987, -32.827150599999982, 0.0 ], [ -68.798981099999935, -32.828678699999955, 0.0 ], [ -68.799147399999981, -32.828750899999932, 0.0 ], [ -68.800000299999965, -32.828750899999932, 0.0 ], [ -68.800139799999954, -32.828620099999966, 0.0 ], [ -68.800209499999937, -32.828200899999956, 0.0 ], [ -68.800155899999936, -32.827028899999959, 0.0 ] ] ] ] } },
{ "type": "Feature", "properties": { "Name": "MDZ - Cubierto ", "Shape_Area": 4120.9434471300001, "IATA": "MDZ", "Obs": null }, "geometry": { "type": "MultiPolygon", "coordinates": [ [ [ [ -68.800220199999956, -32.829116, 0.0 ], [ -68.799469199999976, -32.829138499999942, 0.0 ], [ -68.799447799999939, -32.829647899999941, 0.0 ], [ -68.800225599999976, -32.829643399999952, 0.0 ], [ -68.800220199999956, -32.829116, 0.0 ] ] ] ] } },
{ "type": "Feature", "properties": { "Name": "LUQ - Descubierto", "Shape_Area": 1560.03835596, "IATA": "LUQ", "Obs": null }, "geometry": { "type": "MultiPolygon", "coordinates": [ [ [ [ -66.350799099999961, -33.274066699999935, 0.0 ], [ -66.350313599999936, -33.27406, 0.0 ], [ -66.350308199999972, -33.274378399999932, 0.0 ], [ -66.350705199999936, -33.274391899999955, 0.0 ], [ -66.350772199999938, -33.274340299999949, 0.0 ], [ -66.350799099999961, -33.274066699999935, 0.0 ] ] ] ] } },
{ "type": "Feature", "properties": { "Name": "UAQ - Cubierto / Descubierto ", "Shape_Area": 7308.9095957500003, "IATA": "UAQ", "Obs": null }, "geometry": { "type": "MultiPolygon", "coordinates": [ [ [ [ -68.423554599999989, -31.571118099999978, 0.0 ], [ -68.422910799999954, -31.571113499999967, 0.0 ], [ -68.422878599999933, -31.571150099999954, 0.0 ], [ -68.422862499999951, -31.572057299999983, 0.0 ], [ -68.422924199999954, -31.572107599999981, 0.0 ], [ -68.423039599999981, -31.572135, 0.0 ], [ -68.423517, -31.572121299999935, 0.0 ], [ -68.42356529999995, -31.572103, 0.0 ], [ -68.423554599999989, -31.571118099999978, 0.0 ] ] ] ] } },
{ "type": "Feature", "properties": { "Name": "UAQ - Cubierto / Descubierto 2 ", "Shape_Area": 1061.3802189800001, "IATA": "UAQ", "Obs": null }, "geometry": { "type": "MultiPolygon", "coordinates": [ [ [ [ -68.423747699999979, -31.572011599999939, 0.0 ], [ -68.423632299999952, -31.57200249999994, 0.0 ], [ -68.423624299999972, -31.572162399999968, 0.0 ], [ -68.42355189999995, -31.572201299999961, 0.0 ], [ -68.423337299999957, -31.572212699999966, 0.0 ], [ -68.423278299999936, -31.572231, 0.0 ], [ -68.423275599999954, -31.572379499999954, 0.0 ], [ -68.423669899999936, -31.572377199999949, 0.0 ], [ -68.423691299999973, -31.572331499999962, 0.0 ], [ -68.423736899999938, -31.572329299999979, 0.0 ], [ -68.423747699999979, -31.572011599999939, 0.0 ] ] ] ] } },
{ "type": "Feature", "properties": { "Name": "AEP - Mandarine*", "Shape_Area": 7861.6905250999998, "IATA": "AEP", "Obs": "Solo para trabajadores del aer" }, "geometry": { "type": "MultiPolygon", "coordinates": [ [ [ [ -58.401043799999968, -34.56568939999994, 0.0 ], [ -58.399863599999946, -34.565084199999944, 0.0 ], [ -58.39957389999995, -34.565088599999967, 0.0 ], [ -58.399343299999941, -34.565313899999978, 0.0 ], [ -58.400872099999958, -34.566166499999952, 0.0 ], [ -58.401043799999968, -34.56568939999994, 0.0 ] ] ] ] } },
{ "type": "Feature", "properties": { "Name": "AEP - Costa Salguero", "Shape_Area": 8546.0512803599995, "IATA": "AEP", "Obs": "Estacionamiento para empleados" }, "geometry": { "type": "MultiPolygon", "coordinates": [ [ [ [ -58.395619899999986, -34.569463299999938, 0.0 ], [ -58.394616799999937, -34.570017599999971, 0.0 ], [ -58.395091499999978, -34.570589599999948, 0.0 ], [ -58.396086599999933, -34.570024199999978, 0.0 ], [ -58.395619899999986, -34.569463299999938, 0.0 ] ] ] ] } },
{ "type": "Feature", "properties": { "Name": "AEP - Mc Parking", "Shape_Area": 3400.969036, "IATA": "AEP", "Obs": null }, "geometry": { "type": "MultiPolygon", "coordinates": [ [ [ [ -58.399299799999937, -34.571916499999929, 0.0 ], [ -58.400010599999973, -34.571569699999941, 0.0 ], [ -58.399825499999963, -34.57131789999994, 0.0 ], [ -58.399750399999959, -34.571326799999952, 0.0 ], [ -58.399299799999937, -34.57134659999997, 0.0 ], [ -58.399246099999971, -34.571393, 0.0 ], [ -58.399109399999986, -34.571724299999971, 0.0 ], [ -58.399299799999937, -34.571916499999929, 0.0 ] ] ] ] } },
{ "type": "Feature", "properties": { "Name": "AEP - Cubierto Parking Río", "Shape_Area": 11391.910999899999, "IATA": "AEP", "Obs": null }, "geometry": { "type": "MultiPolygon", "coordinates": [ [ [ [ -58.410727121319425, -34.556847982690641, 0.0 ], [ -58.411051518031201, -34.557158037639645, 0.0 ], [ -58.413379977969285, -34.555763665803589, 0.0 ], [ -58.413165874742887, -34.555548132401562, 0.0 ], [ -58.413106605523986, -34.555484229304284, 0.0 ], [ -58.410727121319425, -34.556847982690641, 0.0 ] ] ] ] } },
{ "type": "Feature", "properties": { "Name": "AEP - Cubierto Sur", "Shape_Area": 7410.0705771800003, "IATA": "AEP", "Obs": null }, "geometry": { "type": "MultiPolygon", "coordinates": [ [ [ [ -58.410998646513569, -34.558036607480886, 0.0 ], [ -58.410172093617319, -34.5587030065509, 0.0 ], [ -58.410209284286097, -34.558733957634033, 0.0 ], [ -58.409433485789187, -34.559321306855836, 0.0 ], [ -58.409674688442692, -34.559538338312763, 0.0 ], [ -58.410427642513127, -34.558938007581141, 0.0 ], [ -58.410461962219387, -34.558958698859989, 0.0 ], [ -58.411322626921198, -34.558294329478741, 0.0 ], [ -58.410998646513569, -34.558036607480886, 0.0 ] ] ] ] } },
{ "type": "Feature", "properties": { "Name": "AEP - Descubierto Cargas", "Shape_Area": 3729.9991270300002, "IATA": "AEP", "Obs": null }, "geometry": { "type": "MultiPolygon", "coordinates": [ [ [ [ -58.420714247000724, -34.554633507283285, 0.0 ], [ -58.418163362274086, -34.555255850975811, 0.0 ], [ -58.418234088770532, -34.55539296742127, 0.0 ], [ -58.420755805313085, -34.554753914692576, 0.0 ], [ -58.420714247000724, -34.554633507283285, 0.0 ] ] ] ] } },
{ "type": "Feature", "properties": { "Name": "COC - Descubierto", "Shape_Area": 1124.99612456, "IATA": "COC", "Obs": null }, "geometry": { "type": "MultiPolygon", "coordinates": [ [ [ [ -58.002136563591087, -31.303080266584075, 0.0 ], [ -58.002460322687604, -31.303014446697858, 0.0 ], [ -58.002368727901647, -31.302708788250907, 0.0 ], [ -58.002041027682807, -31.302780299890504, 0.0 ], [ -58.002136563591087, -31.303080266584075, 0.0 ] ] ] ] } },
{ "type": "Feature", "properties": { "Name": "EZE - Descubierto Cargas", "Shape_Area": 24514.865569599999, "IATA": "EZE", "Obs": null }, "geometry": { "type": "MultiPolygon", "coordinates": [ [ [ [ -58.541601067218572, -34.80952018808231, 0.0 ], [ -58.542022384545312, -34.808250894472593, 0.0 ], [ -58.542386857935838, -34.808323177138632, 0.0 ], [ -58.54255655299059, -34.80773582186211, 0.0 ], [ -58.542521665216462, -34.807644711164606, 0.0 ], [ -58.542392072130717, -34.807551321829038, 0.0 ], [ -58.541056789861223, -34.807264425158188, 0.0 ], [ -58.541034162717445, -34.807330099070903, 0.0 ], [ -58.54078161058969, -34.808111310267456, 0.0 ], [ -58.540655694750342, -34.808509501737696, 0.0 ], [ -58.540667592055328, -34.808622526135487, 0.0 ], [ -58.540727078580446, -34.808676064008132, 0.0 ], [ -58.540917435460884, -34.808735550533221, 0.0 ], [ -58.540947178723549, -34.808696884291905, 0.0 ], [ -58.540991793617366, -34.808708781596891, 0.0 ], [ -58.541059936621636, -34.808522312755763, 0.0 ], [ -58.541208919434141, -34.808571962589092, 0.0 ], [ -58.54106317744759, -34.808994316917541, 0.0 ], [ -58.541176201845353, -34.809030008832664, 0.0 ], [ -58.541060629269907, -34.809395072775686, 0.0 ], [ -58.541601067218572, -34.80952018808231, 0.0 ] ] ] ] } },
{ "type": "Feature", "properties": { "Name": "FDO - Descubierto", "Shape_Area": 3069.78324501, "IATA": "FDO", "Obs": null }, "geometry": { "type": "MultiPolygon", "coordinates": [ [ [ [ -58.584248791825665, -34.456464397574145, 0.0 ], [ -58.584441347924106, -34.456145087717942, 0.0 ], [ -58.583700359164894, -34.455829254886829, 0.0 ], [ -58.583511696628769, -34.456154139604116, 0.0 ], [ -58.584248791825665, -34.456464397574145, 0.0 ] ] ] ] } },
{ "type": "Feature", "properties": { "Name": "FMA - Descubierto", "Shape_Area": 4055.85488605, "IATA": "FMA", "Obs": null }, "geometry": { "type": "MultiPolygon", "coordinates": [ [ [ [ -58.231314639024966, -26.215548294367018, 0.0 ], [ -58.231764233017124, -26.215320546915311, 0.0 ], [ -58.231191272245319, -26.214415997213298, 0.0 ], [ -58.23110129733027, -26.214462398376323, 0.0 ], [ -58.231188194443902, -26.214603903164367, 0.0 ], [ -58.231213069813791, -26.21468076980069, 0.0 ], [ -58.231190312303248, -26.214784967596533, 0.0 ], [ -58.231152515246414, -26.21497241079522, 0.0 ], [ -58.231086255420863, -26.215183952885351, 0.0 ], [ -58.231314639024966, -26.215548294367018, 0.0 ] ] ] ] } },
{ "type": "Feature", "properties": { "Name": "REL - Descubierto", "Shape_Area": 6319.5799255900001, "IATA": "REL", "Obs": null }, "geometry": { "type": "MultiPolygon", "coordinates": [ [ [ [ -65.285712914761419, -43.210298239942922, 0.0 ], [ -65.28593918384081, -43.209865415572104, 0.0 ], [ -65.285805212770953, -43.209827710086707, 0.0 ], [ -65.285768884157278, -43.20982133841693, 0.0 ], [ -65.284990189802869, -43.209601403897096, 0.0 ], [ -65.284825563367079, -43.209551215932485, 0.0 ], [ -65.284618865267248, -43.209506909509642, 0.0 ], [ -65.284442273186556, -43.209522191370148, 0.0 ], [ -65.284251082229034, -43.209588588808806, 0.0 ], [ -65.284162629115343, -43.209729367197035, 0.0 ], [ -65.284673524580114, -43.209861605051898, 0.0 ], [ -65.284618720281046, -43.209998497611053, 0.0 ], [ -65.285712914761419, -43.210298239942922, 0.0 ] ] ] ] } },
{ "type": "Feature", "properties": { "Name": "RYO - Descubierto", "Shape_Area": 657.39759604599999, "IATA": "RYO", "Obs": null }, "geometry": { "type": "MultiPolygon", "coordinates": [ [ [ [ -72.228153962690669, -51.604235324013402, 0.0 ], [ -72.228377000423606, -51.604192559440982, 0.0 ], [ -72.228216950559371, -51.603832840322568, 0.0 ], [ -72.228007120591798, -51.603860646566993, 0.0 ], [ -72.228153962690669, -51.604235324013402, 0.0 ] ] ] ] } }
]
}
