{
"type": "FeatureCollection",
"name": "Hangares2026",
"crs": { "type": "name", "properties": { "name": "urn:ogc:def:crs:OGC:1.3:CRS84" } },
"features": [
{ "type": "Feature", "properties": { "Id": 0, "Tipo": "Hangares", "IATA": "EZE", "Etiqueta": "EZE - Hangares", "CIU": null, "Metros2": 89428.490252000003 }, "geometry": { "type": "MultiPolygon", "coordinates": [ [ [ [ -58.530979378624004, -34.802591147693299 ], [ -58.530508245344812, -34.802976620376214 ], [ -58.530029973682566, -34.802569732544278 ], [ -58.529523148488401, -34.803026589057311 ], [ -58.529958790864114, -34.803392464757565 ], [ -58.529473179807312, -34.803790396040249 ], [ -58.529016323294172, -34.80340492335722 ], [ -58.528509498099879, -34.803840364721339 ], [ -58.529002046528142, -34.804232975787315 ], [ -58.528882444941004, -34.804342610575468 ], [ -58.529030600060253, -34.804475680809901 ], [ -58.529173367720588, -34.804354328298515 ], [ -58.529194782869695, -34.80435432829853 ], [ -58.531057900837261, -34.802791022417694 ], [ -58.532949572336797, -34.801206301387808 ], [ -58.532335671397277, -34.800699476193579 ], [ -58.532286060187559, -34.80067004161026 ], [ -58.53048683019572, -34.802191398244304 ], [ -58.530979378624004, -34.802591147693299 ] ] ], [ [ [ -58.527560093158684, -34.799428844016582 ], [ -58.528716511207435, -34.800342557042711 ], [ -58.528859278867806, -34.800506739852203 ], [ -58.529251889933782, -34.800249758063551 ], [ -58.529458903041309, -34.800057021722004 ], [ -58.529623085850659, -34.800156959084276 ], [ -58.529830098958151, -34.799985637891879 ], [ -58.529787268660101, -34.799907115678693 ], [ -58.530636736239217, -34.799164723844896 ], [ -58.529237613167773, -34.79802972094506 ], [ -58.527560093158684, -34.799428844016582 ] ] ], [ [ [ -58.525803099151886, -34.798289320140761 ], [ -58.526052942557541, -34.798478487290815 ], [ -58.527467982296002, -34.797305465134741 ], [ -58.527913710507498, -34.796935970870031 ], [ -58.527901783759098, -34.796915181409986 ], [ -58.527448496437444, -34.796540416301511 ], [ -58.52558894766144, -34.798075168650314 ], [ -58.525596086044459, -34.798128706522959 ], [ -58.525803099151886, -34.798289320140761 ] ] ] ] } },
{ "type": "Feature", "properties": { "Id": 0, "Tipo": "Hangares provinciales", "IATA": "SLA", "Etiqueta": "SLA - Hangares provinciales", "CIU": null, "Metros2": 12388.417351800001 }, "geometry": { "type": "MultiPolygon", "coordinates": [ [ [ [ -65.480296397808218, -24.84164347050142 ], [ -65.480292104376758, -24.841780860307605 ], [ -65.480150421139115, -24.841767980013355 ], [ -65.480133247413278, -24.842021292468626 ], [ -65.480073139373019, -24.842536504242034 ], [ -65.47990140211526, -24.843472472297091 ], [ -65.480369386142783, -24.843532580337232 ], [ -65.480674219775352, -24.841660644227204 ], [ -65.480296397808218, -24.84164347050142 ] ] ], [ [ [ -65.480154714570574, -24.841252768239922 ], [ -65.480880304484742, -24.841342930300303 ], [ -65.480923238799164, -24.841008042647513 ], [ -65.480193355453579, -24.840926467450046 ], [ -65.480154714570574, -24.841252768239922 ] ] ] ] } },
{ "type": "Feature", "properties": { "Id": 0, "Tipo": "Hangares privados", "IATA": "SLA", "Etiqueta": "SLA - Hangares privados", "CIU": null, "Metros2": 1020.78348023 }, "geometry": { "type": "MultiPolygon", "coordinates": [ [ [ [ -65.476494180659756, -24.845384545903642 ], [ -65.476901663357012, -24.845226906612083 ], [ -65.476812433569251, -24.845036549731617 ], [ -65.476404950871995, -24.845197163349496 ], [ -65.476494180659756, -24.845384545903642 ] ] ] ] } },
{ "type": "Feature", "properties": { "Id": 0, "Tipo": "Hangar provincial", "IATA": "TUC", "Etiqueta": "TUC - Hangar provincial", "CIU": null, "Metros2": 1820.16922413 }, "geometry": { "type": "MultiPolygon", "coordinates": [ [ [ [ -65.10742917197058, -26.830067836912349 ], [ -65.10735951262177, -26.82966068625683 ], [ -65.106954505143221, -26.829737529100385 ], [ -65.107032352098031, -26.830129162466619 ], [ -65.10742917197058, -26.830067836912349 ] ] ] ] } },
{ "type": "Feature", "properties": { "Id": 0, "Tipo": "Hangares militares", "IATA": "NQN", "Etiqueta": "NQN - Hangares militares", "CIU": null, "Metros2": 2050.2959933400002 }, "geometry": { "type": "MultiPolygon", "coordinates": [ [ [ [ -68.135927659753719, -38.953341571232471 ], [ -68.136059636348435, -38.953455277948663 ], [ -68.136183014916938, -38.953359945195089 ], [ -68.136135388200415, -38.953321890963856 ], [ -68.136258766434381, -38.953226558124271 ], [ -68.136121537185161, -38.953116910375698 ], [ -68.135998158963019, -38.953212243071988 ], [ -68.13604578553273, -38.953250297358387 ], [ -68.135927659753719, -38.953341571232471 ] ] ], [ [ [ -68.135574701060946, -38.953094212902613 ], [ -68.135606103225896, -38.953364780656663 ], [ -68.135802206885344, -38.953350928997402 ], [ -68.1357708039789, -38.953080361287093 ], [ -68.135574701060946, -38.953094212902613 ] ] ], [ [ [ -68.133994575361655, -38.951635100070746 ], [ -68.134025971000781, -38.951905668239533 ], [ -68.134222070878309, -38.951891819175167 ], [ -68.134190674497646, -38.951621251050085 ], [ -68.133994575361655, -38.951635100070746 ] ] ], [ [ [ -68.134413529948716, -38.951729635918653 ], [ -68.134555587448773, -38.951807570019142 ], [ -68.134667408747561, -38.95168159742952 ], [ -68.134525351371479, -38.951603663464994 ], [ -68.134564159889777, -38.951559943586687 ], [ -68.134422102869479, -38.951482009498875 ], [ -68.134310281461083, -38.951607981856348 ], [ -68.134452338605243, -38.95168591608001 ], [ -68.134413529948716, -38.951729635918653 ] ] ] ] } },
{ "type": "Feature", "properties": { "Id": 0, "Tipo": "Hangar provincial", "IATA": "COR", "Etiqueta": "COR - Hangar provincial", "CIU": null, "Metros2": 1968.50674951 }, "geometry": { "type": "MultiPolygon", "coordinates": [ [ [ [ -64.21259239209229, -31.319571765562785 ], [ -64.212146243153711, -31.319565816910256 ], [ -64.212140294501182, -31.319976273933776 ], [ -64.21259239209229, -31.319991145565041 ], [ -64.21259239209229, -31.319571765562785 ] ] ] ] } },
{ "type": "Feature", "properties": { "Id": 0, "Tipo": "Hangar militar", "IATA": "CRD", "Etiqueta": "CRD - Hangar militar", "CIU": null, "Metros2": 2648.9839807499998 }, "geometry": { "type": "MultiPolygon", "coordinates": [ [ [ [ -67.47611086073907, -45.790747832290847 ], [ -67.476683910756933, -45.790769648195244 ], [ -67.476717136642065, -45.790225761909745 ], [ -67.476150293024574, -45.790218419638322 ], [ -67.47611086073907, -45.790747832290847 ] ] ] ] } },
{ "type": "Feature", "properties": { "Id": 0, "Tipo": "Hangares", "IATA": "CRD", "Etiqueta": "CRD - Hangares", "CIU": null, "Metros2": 1967.59112697 }, "geometry": { "type": "MultiPolygon", "coordinates": [ [ [ [ -67.464546807616756, -45.790735256487331 ], [ -67.464943624594056, -45.790762758386769 ], [ -67.464981034950014, -45.79047099721231 ], [ -67.464592915827268, -45.790432209049214 ], [ -67.464546807616756, -45.790735256487331 ] ] ], [ [ [ -67.46464335663083, -45.790389606838438 ], [ -67.465065475304982, -45.790415445874757 ], [ -67.465113174569709, -45.790162296673692 ], [ -67.464685521707295, -45.790133249802835 ], [ -67.46464335663083, -45.790389606838438 ] ] ] ] } },
{ "type": "Feature", "properties": { "Id": 0, "Tipo": "Hangar Gobernación", "IATA": "USH", "Etiqueta": "USH - Hangar Gobernación", "CIU": null, "Metros2": 1824.0652260899999 }, "geometry": { "type": "MultiPolygon", "coordinates": [ [ [ [ -68.308659002760805, -54.839291378300736 ], [ -68.308000487896607, -54.839275325778701 ], [ -68.30795829191608, -54.839651057696699 ], [ -68.308633446821361, -54.839677893259697 ], [ -68.308659002760805, -54.839291378300736 ] ] ] ] } },
{ "type": "Feature", "properties": { "Id": 0, "Tipo": "Hangar mantenimiento", "IATA": "USH", "Etiqueta": "USH - Hangar mantenimiento", "CIU": null, "Metros2": 1464.58661876 }, "geometry": { "type": "MultiPolygon", "coordinates": [ [ [ [ -68.309288500872825, -54.839710511017628 ], [ -68.309627164685807, -54.839732687494738 ], [ -68.30966158261954, -54.839425287584909 ], [ -68.309723754492992, -54.839418082714978 ], [ -68.309736460476131, -54.839304191186301 ], [ -68.309675395099006, -54.839301921821757 ], [ -68.309692475201103, -54.839149370466664 ], [ -68.309352746880776, -54.839136744609647 ], [ -68.309288500872825, -54.839710511017628 ] ] ] ] } },
{ "type": "Feature", "properties": { "Id": 0, "Tipo": "Hangares Provinciales", "IATA": "SFN", "Etiqueta": "SFN - Hangares Provinciales", "CIU": null, "Metros2": 3616.2403808399999 }, "geometry": { "type": "MultiPolygon", "coordinates": [ [ [ [ -60.809688974361308, -31.717683800676973 ], [ -60.809990592572163, -31.717580697782513 ], [ -60.809513067376656, -31.71661308595235 ], [ -60.809211549379391, -31.716727430061319 ], [ -60.809688974361308, -31.717683800676973 ] ] ] ] } },
{ "type": "Feature", "properties": { "Id": 0, "Tipo": "Hangar privado", "IATA": "SFN", "Etiqueta": "SFN - Hangar privado", "CIU": null, "Metros2": 561.10295525100003 }, "geometry": { "type": "MultiPolygon", "coordinates": [ [ [ [ -60.808847824001433, -31.71573660713074 ], [ -60.80906208371659, -31.715671537308886 ], [ -60.808959333249831, -31.715451077099516 ], [ -60.808745204093718, -31.715531136578011 ], [ -60.808847824001433, -31.71573660713074 ] ] ] ] } },
{ "type": "Feature", "properties": { "Id": 0, "Tipo": "Hangares aeroclub", "IATA": "SFN", "Etiqueta": "SFN - Hangares aeroclub", "CIU": null, "Metros2": 2098.2215116699999 }, "geometry": { "type": "MultiPolygon", "coordinates": [ [ [ [ -60.809208782388737, -31.71640889617013 ], [ -60.809772750864788, -31.716225427387322 ], [ -60.809702115899931, -31.716089075047464 ], [ -60.809504492876123, -31.716147413073813 ], [ -60.809335906230928, -31.715902154530031 ], [ -60.808999286129946, -31.716012973294411 ], [ -60.809115156677805, -31.71622960251457 ], [ -60.809208782388737, -31.71640889617013 ] ] ] ] } },
{ "type": "Feature", "properties": { "Id": 0, "Tipo": "Hangar LAER", "IATA": "PRA", "Etiqueta": "PRA - Hangar LAER", "CIU": "PRA_PAPB_H_0004", "Metros2": 1514.8025801599999 }, "geometry": { "type": "MultiPolygon", "coordinates": [ [ [ [ -60.483569780924306, -31.7908131124913 ], [ -60.483243114925706, -31.79085014434753 ], [ -60.483320795746181, -31.791282928844456 ], [ -60.483643272798638, -31.791245912693395 ], [ -60.483569780924306, -31.7908131124913 ] ] ] ] } },
{ "type": "Feature", "properties": { "Id": 0, "Tipo": "Hangar gendarmeria", "IATA": "PRA", "Etiqueta": "PRA - Hangar gendarmeria", "CIU": "PRA_PAPB_H_0006\r\n", "Metros2": 443.61916079500003 }, "geometry": { "type": "MultiPolygon", "coordinates": [ [ [ [ -60.482435820462108, -31.788712862571863 ], [ -60.482653549665748, -31.788679824949519 ], [ -60.482623269142579, -31.788497402072192 ], [ -60.48239714114797, -31.788526892289582 ], [ -60.482435820462108, -31.788712862571863 ] ] ] ] } },
{ "type": "Feature", "properties": { "Id": 0, "Tipo": "Hangar aeroclub", "IATA": "FTE", "Etiqueta": "FTE - Hangar aeroclub", "CIU": null, "Metros2": 1065.1603758000001 }, "geometry": { "type": "MultiPolygon", "coordinates": [ [ [ [ -72.047622895562725, -50.28347634289598 ], [ -72.046950205058963, -50.283439532148435 ], [ -72.046937426991349, -50.28363487777154 ], [ -72.047616555418116, -50.283675610031757 ], [ -72.047622895562725, -50.28347634289598 ] ] ] ] } },
{ "type": "Feature", "properties": { "Id": 0, "Tipo": "Hangar militar", "IATA": "RGA", "Etiqueta": "RGA - Hangar militar", "CIU": null, "Metros2": 4045.3858386900001 }, "geometry": { "type": "MultiPolygon", "coordinates": [ [ [ [ -67.756240230256708, -53.781583958540942 ], [ -67.755277163608596, -53.781572800137319 ], [ -67.755227334206282, -53.781824918566301 ], [ -67.755251505051248, -53.782059348689877 ], [ -67.755311788892783, -53.782136954143454 ], [ -67.756197720907309, -53.782160828617251 ], [ -67.756214714135382, -53.78188796146668 ], [ -67.756240230256708, -53.781583958540942 ] ] ] ] } },
{ "type": "Feature", "properties": { "Id": 0, "Tipo": "Hangares", "IATA": "RGA", "Etiqueta": "RGA - Hangares", "CIU": null, "Metros2": 1900.3222573600001 }, "geometry": { "type": "MultiPolygon", "coordinates": [ [ [ [ -67.74828598906312, -53.782009659140911 ], [ -67.748688944439536, -53.78201206709879 ], [ -67.74869630519413, -53.781721711519118 ], [ -67.748281324322562, -53.781723899667178 ], [ -67.74828598906312, -53.782009659140911 ] ] ], [ [ [ -67.748277090234311, -53.781562072724526 ], [ -67.748741541335178, -53.781566203528328 ], [ -67.748752121739017, -53.781258474844449 ], [ -67.748294735936796, -53.781257699011348 ], [ -67.748277090234311, -53.781562072724526 ] ] ] ] } },
{ "type": "Feature", "properties": { "Id": 0, "Tipo": "Hangar Escuela Técnica Nº6", "IATA": "RGL", "Etiqueta": "RGL - Hangar Escuela Técnica Nº6", "CIU": null, "Metros2": 2421.85030125 }, "geometry": { "type": "MultiPolygon", "coordinates": [ [ [ [ -69.295358881858405, -51.606563582490864 ], [ -69.295427238053065, -51.606140311135633 ], [ -69.294705916172205, -51.606097739959928 ], [ -69.294633265972834, -51.606534942913107 ], [ -69.295358881858405, -51.606563582490864 ] ] ] ] } },
{ "type": "Feature", "properties": { "Id": 0, "Tipo": "Hangar Aeroclub", "IATA": "PMY", "Etiqueta": "PMY - Hangar Aeroclub", "CIU": null, "Metros2": 390.85583940700002 }, "geometry": { "type": "MultiPolygon", "coordinates": [ [ [ [ -65.089600982463281, -42.750676225095113 ], [ -65.089653180886742, -42.750636525478257 ], [ -65.089614316023059, -42.75060876946867 ], [ -65.089746449461799, -42.750503158584841 ], [ -65.089605705914707, -42.750404391891578 ], [ -65.089412939203953, -42.750548140293951 ], [ -65.089600982463281, -42.750676225095113 ] ] ] ] } },
{ "type": "Feature", "properties": { "Id": 0, "Tipo": "Hangar Aeroclub", "IATA": "EQS", "Etiqueta": "EQS - Hangar Aeroclub", "CIU": null, "Metros2": 142.74629885 }, "geometry": { "type": "MultiPolygon", "coordinates": [ [ [ [ -71.148627875420189, -42.90706762476367 ], [ -71.148700074041386, -42.906988211362432 ], [ -71.148560373978654, -42.906922736085448 ], [ -71.148490410234217, -42.90700232206553 ], [ -71.148627875420189, -42.90706762476367 ] ] ] ] } },
{ "type": "Feature", "properties": { "Id": 0, "Tipo": "Hangares militares", "IATA": "BHI", "Etiqueta": "BHI - Hangares militares", "CIU": null, "Metros2": 18304.847378900002 }, "geometry": { "type": "MultiPolygon", "coordinates": [ [ [ [ -62.157429863785183, -38.733221665399462 ], [ -62.15815887988218, -38.733250948983439 ], [ -62.158178512083154, -38.732894669231023 ], [ -62.157466764045125, -38.732900663193654 ], [ -62.157429863785183, -38.733221665399462 ] ] ], [ [ [ -62.156216031089677, -38.733171543713986 ], [ -62.156956901190512, -38.733246084972038 ], [ -62.156982856314869, -38.732895298257063 ], [ -62.156295680707714, -38.732807892732083 ], [ -62.156216031089677, -38.733171543713986 ] ] ], [ [ [ -62.159644820077098, -38.732788938341486 ], [ -62.159685193162261, -38.733141216600124 ], [ -62.160437510558168, -38.733045952518466 ], [ -62.160345290907735, -38.732711648277942 ], [ -62.159644820077098, -38.732788938341486 ] ] ], [ [ [ -62.154855126677752, -38.733163326488345 ], [ -62.155597342729749, -38.733259671149405 ], [ -62.155745124858484, -38.732710813708152 ], [ -62.154993882025316, -38.732617433245956 ], [ -62.154855126677752, -38.733163326488345 ] ] ], [ [ [ -62.16081932667754, -38.732630180007874 ], [ -62.16088634166907, -38.732935065616786 ], [ -62.161592235612005, -38.732784383945891 ], [ -62.161490976530565, -38.732486871135109 ], [ -62.16081932667754, -38.732630180007874 ] ] ], [ [ [ -62.16202994814897, -38.732280139680327 ], [ -62.162266906197374, -38.732741803674436 ], [ -62.162948739397955, -38.732518431042166 ], [ -62.162746068444882, -38.732116756173049 ], [ -62.16202994814897, -38.732280139680327 ] ] ], [ [ [ -62.163168704453263, -38.731897856090733 ], [ -62.163308978352298, -38.732185175420234 ], [ -62.163751622844359, -38.732051255628647 ], [ -62.163611355692957, -38.731763979860844 ], [ -62.163168704453263, -38.731897856090733 ] ] ] ] } },
{ "type": "Feature", "properties": { "Id": 0, "Tipo": "Hangar Club de Planeadores", "IATA": "NQN", "Etiqueta": "NQN - Hangar Club de Planeadores", "CIU": null, "Metros2": 291.94204094100002 }, "geometry": { "type": "MultiPolygon", "coordinates": [ [ [ [ -68.148405633072102, -38.952603043205094 ], [ -68.148617902294419, -38.952593547974196 ], [ -68.148600763331032, -38.952449852049661 ], [ -68.148388450482472, -38.952463028237943 ], [ -68.148405633072102, -38.952603043205094 ] ] ] ] } },
{ "type": "Feature", "properties": { "Id": 0, "Tipo": "Hangar Club de Paracaidismo y rescate", "IATA": "NQN", "Etiqueta": "NQN - Hangar Club de Paracaidismo y rescate", "CIU": null, "Metros2": 532.733239121 }, "geometry": { "type": "MultiPolygon", "coordinates": [ [ [ [ -68.147917520556788, -38.952419096606206 ], [ -68.147733536656062, -38.95242879712216 ], [ -68.147767590700482, -38.952734594096299 ], [ -68.147946949377555, -38.952717497153444 ], [ -68.147917520556788, -38.952419096606206 ] ] ] ] } },
{ "type": "Feature", "properties": { "Id": 0, "Tipo": "Hangares", "IATA": "NQN", "Etiqueta": "NQN - Hangares", "CIU": null, "Metros2": 2503.9912931899999 }, "geometry": { "type": "MultiPolygon", "coordinates": [ [ [ [ -68.145461744273689, -38.953263862234365 ], [ -68.145627417820037, -38.95326373047871 ], [ -68.145729781123052, -38.953252800659946 ], [ -68.145730078552219, -38.953353147145911 ], [ -68.146018083469102, -38.953352917294659 ], [ -68.146018679159837, -38.953553618718857 ], [ -68.146248782264408, -38.95355343457382 ], [ -68.146248355259829, -38.953409723584372 ], [ -68.14636387312008, -38.953409630965218 ], [ -68.146363582861042, -38.953311996539149 ], [ -68.146692629201979, -38.953311732087137 ], [ -68.146692919912638, -38.953409366517469 ], [ -68.14675044557714, -38.95340932019009 ], [ -68.146862045367683, -38.95340923023403 ], [ -68.146861754424862, -38.953311595801573 ], [ -68.146971189409101, -38.953311507485388 ], [ -68.146970768828155, -38.953170442940092 ], [ -68.146247646012029, -38.953171024628126 ], [ -68.14624823696083, -38.953369909569986 ], [ -68.146075660076946, -38.953370047725542 ], [ -68.146075069610589, -38.953171162788188 ], [ -68.145461471306461, -38.953171651951912 ], [ -68.145461744273689, -38.953263862234365 ] ] ] ] } },
{ "type": "Feature", "properties": { "Id": 0, "Tipo": "Hangar Aeroclub de Neuquén", "IATA": "NQN", "Etiqueta": "NQN - Hangar Aeroclub de Neuquén", "CIU": null, "Metros2": 566.32791833500005 }, "geometry": { "type": "MultiPolygon", "coordinates": [ [ [ [ -68.148100198785315, -38.95291225250886 ], [ -68.147831314341119, -38.952925014724649 ], [ -68.147838432608097, -38.953141652917317 ], [ -68.148102224744207, -38.953136826877881 ], [ -68.148100198785315, -38.95291225250886 ] ] ] ] } },
{ "type": "Feature", "properties": { "Id": 0, "Tipo": "Hangares", "IATA": "NQN", "Etiqueta": "NQN - Hangares", "CIU": null, "Metros2": 1957.38242034 }, "geometry": { "type": "MultiPolygon", "coordinates": [ [ [ [ -68.146903672020755, -38.952677745964941 ], [ -68.146908558852459, -38.953127044665109 ], [ -68.147276056938594, -38.953127381187137 ], [ -68.147274847993586, -38.952680568398939 ], [ -68.146903672020755, -38.952677745964941 ] ] ], [ [ [ -68.145430345628469, -38.95259935570737 ], [ -68.145453912726623, -38.952744809596048 ], [ -68.145709253727631, -38.952719525186794 ], [ -68.145685686114007, -38.952574071343356 ], [ -68.145430345628469, -38.95259935570737 ] ] ] ] } },
{ "type": "Feature", "properties": { "Id": 0, "Tipo": "Hangar Dirección de Asuntos Antárticos", "IATA": "RGL", "Etiqueta": "RGL - Hangar Dirección de Asuntos Antárticos", "CIU": null, "Metros2": 581.83826107300001 }, "geometry": { "type": "MultiPolygon", "coordinates": [ [ [ [ -69.301208550848585, -51.610953173445438 ], [ -69.300815377570686, -51.610949081955347 ], [ -69.300816692086997, -51.611147960331373 ], [ -69.301201609142097, -51.611141873936262 ], [ -69.301208550848585, -51.610953173445438 ] ] ] ] } },
{ "type": "Feature", "properties": { "Id": 0, "Tipo": "Hangar Fuerza Aérea", "IATA": "RGL", "Etiqueta": "RGL - Hangar Fuerza Aérea", "CIU": null, "Metros2": 1414.29658303 }, "geometry": { "type": "MultiPolygon", "coordinates": [ [ [ [ -69.295694582112958, -51.610686716010704 ], [ -69.295154084230234, -51.610698275114615 ], [ -69.295164457346544, -51.611034818112913 ], [ -69.29568867776743, -51.611038598555986 ], [ -69.295694582112958, -51.610686716010704 ] ] ] ] } },
{ "type": "Feature", "properties": { "Id": 0, "Tipo": "Hangar 12", "IATA": "ROS", "Etiqueta": "ROS - Hangar 12", "CIU": null, "Metros2": 1521.1944576200001 }, "geometry": { "type": "MultiPolygon", "coordinates": [ [ [ [ -60.782700341642688, -32.919558219016174 ], [ -60.782240661786368, -32.919624475496974 ], [ -60.78229973574544, -32.919933077475584 ], [ -60.782759417143907, -32.919866820757441 ], [ -60.782700341642688, -32.919558219016174 ] ] ] ] } },
{ "type": "Feature", "properties": { "Id": 0, "Tipo": "Hangar Provincia Jujuy", "IATA": "JUJ", "Etiqueta": "JUJ - Hangar Provincia Jujuy", "CIU": null, "Metros2": 1454.53587253 }, "geometry": { "type": "MultiPolygon", "coordinates": [ [ [ [ -65.094966783915709, -24.38496263423923 ], [ -65.094701327991743, -24.384823260988412 ], [ -65.094473964538054, -24.385186558623616 ], [ -65.094737786896872, -24.385331882424339 ], [ -65.094966783915709, -24.38496263423923 ] ] ] ] } },
{ "type": "Feature", "properties": { "Id": 0, "Tipo": "Hangar", "IATA": "RGA", "Etiqueta": "RGA - Hangar", "CIU": null, "Metros2": 644.30635546400003 }, "geometry": { "type": "MultiPolygon", "coordinates": [ [ [ [ -67.750290245326838, -53.781381205408088 ], [ -67.749843140068734, -53.781366417348671 ], [ -67.749824683674305, -53.781562140400304 ], [ -67.750271791033313, -53.78157692845727 ], [ -67.750290245326838, -53.781381205408088 ] ] ] ] } },
{ "type": "Feature", "properties": { "Id": 0, "Tipo": "Hangar", "IATA": "JNI", "Etiqueta": "JNI - Hangar", "CIU": null, "Metros2": 591.29013514799999 }, "geometry": { "type": "MultiPolygon", "coordinates": [ [ [ [ -60.932186583354977, -34.551829124669766 ], [ -60.932304990431192, -34.551926938099641 ], [ -60.932466834609841, -34.551810338409865 ], [ -60.932344350716235, -34.551710223412677 ], [ -60.932186583354977, -34.551829124669766 ] ] ], [ [ [ -60.933940004517972, -34.550145150427852 ], [ -60.934071667230455, -34.550256947426789 ], [ -60.934199093415295, -34.550152957646958 ], [ -60.934063062957414, -34.550042376027612 ], [ -60.933940004517972, -34.550145150427852 ] ] ] ] } },
{ "type": "Feature", "properties": { "Id": 0, "Tipo": "Hangar militar", "IATA": "RCQ", "Etiqueta": "RCQ - Hangar militar", "CIU": null, "Metros2": 7992.8400594699997 }, "geometry": { "type": "MultiPolygon", "coordinates": [ [ [ [ -59.693972348637317, -29.201287424042107 ], [ -59.692743848785938, -29.20142005483973 ], [ -59.692830850484143, -29.202003347160939 ], [ -59.694069200293256, -29.201875936761098 ], [ -59.693972348637317, -29.201287424042107 ] ] ] ] } },
{ "type": "Feature", "properties": { "Id": 0, "Tipo": "Hangar", "IATA": "RCQ", "Etiqueta": "RCQ - Hangar", "CIU": null, "Metros2": 289.180940405 }, "geometry": { "type": "MultiPolygon", "coordinates": [ [ [ [ -59.694355854829155, -29.205542208801546 ], [ -59.694520400976728, -29.205525217812237 ], [ -59.694499089743431, -29.205366345817652 ], [ -59.694333603525763, -29.205383433879717 ], [ -59.694355854829155, -29.205542208801546 ] ] ] ] } },
{ "type": "Feature", "properties": { "Id": 0, "Tipo": "Hangar Fuerza Aérea", "IATA": "MDQ", "Etiqueta": "MDQ - Hangar Fuerza Aérea", "CIU": null, "Metros2": 3555.6651925699998 }, "geometry": { "type": "MultiPolygon", "coordinates": [ [ [ [ -57.582055887945245, -37.934726529382132 ], [ -57.582489741475321, -37.934545361363988 ], [ -57.582082080628069, -37.933891438639698 ], [ -57.581643878560882, -37.934063794607248 ], [ -57.582055887945245, -37.934726529382132 ] ] ] ] } },
{ "type": "Feature", "properties": { "Id": 0, "Tipo": "Hangares", "IATA": "CPC", "Etiqueta": "CPC - Hangares", "CIU": null, "Metros2": 975.03027020399998 }, "geometry": { "type": "MultiPolygon", "coordinates": [ [ [ [ -71.141238876712464, -40.081516065656103 ], [ -71.141522692140413, -40.081602707925526 ], [ -71.141616816848753, -40.081420778891022 ], [ -71.141320297693198, -40.081329439344962 ], [ -71.141238876712464, -40.081516065656103 ] ] ], [ [ [ -71.140912212321595, -40.081387614639269 ], [ -71.141138545479564, -40.081456709843344 ], [ -71.141219835740699, -40.08129958956917 ], [ -71.140993503015267, -40.081230494526693 ], [ -71.140912212321595, -40.081387614639269 ] ] ] ] } },
{ "type": "Feature", "properties": { "Id": 0, "Tipo": "Hangar Aeroclub", "IATA": "CPC", "Etiqueta": "CPC - Hangar Aeroclub", "CIU": null, "Metros2": 459.36623479500003 }, "geometry": { "type": "MultiPolygon", "coordinates": [ [ [ [ -71.146464497094442, -40.081705870698634 ], [ -71.146544970891057, -40.081565041535896 ], [ -71.146259435570414, -40.081457965790591 ], [ -71.146184808765426, -40.081600435464054 ], [ -71.146464497094442, -40.081705870698634 ] ] ] ] } },
{ "type": "Feature", "properties": { "Id": 0, "Tipo": "Hangar", "IATA": "VLG", "Etiqueta": "VLG - Hangar", "CIU": null, "Metros2": 621.03320177399996 }, "geometry": { "type": "MultiPolygon", "coordinates": [ [ [ [ -57.019199142310136, -37.234502994928818 ], [ -57.018977416909692, -37.234491365425946 ], [ -57.018950392305534, -37.234800832689054 ], [ -57.019089620406518, -37.234806153913183 ], [ -57.019102072431451, -37.234729888303256 ], [ -57.019174670771683, -37.234735439724197 ], [ -57.019199142310136, -37.234502994928818 ] ] ] ] } },
{ "type": "Feature", "properties": { "Id": 0, "Tipo": "Hangar", "IATA": "COC", "Etiqueta": "COC - Hangar", "CIU": null, "Metros2": 605.92655239600003 }, "geometry": { "type": "MultiPolygon", "coordinates": [ [ [ [ -58.001891606422248, -31.301698012673455 ], [ -58.002194820926775, -31.301636855693005 ], [ -58.00214643998703, -31.301459997700931 ], [ -58.001843226031099, -31.301521154591171 ], [ -58.001891606422248, -31.301698012673455 ] ] ] ] } },
{ "type": "Feature", "properties": { "Id": 0, "Tipo": "Hangar provincial", "IATA": "CNQ", "Etiqueta": "CNQ - Hangar provincial", "CIU": null, "Metros2": 1752.31347794 }, "geometry": { "type": "MultiPolygon", "coordinates": [ [ [ [ -58.757475162384047, -27.443274745653021 ], [ -58.757832628316436, -27.443211911875689 ], [ -58.757746700893215, -27.442770471390403 ], [ -58.757426129354137, -27.442803582148255 ], [ -58.757475162384047, -27.443274745653021 ] ] ] ] } },
{ "type": "Feature", "properties": { "Id": 0, "Tipo": "Hangares", "IATA": "CNQ", "Etiqueta": "CNQ - Hangares", "CIU": null, "Metros2": 2406.0075734400002 }, "geometry": { "type": "MultiPolygon", "coordinates": [ [ [ [ -58.757704339239403, -27.444783789620523 ], [ -58.757746468685291, -27.445178744513466 ], [ -58.757993759889686, -27.445152180986767 ], [ -58.757929559441997, -27.444765030431707 ], [ -58.757704339239403, -27.444783789620523 ] ] ], [ [ [ -58.757644910809141, -27.443621698931398 ], [ -58.757671205570915, -27.443801240481939 ], [ -58.757872441533152, -27.443777780274281 ], [ -58.757835925328557, -27.443587527054905 ], [ -58.757644910809141, -27.443621698931398 ] ] ], [ [ [ -58.757438145428104, -27.442227034033305 ], [ -58.7574803508789, -27.442615067332351 ], [ -58.757705721750987, -27.442582464848016 ], [ -58.757647999491937, -27.442194293234341 ], [ -58.757438145428104, -27.442227034033305 ] ] ] ] } },
{ "type": "Feature", "properties": { "Id": 0, "Tipo": "Hangares", "IATA": "LPG", "Etiqueta": "LPG - Hangares", "CIU": null, "Metros2": 2714.2911522099998 }, "geometry": { "type": "MultiPolygon", "coordinates": [ [ [ [ -57.886428559266214, -34.963216418928923 ], [ -57.886543416578689, -34.963311406668623 ], [ -57.886800234721036, -34.963122748488857 ], [ -57.886689903396274, -34.96302068685231 ], [ -57.886428559266214, -34.963216418928923 ] ] ], [ [ [ -57.886159575709748, -34.963076574074947 ], [ -57.886300611359516, -34.963184592822707 ], [ -57.886387614853469, -34.963119141538897 ], [ -57.886246174937291, -34.963012480810704 ], [ -57.886159575709748, -34.963076574074947 ] ] ], [ [ [ -57.886987454350908, -34.962768360977968 ], [ -57.88712501463538, -34.962888415321707 ], [ -57.887269433877911, -34.962783998166344 ], [ -57.887133415325074, -34.962667184015665 ], [ -57.886987454350908, -34.962768360977968 ] ] ], [ [ [ -57.887838537306493, -34.96210722001981 ], [ -57.887718815872155, -34.962201701508846 ], [ -57.887671967759523, -34.962165121701965 ], [ -57.887503470466555, -34.962298095366101 ], [ -57.887699088985734, -34.962462440204447 ], [ -57.887991558384421, -34.962238635054582 ], [ -57.887838537306493, -34.96210722001981 ] ] ], [ [ [ -57.887900691674922, -34.96184955232382 ], [ -57.888118558233757, -34.962029833018072 ], [ -57.888362066523349, -34.961851669208166 ], [ -57.888143345987913, -34.961669950907186 ], [ -57.887900691674922, -34.96184955232382 ] ] ] ] } },
{ "type": "Feature", "properties": { "Id": 0, "Tipo": "Hangares provinciales", "IATA": "FMA", "Etiqueta": "FMA - Hangares provinciales", "CIU": null, "Metros2": 1633.60535402 }, "geometry": { "type": "MultiPolygon", "coordinates": [ [ [ [ -58.233520254260831, -26.218869417064933 ], [ -58.233668093515526, -26.219153061528694 ], [ -58.23385237708117, -26.219073849866707 ], [ -58.23370289672053, -26.21879091081999 ], [ -58.233520254260831, -26.218869417064933 ] ] ], [ [ [ -58.233284789328621, -26.218417833438536 ], [ -58.233412771880161, -26.218663011285624 ], [ -58.233685416617035, -26.218549292629515 ], [ -58.233556955111581, -26.218302642851675 ], [ -58.233284789328621, -26.218417833438536 ] ] ] ] } },
{ "type": "Feature", "properties": { "Id": 0, "Tipo": "Hangares", "IATA": "GNR", "Etiqueta": "GNR - Hangares", "CIU": null, "Metros2": 942.12778029200001 }, "geometry": { "type": "MultiPolygon", "coordinates": [ [ [ [ -67.610534939120186, -39.003640230725338 ], [ -67.611091417221417, -39.003614434624431 ], [ -67.6110820792493, -39.003525914496535 ], [ -67.610992993181995, -39.003530004599135 ], [ -67.61098695159383, -39.003425234257037 ], [ -67.610522025032878, -39.003447859351375 ], [ -67.610534939120186, -39.003640230725338 ] ] ] ] } },
{ "type": "Feature", "properties": { "Id": 0, "Tipo": "Hangares", "IATA": "IRJ", "Etiqueta": "IRJ - Hangares", "CIU": null, "Metros2": 1897.8185696200001 }, "geometry": { "type": "MultiPolygon", "coordinates": [ [ [ [ -66.795942101177317, -29.386487130018764 ], [ -66.796092221317949, -29.386727269506579 ], [ -66.796278853922189, -29.386638729398651 ], [ -66.796133666705131, -29.386397240023758 ], [ -66.795942101177317, -29.386487130018764 ] ] ], [ [ [ -66.795226378723981, -29.385412993984371 ], [ -66.795401746482071, -29.38569507020344 ], [ -66.795627874354196, -29.385594299341218 ], [ -66.795452598706518, -29.385307929925414 ], [ -66.795226378723981, -29.385412993984371 ] ] ], [ [ [ -66.795111414399329, -29.385058902009675 ], [ -66.795220278463376, -29.385241093119571 ], [ -66.795375336030048, -29.385176370112973 ], [ -66.795263234390035, -29.384992693891096 ], [ -66.795111414399329, -29.385058902009675 ] ] ] ] } },
{ "type": "Feature", "properties": { "Id": 0, "Tipo": "Hangares provinciales", "IATA": "SDE", "Etiqueta": "SDE - Hangares provinciales", "CIU": null, "Metros2": 3145.8246682700001 }, "geometry": { "type": "MultiPolygon", "coordinates": [ [ [ [ -64.297651517799252, -27.757474396470773 ], [ -64.297447362933497, -27.757351564423491 ], [ -64.297307953404172, -27.757543286534791 ], [ -64.297214268123184, -27.757488065528772 ], [ -64.297067005100232, -27.757685157845629 ], [ -64.296852558591425, -27.757558998098315 ], [ -64.296696017560791, -27.757752704067869 ], [ -64.297189361618678, -27.758067311520215 ], [ -64.297651517799252, -27.757474396470773 ] ] ] ] } },
{ "type": "Feature", "properties": { "Id": 0, "Tipo": "Hangar aeroclub", "IATA": "SDE", "Etiqueta": "SDE - Hangar aeroclub", "CIU": null, "Metros2": 517.61581937599999 }, "geometry": { "type": "MultiPolygon", "coordinates": [ [ [ [ -64.297990879651806, -27.760461869186926 ], [ -64.298178261510088, -27.760228037878122 ], [ -64.298043701722875, -27.760137390149456 ], [ -64.297862920927628, -27.760372426047343 ], [ -64.297990879651806, -27.760461869186926 ] ] ] ] } },
{ "type": "Feature", "properties": { "Id": 0, "Tipo": "Hangar provincial", "IATA": "CTC", "Etiqueta": "CTC - Hangar provincial", "CIU": null, "Metros2": 1309.4458412900001 }, "geometry": { "type": "MultiPolygon", "coordinates": [ [ [ [ -65.755689276755689, -28.594718583245239 ], [ -65.755377787217967, -28.594784159990024 ], [ -65.75545156105585, -28.59514483208633 ], [ -65.755775346233222, -28.595087452434644 ], [ -65.755775346233222, -28.595087452434644 ], [ -65.755689276755689, -28.594718583245239 ] ] ] ] } },
{ "type": "Feature", "properties": { "Id": 0, "Tipo": "Hangar", "IATA": "CTC", "Etiqueta": "CTC - Hangar", "CIU": null, "Metros2": 623.84577988800004 }, "geometry": { "type": "MultiPolygon", "coordinates": [ [ [ [ -65.756037653212346, -28.596124384711533 ], [ -65.755816331698711, -28.596153074537376 ], [ -65.755869612803849, -28.59641128296996 ], [ -65.756095032864039, -28.596362100411373 ], [ -65.756095032864039, -28.596362100411373 ], [ -65.756037653212346, -28.596124384711533 ] ] ] ] } },
{ "type": "Feature", "properties": { "Id": 0, "Tipo": "Hangar", "IATA": "CTC", "Etiqueta": "CTC - Hangar", "CIU": null, "Metros2": 464.88707374099999 }, "geometry": { "type": "MultiPolygon", "coordinates": [ [ [ [ -65.754103139241252, -28.589124067205905 ], [ -65.753914606099997, -28.589156855578299 ], [ -65.753943295925836, -28.589374078545394 ], [ -65.754131829067092, -28.589353585812649 ], [ -65.754103139241252, -28.589124067205905 ] ] ] ] } },
{ "type": "Feature", "properties": { "Id": 0, "Tipo": "Hangar club paracaidistas", "IATA": "LUQ", "Etiqueta": "LUQ - Hangar club paracaidistas", "CIU": null, "Metros2": 346.30789826099999 }, "geometry": { "type": "MultiPolygon", "coordinates": [ [ [ [ -66.347516177996155, -33.276135019861627 ], [ -66.347553438516471, -33.276220796159699 ], [ -66.34769526934501, -33.276177459336935 ], [ -66.347643281426386, -33.276085916193139 ], [ -66.347516177996155, -33.276135019861627 ] ] ], [ [ [ -66.34771912218055, -33.276068093558415 ], [ -66.347763306855214, -33.276146256642178 ], [ -66.347967532657179, -33.276081274837729 ], [ -66.34793028125614, -33.275997884206006 ], [ -66.34771912218055, -33.276068093558415 ] ] ] ] } },
{ "type": "Feature", "properties": { "Id": 0, "Tipo": "Hangar", "IATA": "LUQ", "Etiqueta": "LUQ - Hangar", "CIU": null, "Metros2": 627.93821626600004 }, "geometry": { "type": "MultiPolygon", "coordinates": [ [ [ [ -66.348747512714311, -33.275821447853787 ], [ -66.34895839343956, -33.275742986863158 ], [ -66.348834281684276, -33.2755015382469 ], [ -66.348624406328625, -33.275573694022214 ], [ -66.348747512714311, -33.275821447853787 ] ] ] ] } },
{ "type": "Feature", "properties": { "Id": 0, "Tipo": "Hangar provincial", "IATA": "RSA", "Etiqueta": "RSA - Hangar provincial", "CIU": null, "Metros2": 796.07272640899998 }, "geometry": { "type": "MultiPolygon", "coordinates": [ [ [ [ -64.280728503152474, -36.588456798262598 ], [ -64.28033473658266, -36.588465222802817 ], [ -64.280339059769773, -36.588664541111363 ], [ -64.280734856780128, -36.588663199172203 ], [ -64.280728503152474, -36.588456798262598 ] ] ] ] } },
{ "type": "Feature", "properties": { "Id": 0, "Tipo": "Hangar aeroclub pampeano", "IATA": "RSA", "Etiqueta": "RSA - Hangar aeroclub pampeano", "CIU": null, "Metros2": 319.35423736799999 }, "geometry": { "type": "MultiPolygon", "coordinates": [ [ [ [ -64.280652455351088, -36.588724915990014 ], [ -64.280428942503107, -36.588726758216332 ], [ -64.280430764364041, -36.588870527800182 ], [ -64.28065427762705, -36.588868685581382 ], [ -64.280652455351088, -36.588724915990014 ] ] ] ] } },
{ "type": "Feature", "properties": { "Id": 0, "Tipo": "Hangar aeroclub", "IATA": "NEC", "Etiqueta": "NEC - Hangar aeroclub", "CIU": null, "Metros2": 1013.8159576100001 }, "geometry": { "type": "MultiPolygon", "coordinates": [ [ [ [ -58.811837330029356, -38.484205685588648 ], [ -58.812001868868194, -38.484341417307114 ], [ -58.812183933943111, -38.484210738571946 ], [ -58.812006319086116, -38.484070358100709 ], [ -58.811837330029356, -38.484205685588648 ] ] ], [ [ [ -58.812075215180442, -38.484029348568519 ], [ -58.812255356024473, -38.484165671547416 ], [ -58.812469677867568, -38.484012033837331 ], [ -58.812293760464748, -38.483876648278724 ], [ -58.812075215180442, -38.484029348568519 ] ] ] ] } },
{ "type": "Feature", "properties": { "Id": 0, "Tipo": "Hangar", "IATA": "AOL", "Etiqueta": "AOL - Hangar", "CIU": null, "Metros2": 400.11091149700002 }, "geometry": { "type": "MultiPolygon", "coordinates": [ [ [ [ -57.149340365521084, -29.688310786013378 ], [ -57.149493603735202, -29.688442801858905 ], [ -57.149634003014732, -29.688318817252604 ], [ -57.14948195806393, -29.688193044929484 ], [ -57.149340365521084, -29.688310786013378 ] ] ] ] } },
{ "type": "Feature", "properties": { "Id": 0, "Tipo": "Hangar escuela", "IATA": "RCU", "Etiqueta": "RCU - Hangar escuela", "CIU": null, "Metros2": 2083.4066825099999 }, "geometry": { "type": "MultiPolygon", "coordinates": [ [ [ [ -64.276228196189308, -33.090724445600031 ], [ -64.276501911937928, -33.090498807391462 ], [ -64.276052850190794, -33.090112795039097 ], [ -64.275794755626393, -33.090325555129873 ], [ -64.276228196189308, -33.090724445600031 ] ] ] ] } },
{ "type": "Feature", "properties": { "Id": 0, "Tipo": "Hangar militar", "IATA": "RCU", "Etiqueta": "RCU - Hangar militar", "CIU": null, "Metros2": 6021.63090827 }, "geometry": { "type": "MultiPolygon", "coordinates": [ [ [ [ -64.277198086839817, -33.091547670592476 ], [ -64.277780599135411, -33.091083148133293 ], [ -64.277181839467261, -33.0905684704789 ], [ -64.276592635479673, -33.091027237671568 ], [ -64.277198086839817, -33.091547670592476 ] ] ] ] } },
{ "type": "Feature", "properties": { "Id": 0, "Tipo": "Hangar militar", "IATA": "RCU", "Etiqueta": "RCU - Hangar militar", "CIU": null, "Metros2": 5982.36617303 }, "geometry": { "type": "MultiPolygon", "coordinates": [ [ [ [ -64.277579250825468, -33.09187784586431 ], [ -64.278183840021057, -33.092389185168578 ], [ -64.278753598474282, -33.091919493583468 ], [ -64.278154827470388, -33.091404820301086 ], [ -64.277579250825468, -33.09187784586431 ] ] ] ] } },
{ "type": "Feature", "properties": { "Id": 0, "Tipo": "Hangar militar", "IATA": "RCU", "Etiqueta": "RCU - Hangar militar", "CIU": null, "Metros2": 2115.8014056699999 }, "geometry": { "type": "MultiPolygon", "coordinates": [ [ [ [ -64.277609593510064, -33.093230782984989 ], [ -64.277607694693728, -33.093846109700536 ], [ -64.277940720923922, -33.093829132963442 ], [ -64.277952299799367, -33.093235387764217 ], [ -64.277609593510064, -33.093230782984989 ] ] ] ] } },
{ "type": "Feature", "properties": { "Id": 0, "Tipo": "Hangar Aeroclub", "IATA": "AFA", "Etiqueta": "AFA - Hangar Aeroclub", "CIU": null, "Metros2": 404.10419821300002 }, "geometry": { "type": "MultiPolygon", "coordinates": [ [ [ [ -68.404710454637268, -34.590328820830457 ], [ -68.404911668558427, -34.590257297964918 ], [ -68.404824516500426, -34.590089680975829 ], [ -68.404623842816946, -34.59016539048676 ], [ -68.404710454637268, -34.590328820830457 ] ] ] ] } },
{ "type": "Feature", "properties": { "Id": 0, "Tipo": "Hangar Aeroclub", "IATA": "AFA", "Etiqueta": "AFA - Hangar Aeroclub", "CIU": null, "Metros2": 860.599049294 }, "geometry": { "type": "MultiPolygon", "coordinates": [ [ [ [ -68.403584244514704, -34.590799072431452 ], [ -68.403883884245687, -34.590700664065665 ], [ -68.403764761984391, -34.59045583626439 ], [ -68.403468720822261, -34.590554350556957 ], [ -68.403584244514704, -34.590799072431452 ] ] ] ] } },
{ "type": "Feature", "properties": { "Id": 0, "Tipo": "Hangar Aeroclub Vespucio", "IATA": "TTG", "Etiqueta": "TTG - Hangar Aeroclub Vespucio", "CIU": null, "Metros2": 389.36569809399998 }, "geometry": { "type": "MultiPolygon", "coordinates": [ [ [ [ -63.795522539550596, -22.615520630380917 ], [ -63.795689952659927, -22.615506215353061 ], [ -63.795659796748488, -22.615300435607061 ], [ -63.795497488790993, -22.615317308751685 ], [ -63.795522539550596, -22.615520630380917 ] ] ] ] } },
{ "type": "Feature", "properties": { "Id": 0, "Tipo": "Hangar", "IATA": "TTG", "Etiqueta": "TTG - Hangar", "CIU": null, "Metros2": 1362.0273935600001 }, "geometry": { "type": "MultiPolygon", "coordinates": [ [ [ [ -63.7954786679555, -22.615207203522793 ], [ -63.79580067404445, -22.615175809193385 ], [ -63.795767810891341, -22.614817162225744 ], [ -63.795426424421251, -22.614854260108224 ], [ -63.7954786679555, -22.615207203522793 ] ] ] ] } },
{ "type": "Feature", "properties": { "Id": 0, "Tipo": "Hangar", "IATA": "TTG", "Etiqueta": "TTG - Hangar", "CIU": null, "Metros2": 429.05831778800001 }, "geometry": { "type": "MultiPolygon", "coordinates": [ [ [ [ -63.794742894751963, -22.614411448163001 ], [ -63.794541977765718, -22.614430177574054 ], [ -63.794559617302497, -22.614614293628616 ], [ -63.794765715572467, -22.614593247476392 ], [ -63.794742894751963, -22.614411448163001 ] ] ] ] } },
{ "type": "Feature", "properties": { "Id": 0, "Tipo": "Hangar militar", "IATA": "VME", "Etiqueta": "VME - Hangar militar", "CIU": null, "Metros2": 5993.0366791099996 }, "geometry": { "type": "MultiPolygon", "coordinates": [ [ [ [ -65.376353708462958, -33.720186852670416 ], [ -65.377092806813323, -33.720543381479011 ], [ -65.377506013597113, -33.719969349550034 ], [ -65.37676488854099, -33.719593634376849 ], [ -65.376353708462958, -33.720186852670416 ] ] ] ] } },
{ "type": "Feature", "properties": { "Id": 0, "Tipo": "Hangares Base Aérea", "IATA": "TDL", "Etiqueta": "TDL - Hangares Base Aérea", "CIU": null, "Metros2": 12571.9069151 }, "geometry": { "type": "MultiPolygon", "coordinates": [ [ [ [ -59.235618532807159, -37.2401682858223 ], [ -59.236309633383279, -37.240666672419628 ], [ -59.236899587166228, -37.240138772135154 ], [ -59.236244695634255, -37.239662265889542 ], [ -59.235618532807159, -37.2401682858223 ] ] ], [ [ [ -59.236955502206683, -37.239302476572561 ], [ -59.237193582658215, -37.239838455128819 ], [ -59.237578747094972, -37.239740603395816 ], [ -59.237349988335005, -37.239212045758492 ], [ -59.236955502206683, -37.239302476572561 ] ] ], [ [ [ -59.239302152241962, -37.236621380747437 ], [ -59.239849868853156, -37.237006322496775 ], [ -59.24031539028686, -37.236626392264171 ], [ -59.239785993534298, -37.236233232088331 ], [ -59.239302152241962, -37.236621380747437 ] ] ] ] } },
{ "type": "Feature", "properties": { "Id": 0, "Tipo": "Hangares", "IATA": "SST", "Etiqueta": "SST - Hangares", "CIU": null, "Metros2": 911.35020683400001 }, "geometry": { "type": "MultiPolygon", "coordinates": [ [ [ [ -56.719466934394688, -36.541991537834804 ], [ -56.719689930357134, -36.542023196038905 ], [ -56.719731337185756, -36.541833281133229 ], [ -56.719508341741005, -36.541801623032491 ], [ -56.719466934394688, -36.541991537834804 ] ] ], [ [ [ -56.719527063263271, -36.541559703654208 ], [ -56.719767695757469, -36.54159386565356 ], [ -56.71980856554628, -36.541406411602246 ], [ -56.719567933603457, -36.541372249712929 ], [ -56.719527063263271, -36.541559703654208 ] ] ] ] } },
{ "type": "Feature", "properties": { "Id": 0, "Tipo": "Hangar", "IATA": "SST", "Etiqueta": "SST - Hangar", "CIU": null, "Metros2": 417.163130604 }, "geometry": { "type": "MultiPolygon", "coordinates": [ [ [ [ -56.720148947081114, -36.539657393630421 ], [ -56.719965916732995, -36.539631409503869 ], [ -56.719918232481199, -36.539850127831457 ], [ -56.720101263318661, -36.539876112055687 ], [ -56.720148947081114, -36.539657393630421 ] ] ] ] } },
{ "type": "Feature", "properties": { "Id": 0, "Tipo": "Hangar", "IATA": "NQN", "Etiqueta": "NQN - Hangar", "CIU": null, "Metros2": 741.00984402300003 }, "geometry": { "type": "MultiPolygon", "coordinates": [ [ [ [ -68.142557934266193, -38.952653715076892 ], [ -68.142766591566698, -38.95248903654177 ], [ -68.142536184741004, -38.952311571681172 ], [ -68.142316089915326, -38.952476459843652 ], [ -68.142557934266193, -38.952653715076892 ] ] ] ] } },
{ "type": "Feature", "properties": { "Id": 0, "Tipo": "Hangar División Aérea Policia Federal", "IATA": "LPG", "Etiqueta": "LPG - Hangar División Aérea Policia Federal", "CIU": null, "Metros2": 7858.1936396000001 }, "geometry": { "type": "MultiPolygon", "coordinates": [ [ [ [ -57.894256930128428, -34.961954031617708 ], [ -57.894563316027231, -34.961746454913737 ], [ -57.893667665884983, -34.960909092289924 ], [ -57.893050682329928, -34.961366737735396 ], [ -57.893325730466749, -34.961606254255855 ], [ -57.893467161672113, -34.961708449640319 ], [ -57.894256930128428, -34.961954031617708 ] ] ] ] } },
{ "type": "Feature", "properties": { "Id": 0, "Tipo": "Hangares Provincia de Buenos Aires", "IATA": "LPG", "Etiqueta": "LPG - Hangares Provincia de Buenos Aires", "CIU": null, "Metros2": 2843.8927083600001 }, "geometry": { "type": "MultiPolygon", "coordinates": [ [ [ [ -57.894044988258102, -34.96103426796747 ], [ -57.894488758791375, -34.960707580791201 ], [ -57.894405543814393, -34.960630773346466 ], [ -57.894724991846765, -34.960377643113588 ], [ -57.894566265168748, -34.960231506645421 ], [ -57.893786092724717, -34.960806533663273 ], [ -57.894044988258102, -34.96103426796747 ] ] ] ] } },
{ "type": "Feature", "properties": { "Id": 0, "Tipo": "Hangar", "IATA": "COC", "Etiqueta": "COC - Hangar", "CIU": null, "Metros2": 400.46149443299998 }, "geometry": { "type": "MultiPolygon", "coordinates": [ [ [ [ -58.001931422949504, -31.300899463524285 ], [ -58.001724658618436, -31.300943351834803 ], [ -58.001772020950227, -31.301113079737224 ], [ -58.001983496549656, -31.301065696735833 ], [ -58.001931422949504, -31.300899463524285 ] ] ] ] } },
{ "type": "Feature", "properties": { "Id": 0, "Tipo": "Hangar", "IATA": "EPA", "Etiqueta": "EPA - Hangar", "CIU": null, "Metros2": 4430.3912618699997 }, "geometry": { "type": "MultiPolygon", "coordinates": [ [ [ [ -58.60125507330531, -34.609815401131527 ], [ -58.601706219112089, -34.609666922764688 ], [ -58.601292192897063, -34.608827448921886 ], [ -58.600861034562797, -34.608967361228963 ], [ -58.60125507330531, -34.609815401131527 ] ] ] ] } },
{ "type": "Feature", "properties": { "Id": 0, "Tipo": "Hangares", "IATA": "AEP", "Etiqueta": "AEP - Hangares", "CIU": null, "Metros2": 1010.73295693 }, "geometry": { "type": "MultiPolygon", "coordinates": [ [ [ [ -58.408293414591526, -34.566378830665599 ], [ -58.408091053799751, -34.566132698400338 ], [ -58.407820693412873, -34.566288117065312 ], [ -58.408019188954484, -34.56653394798343 ], [ -58.408293414591526, -34.566378830665599 ] ] ] ] } },
{ "type": "Feature", "properties": { "Id": 0, "Tipo": "Hangares", "IATA": "AEP", "Etiqueta": "AEP - Hangares", "CIU": null, "Metros2": 713.39522768999996 }, "geometry": { "type": "MultiPolygon", "coordinates": [ [ [ [ -58.408483067241264, -34.566271552547278 ], [ -58.408283505283748, -34.56602206624359 ], [ -58.408091053799751, -34.566132698400338 ], [ -58.408293414591526, -34.566378830665599 ], [ -58.408483067241264, -34.566271552547278 ] ] ] ] } },
{ "type": "Feature", "properties": { "Id": 0, "Tipo": "Hangares", "IATA": "AEP", "Etiqueta": "AEP - Hangares", "CIU": null, "Metros2": 789.13085422899997 }, "geometry": { "type": "MultiPolygon", "coordinates": [ [ [ [ -58.408693410290596, -34.566149963138344 ], [ -58.408492930132525, -34.565901676822762 ], [ -58.408283505283748, -34.56602206624359 ], [ -58.408483067241264, -34.566271552547278 ], [ -58.408600590191668, -34.566205075010657 ], [ -58.408693410290596, -34.566149963138344 ] ] ] ] } },
{ "type": "Feature", "properties": { "Id": 0, "Tipo": "Hangares", "IATA": "AEP", "Etiqueta": "AEP - Hangares", "CIU": null, "Metros2": 1102.14617911 }, "geometry": { "type": "MultiPolygon", "coordinates": [ [ [ [ -58.408987158684738, -34.565975550223925 ], [ -58.408789150817483, -34.565731392174484 ], [ -58.408492930132525, -34.565901676822762 ], [ -58.408693410290596, -34.566149963138344 ], [ -58.408987158684738, -34.565975550223925 ] ] ] ] } },
{ "type": "Feature", "properties": { "Id": 0, "Tipo": "Hangares", "IATA": "AEP", "Etiqueta": "AEP - Hangares", "CIU": null, "Metros2": 783.42812172200001 }, "geometry": { "type": "MultiPolygon", "coordinates": [ [ [ [ -58.409218926114249, -34.565879903034727 ], [ -58.40900171753691, -34.565612058553199 ], [ -58.408886126242464, -34.565675645135343 ], [ -58.408789150817483, -34.565731392174484 ], [ -58.408987158684738, -34.565975550223925 ], [ -58.409171661361938, -34.565866001881602 ], [ -58.409189507365113, -34.565895743667966 ], [ -58.409218926114249, -34.565879903034727 ] ] ] ] } },
{ "type": "Feature", "properties": { "Id": 0, "Tipo": "Hangares", "IATA": "AEP", "Etiqueta": "AEP - Hangares", "CIU": null, "Metros2": 664.23414152800001 }, "geometry": { "type": "MultiPolygon", "coordinates": [ [ [ [ -58.409403904789372, -34.565808074429015 ], [ -58.409333197054877, -34.565730108056187 ], [ -58.409164515734744, -34.565522503530531 ], [ -58.40900171753691, -34.565612058553199 ], [ -58.409218926114249, -34.565879903034727 ], [ -58.409344172105136, -34.565812463872021 ], [ -58.409379863180106, -34.565824360586589 ], [ -58.409403904789372, -34.565808074429015 ] ] ] ] } },
{ "type": "Feature", "properties": { "Id": 0, "Tipo": "Hangares", "IATA": "AEP", "Etiqueta": "AEP - Hangares", "CIU": null, "Metros2": 874.52663400100005 }, "geometry": { "type": "MultiPolygon", "coordinates": [ [ [ [ -58.409597472364851, -34.565680217906731 ], [ -58.409373844325728, -34.565407352214777 ], [ -58.409164515734744, -34.565522503530531 ], [ -58.409333197054877, -34.565730108056187 ], [ -58.409403904789372, -34.565808074429015 ], [ -58.409564271569138, -34.565699439495688 ], [ -58.409597472364851, -34.565680217906731 ] ] ] ] } },
{ "type": "Feature", "properties": { "Id": 0, "Tipo": "Hangares", "IATA": "AEP", "Etiqueta": "AEP - Hangares", "CIU": null, "Metros2": 1904.1085252099999 }, "geometry": { "type": "MultiPolygon", "coordinates": [ [ [ [ -58.410083691766204, -34.565454978404603 ], [ -58.409850558606479, -34.565145112468201 ], [ -58.409373844325728, -34.565407352214777 ], [ -58.409597472364851, -34.565680217906731 ], [ -58.410016369074526, -34.565437697805407 ], [ -58.410058010369539, -34.565467441454473 ], [ -58.410083691766204, -34.565454978404603 ] ] ] ] } },
{ "type": "Feature", "properties": { "Id": 0, "Tipo": "Hangares", "IATA": "AEP", "Etiqueta": "AEP - Hangares", "CIU": null, "Metros2": 1934.1034758799999 }, "geometry": { "type": "MultiPolygon", "coordinates": [ [ [ [ -58.410512935372481, -34.565247073349383 ], [ -58.410266809008647, -34.564916133802399 ], [ -58.409850558606479, -34.565145112468201 ], [ -58.410083691766204, -34.565454978404603 ], [ -58.410462519153896, -34.565271135419493 ], [ -58.410512935372481, -34.565247073349383 ] ] ] ] } },
{ "type": "Feature", "properties": { "Id": 0, "Tipo": "Hangares", "IATA": "AEP", "Etiqueta": "AEP - Hangares", "CIU": null, "Metros2": 1096.2566553 }, "geometry": { "type": "MultiPolygon", "coordinates": [ [ [ [ -58.410751433821474, -34.56513277393384 ], [ -58.410485415797666, -34.564795878565064 ], [ -58.410266809008647, -34.564916133802399 ], [ -58.410512935372481, -34.565247073349383 ], [ -58.410724258981645, -34.565146215259915 ], [ -58.410751433821474, -34.56513277393384 ] ] ] ] } },
{ "type": "Feature", "properties": { "Id": 0, "Tipo": "Hangares", "IATA": "AEP", "Etiqueta": "AEP - Hangares", "CIU": null, "Metros2": 1122.8196174 }, "geometry": { "type": "MultiPolygon", "coordinates": [ [ [ [ -58.411063001739876, -34.56497866498637 ], [ -58.410784010013799, -34.564631622374918 ], [ -58.410566968968112, -34.56475101629934 ], [ -58.410831877042881, -34.565092984791704 ], [ -58.411063001739876, -34.56497866498637 ] ] ] ] } },
{ "type": "Feature", "properties": { "Id": 0, "Tipo": "Hangares", "IATA": "AEP", "Etiqueta": "AEP - Hangares", "CIU": null, "Metros2": 2806.5859982400002 }, "geometry": { "type": "MultiPolygon", "coordinates": [ [ [ [ -58.4116110853073, -34.564703858523899 ], [ -58.411309649257987, -34.564342469085943 ], [ -58.410784010013799, -34.564631622374918 ], [ -58.411063001739876, -34.56497866498637 ], [ -58.411277484148741, -34.564872576855009 ], [ -58.4116110853073, -34.564703858523899 ] ] ] ] } },
{ "type": "Feature", "properties": { "Id": 0, "Tipo": "Hangares", "IATA": "AEP", "Etiqueta": "AEP - Hangares", "CIU": null, "Metros2": 1222.68339156 }, "geometry": { "type": "MultiPolygon", "coordinates": [ [ [ [ -58.411835674469671, -34.564589816214266 ], [ -58.411536425502163, -34.564217719844805 ], [ -58.411309649257987, -34.564342469085943 ], [ -58.4116110853073, -34.564703858523899 ], [ -58.41179501730943, -34.564610835164729 ], [ -58.411835674469671, -34.564589816214266 ] ] ] ] } },
{ "type": "Feature", "properties": { "Id": 0, "Tipo": "Hangares", "IATA": "AEP", "Etiqueta": "AEP - Hangares", "CIU": null, "Metros2": 3092.22351686 }, "geometry": { "type": "MultiPolygon", "coordinates": [ [ [ [ -58.412399303849725, -34.564298430934173 ], [ -58.41207989634853, -34.563915697414018 ], [ -58.411913990043047, -34.564010022208095 ], [ -58.411536425502163, -34.564217719844805 ], [ -58.411835674469671, -34.564589816214266 ], [ -58.412399303849725, -34.564298430934173 ] ] ] ] } },
{ "type": "Feature", "properties": { "Id": 0, "Tipo": "Hangares", "IATA": "AEP", "Etiqueta": "AEP - Hangares", "CIU": null, "Metros2": 2857.4683655 }, "geometry": { "type": "MultiPolygon", "coordinates": [ [ [ [ -58.412887453454516, -34.564046067210199 ], [ -58.412567141097441, -34.563638678041684 ], [ -58.41207989634853, -34.563915697414018 ], [ -58.412399303849725, -34.564298430934173 ], [ -58.412887453454516, -34.564046067210199 ] ] ] ] } },
{ "type": "Feature", "properties": { "Id": 0, "Tipo": "Hangares", "IATA": "AEP", "Etiqueta": "AEP - Hangares", "CIU": null, "Metros2": 3035.94838286 }, "geometry": { "type": "MultiPolygon", "coordinates": [ [ [ [ -58.413393694219508, -34.563785859393136 ], [ -58.413054019609831, -34.563361866890432 ], [ -58.412567141097441, -34.563638678041684 ], [ -58.412887453454516, -34.564046067210199 ], [ -58.413371410220748, -34.563795871101206 ], [ -58.413393694219508, -34.563785859393136 ] ] ] ] } },
{ "type": "Feature", "properties": { "Id": 0, "Tipo": "Hangares", "IATA": "AEP", "Etiqueta": "AEP - Hangares", "CIU": null, "Metros2": 532.830281711 }, "geometry": { "type": "MultiPolygon", "coordinates": [ [ [ [ -58.413148956108557, -34.563480369606168 ], [ -58.413445792664504, -34.563314158606602 ], [ -58.413353810435922, -34.563191423049432 ], [ -58.413054019609831, -34.563361866890432 ], [ -58.413148956108557, -34.563480369606168 ] ] ] ] } },
{ "type": "Feature", "properties": { "Id": 0, "Tipo": "Hangares", "IATA": "AEP", "Etiqueta": "AEP - Hangares", "CIU": null, "Metros2": 1414.0048182200001 }, "geometry": { "type": "MultiPolygon", "coordinates": [ [ [ [ -58.41371066179579, -34.563643452868007 ], [ -58.413447212209974, -34.563312098989627 ], [ -58.413443661429312, -34.563311314814484 ], [ -58.413445792664504, -34.563314158606602 ], [ -58.413148956108557, -34.563480369606168 ], [ -58.413393694219508, -34.563785859393136 ], [ -58.41371066179579, -34.563643452868007 ] ] ] ] } },
{ "type": "Feature", "properties": { "Id": 0, "Tipo": "Hangares", "IATA": "AEP", "Etiqueta": "AEP - Hangares", "CIU": null, "Metros2": 7767.5130424199997 }, "geometry": { "type": "MultiPolygon", "coordinates": [ [ [ [ -58.414933588552685, -34.562968127108945 ], [ -58.414549838649293, -34.56251143011832 ], [ -58.413432172887042, -34.563146870661512 ], [ -58.413804590253676, -34.563598920751247 ], [ -58.414870470762139, -34.563010648824161 ], [ -58.414933588552685, -34.562968127108945 ] ] ] ] } },
{ "type": "Feature", "properties": { "Id": 0, "Tipo": "Hangares", "IATA": "AEP", "Etiqueta": "AEP - Hangares", "CIU": null, "Metros2": 3407.8876482000001 }, "geometry": { "type": "MultiPolygon", "coordinates": [ [ [ [ -58.415416524679699, -34.562642778705253 ], [ -58.415056327905972, -34.562223469424453 ], [ -58.414549838649293, -34.56251143011832 ], [ -58.414933588552685, -34.562968127108945 ], [ -58.415416524679699, -34.562642778705253 ] ] ] ] } },
{ "type": "Feature", "properties": { "Id": 0, "Tipo": "Hangar 9", "IATA": "ROS", "Etiqueta": "ROS - Hangar 9", "CIU": null, "Metros2": 738.90020350199995 }, "geometry": { "type": "MultiPolygon", "coordinates": [ [ [ [ -60.7836013, -32.9210602 ], [ -60.7835555, -32.9208197 ], [ -60.7833056, -32.9208531 ], [ -60.7833629, -32.9211546 ], [ -60.7835095, -32.921135 ], [ -60.7834979, -32.921074 ], [ -60.7836013, -32.9210602 ] ] ] ] } },
{ "type": "Feature", "properties": { "Id": 0, "Tipo": "Hangar 8", "IATA": "ROS", "Etiqueta": "ROS - Hangar 8", "CIU": null, "Metros2": 624.11421004600004 }, "geometry": { "type": "MultiPolygon", "coordinates": [ [ [ [ -60.7830025, -32.9210938 ], [ -60.7829599, -32.9208716 ], [ -60.7826975, -32.9209071 ], [ -60.7827402, -32.9211293 ], [ -60.7830025, -32.9210938 ] ] ] ] } },
{ "type": "Feature", "properties": { "Id": 0, "Tipo": "Hangar 7", "IATA": "ROS", "Etiqueta": "ROS - Hangar 7", "CIU": null, "Metros2": 420.96327851799998 }, "geometry": { "type": "MultiPolygon", "coordinates": [ [ [ [ -60.7826214, -32.9211214 ], [ -60.7825918, -32.9209387 ], [ -60.782375, -32.9209634 ], [ -60.7824046, -32.9211461 ], [ -60.7826214, -32.9211214 ] ] ] ] } },
{ "type": "Feature", "properties": { "Id": 0, "Tipo": "Hangar 6", "IATA": "ROS", "Etiqueta": "ROS - Hangar 6", "CIU": null, "Metros2": 488.64601351900001 }, "geometry": { "type": "MultiPolygon", "coordinates": [ [ [ [ -60.782289, -32.9209963 ], [ -60.7822544, -32.9208077 ], [ -60.7820119, -32.920839 ], [ -60.7820464, -32.9210276 ], [ -60.782289, -32.9209963 ] ] ] ] } },
{ "type": "Feature", "properties": { "Id": 0, "Tipo": "Hangar 11", "IATA": "ROS", "Etiqueta": "ROS - Hangar 11", "CIU": null, "Metros2": 138.733533771 }, "geometry": { "type": "MultiPolygon", "coordinates": [ [ [ [ -60.7840664, -32.920006 ], [ -60.7840359, -32.9198827 ], [ -60.7839325, -32.9199008 ], [ -60.783963, -32.920024 ], [ -60.7840664, -32.920006 ] ] ] ] } },
{ "type": "Feature", "properties": { "Id": 0, "Tipo": "Hangar 5", "IATA": "ROS", "Etiqueta": "ROS - Hangar 5", "CIU": null, "Metros2": 345.68591188699997 }, "geometry": { "type": "MultiPolygon", "coordinates": [ [ [ [ -60.7817702, -32.9209749 ], [ -60.7817391, -32.9207929 ], [ -60.7815608, -32.920814300000011 ], [ -60.7815919, -32.9209964 ], [ -60.7817702, -32.9209749 ] ] ] ] } },
{ "type": "Feature", "properties": { "Id": 0, "Tipo": "Hangar 4", "IATA": "ROS", "Etiqueta": "ROS - Hangar 4", "CIU": null, "Metros2": 1040.9277193400001 }, "geometry": { "type": "MultiPolygon", "coordinates": [ [ [ [ -60.7815917, -32.9213223 ], [ -60.781547, -32.9210787 ], [ -60.781147, -32.9211304 ], [ -60.7811917, -32.921374 ], [ -60.7815917, -32.9213223 ] ] ] ] } },
{ "type": "Feature", "properties": { "Id": 0, "Tipo": "Hangar 3", "IATA": "ROS", "Etiqueta": "ROS - Hangar 3", "CIU": null, "Metros2": 485.32279776000001 }, "geometry": { "type": "MultiPolygon", "coordinates": [ [ [ [ -60.7811336, -32.9213029 ], [ -60.7811034, -32.9211363 ], [ -60.7808306, -32.9211711 ], [ -60.7808608, -32.9213377 ], [ -60.7809679, -32.9213241 ], [ -60.7811336, -32.9213029 ] ] ] ] } },
{ "type": "Feature", "properties": { "Id": 0, "Tipo": "Hangar 2", "IATA": "ROS", "Etiqueta": "ROS - Hangar 2", "CIU": null, "Metros2": 208.447508941 }, "geometry": { "type": "MultiPolygon", "coordinates": [ [ [ [ -60.7808171, -32.9213181 ], [ -60.7807911, -32.9211765 ], [ -60.7806533, -32.9211943 ], [ -60.7806793, -32.9213359 ], [ -60.7808171, -32.9213181 ] ] ] ] } },
{ "type": "Feature", "properties": { "Id": 0, "Tipo": "Hangar 1", "IATA": "ROS", "Etiqueta": "ROS - Hangar 1", "CIU": null, "Metros2": 476.76512714199998 }, "geometry": { "type": "MultiPolygon", "coordinates": [ [ [ [ -60.780493, -32.921215 ], [ -60.7804496, -32.9209788 ], [ -60.7802607, -32.9210032 ], [ -60.780304, -32.9212394 ], [ -60.780493, -32.921215 ] ] ] ] } },
{ "type": "Feature", "properties": { "Id": 0, "Tipo": "Hangar 17", "IATA": "ROS", "Etiqueta": "ROS - Hangar 17", "CIU": null, "Metros2": 806.50618335299998 }, "geometry": { "type": "MultiPolygon", "coordinates": [ [ [ [ -60.780874, -32.9206611 ], [ -60.7806847, -32.9205302 ], [ -60.780446, -32.9207733 ], [ -60.7806353, -32.9209043 ], [ -60.780874, -32.9206611 ] ] ] ] } },
{ "type": "Feature", "properties": { "Id": 0, "Tipo": "Escuela de vuelo Whisky Bravo", "IATA": "ROS", "Etiqueta": "ROS - Escuela de vuelo Whisky Bravo", "CIU": null, "Metros2": 51.851908717199997 }, "geometry": { "type": "MultiPolygon", "coordinates": [ [ [ [ -60.7809761, -32.9213694 ], [ -60.7809679, -32.9213241 ], [ -60.7808608, -32.9213377 ], [ -60.780869, -32.9213831 ], [ -60.7809761, -32.9213694 ] ] ] ] } },
{ "type": "Feature", "properties": { "Id": 0, "Tipo": "Puesto de guardia 8", "IATA": "ROS", "Etiqueta": "ROS - Puesto de guardia 8", "CIU": null, "Metros2": 32.362417655900003 }, "geometry": { "type": "MultiPolygon", "coordinates": [ [ [ [ -60.7841242, -32.9211073 ], [ -60.7841133, -32.9210572 ], [ -60.7840534, -32.9210664 ], [ -60.7840643, -32.9211165 ], [ -60.7841242, -32.9211073 ] ] ] ] } },
{ "type": "Feature", "properties": { "Id": 0, "Tipo": "Unidad operacional de PSA", "IATA": "ROS", "Etiqueta": "ROS - Unidad operacional de PSA", "CIU": null, "Metros2": 1199.25067556 }, "geometry": { "type": "MultiPolygon", "coordinates": [ [ [ [ -60.784441, -32.9210659 ], [ -60.7843167, -32.9204085 ], [ -60.7841462, -32.9204312 ], [ -60.7842705, -32.9210887 ], [ -60.784441, -32.9210659 ] ] ] ] } },
{ "type": "Feature", "properties": { "Id": 0, "Tipo": "Hangar base aérea", "IATA": "TDL", "Etiqueta": "TDL - Hangar base aérea", "CIU": null, "Metros2": 7382.6471245900002 }, "geometry": { "type": "MultiPolygon", "coordinates": [ [ [ [ -59.2420562, -37.235742 ], [ -59.241141, -37.2350756 ], [ -59.2406332, -37.2355176 ], [ -59.2415484, -37.2361841 ], [ -59.2420562, -37.235742 ] ] ] ] } },
{ "type": "Feature", "properties": { "Id": 0, "Tipo": "Hangar", "IATA": "TDL", "Etiqueta": "TDL - Hangar", "CIU": null, "Metros2": 166.228720372 }, "geometry": { "type": "MultiPolygon", "coordinates": [ [ [ [ -59.2380663, -37.2318201 ], [ -59.23796870000001, -37.2317547 ], [ -59.2378626, -37.231855 ], [ -59.2379602, -37.2319204 ], [ -59.2380663, -37.2318201 ] ] ] ] } },
{ "type": "Feature", "properties": { "Id": 0, "Tipo": "Hangar Aeroclub viedma", "IATA": "VDM", "Etiqueta": "VDM - Hangar Aeroclub viedma", "CIU": null, "Metros2": 775.20459953 }, "geometry": { "type": "MultiPolygon", "coordinates": [ [ [ [ -63.0046141, -40.8618103 ], [ -63.0045771, -40.8617845 ], [ -63.0045526, -40.8618045 ], [ -63.0045251, -40.861794 ], [ -63.0044068, -40.861890799999983 ], [ -63.0042911, -40.8618099 ], [ -63.0041596, -40.8619175 ], [ -63.0041083, -40.8618821 ], [ -63.0039997, -40.8619631 ], [ -63.0042153, -40.8621111 ], [ -63.0042322, -40.8621227 ], [ -63.0046141, -40.8618103 ] ] ] ] } },
{ "type": "Feature", "properties": { "Id": 0, "Tipo": "Hangares", "IATA": "CNQ", "Etiqueta": "CNQ - Hangares", "CIU": null, "Metros2": 433.96403989499998 }, "geometry": { "type": "MultiPolygon", "coordinates": [ [ [ [ -58.7578556, -27.4435335 ], [ -58.7578265, -27.443342099999988 ], [ -58.7576258, -27.4433661 ], [ -58.7576549, -27.4435575 ], [ -58.7578556, -27.4435335 ] ] ] ] } },
{ "type": "Feature", "properties": { "Id": 0, "Tipo": "Hangares", "IATA": "CNQ", "Etiqueta": "CNQ - Hangares", "CIU": null, "Metros2": 746.68519017400001 }, "geometry": { "type": "MultiPolygon", "coordinates": [ [ [ [ -58.7579316, -27.4440725 ], [ -58.757896, -27.4438379 ], [ -58.7576365, -27.4438689 ], [ -58.7576436, -27.4439152 ], [ -58.7576068, -27.4439196 ], [ -58.7576291, -27.444067 ], [ -58.7576706, -27.4440621 ], [ -58.7576768, -27.4441029 ], [ -58.7579316, -27.4440725 ] ] ] ] } },
{ "type": "Feature", "properties": { "Id": 0, "Tipo": "Hangares", "IATA": "CNQ", "Etiqueta": "CNQ - Hangares", "CIU": null, "Metros2": 857.62944203799998 }, "geometry": { "type": "MultiPolygon", "coordinates": [ [ [ [ -58.7579998, -27.4444559 ], [ -58.75796, -27.4441827 ], [ -58.7577077, -27.4442116 ], [ -58.7577096, -27.4442246 ], [ -58.7576634, -27.4442299 ], [ -58.7576853, -27.4443805 ], [ -58.7577303, -27.4443753 ], [ -58.7577463, -27.444485 ], [ -58.7579998, -27.4444559 ] ] ] ] } },
{ "type": "Feature", "properties": { "Id": 0, "Tipo": "Hangares", "IATA": "CRD", "Etiqueta": "CRD - Hangares", "CIU": null, "Metros2": 411.636011849 }, "geometry": { "type": "MultiPolygon", "coordinates": [ [ [ [ -67.4761824, -45.7931904 ], [ -67.4758893, -45.7931677 ], [ -67.4758642, -45.79332990000001 ], [ -67.4761593, -45.7933486 ], [ -67.4761824, -45.7931904 ] ] ] ] } },
{ "type": "Feature", "properties": { "Id": 0, "Tipo": "Hangares", "IATA": "CRD", "Etiqueta": "CRD - Hangares", "CIU": null, "Metros2": 821.74269403999995 }, "geometry": { "type": "MultiPolygon", "coordinates": [ [ [ [ -67.4766292, -45.7929442 ], [ -67.476237, -45.7929198 ], [ -67.4762081, -45.793163 ], [ -67.4765962, -45.7931846 ], [ -67.4766292, -45.7929442 ] ] ] ] } },
{ "type": "Feature", "properties": { "Id": 0, "Tipo": "Hangares", "IATA": "CRD", "Etiqueta": "CRD - Hangares", "CIU": null, "Metros2": 340.850596924 }, "geometry": { "type": "MultiPolygon", "coordinates": [ [ [ [ -67.472052, -45.7900505 ], [ -67.4718938, -45.7899135 ], [ -67.4717192, -45.7900115 ], [ -67.4718774, -45.7901485 ], [ -67.472052, -45.7900505 ] ] ] ] } },
{ "type": "Feature", "properties": { "Id": 0, "Tipo": "Hangar", "IATA": "CRD", "Etiqueta": "CRD - Hangar", "CIU": null, "Metros2": 507.969034378 }, "geometry": { "type": "MultiPolygon", "coordinates": [ [ [ [ -67.4563758, -45.7807706 ], [ -67.4560047, -45.7807408 ], [ -67.4559876, -45.7808985 ], [ -67.4563545, -45.7809282 ], [ -67.4563758, -45.7807706 ] ] ] ] } },
{ "type": "Feature", "properties": { "Id": 0, "Tipo": "Hangar", "IATA": "CRD", "Etiqueta": "CRD - Hangar", "CIU": null, "Metros2": 532.94187749800005 }, "geometry": { "type": "MultiPolygon", "coordinates": [ [ [ [ -67.4565102, -45.7811313 ], [ -67.4563519, -45.7810191 ], [ -67.4562317, -45.7811017 ], [ -67.4561685, -45.7810569 ], [ -67.4560128, -45.7811637 ], [ -67.4561652, -45.7812717 ], [ -67.4563002, -45.7811791 ], [ -67.4563692, -45.781228 ], [ -67.4565102, -45.7811313 ] ] ] ] } },
{ "type": "Feature", "properties": { "Id": 0, "Tipo": "Hangar", "IATA": "CRD", "Etiqueta": "CRD - Hangar", "CIU": null, "Metros2": 539.83488610899997 }, "geometry": { "type": "MultiPolygon", "coordinates": [ [ [ [ -67.4533022, -45.781275 ], [ -67.4530987, -45.7811823 ], [ -67.4529935, -45.7812994 ], [ -67.4529282, -45.7812772 ], [ -67.4528394, -45.7813885 ], [ -67.4530328, -45.7814725 ], [ -67.4531311, -45.7813558 ], [ -67.4532022, -45.7813777 ], [ -67.4533022, -45.781275 ] ] ] ] } },
{ "type": "Feature", "properties": { "Id": 0, "Tipo": "Hangares", "IATA": "FDO", "Etiqueta": "FDO - Hangares", "CIU": null, "Metros2": 807.16400205699995 }, "geometry": { "type": "MultiPolygon", "coordinates": [ [ [ [ -58.590219837294221, -34.4587124625914 ], [ -58.590505646331337, -34.458837983174753 ], [ -58.590645937869866, -34.458627944064929 ], [ -58.590345736204668, -34.458502257822587 ], [ -58.590219837294221, -34.4587124625914 ] ] ] ] } },
{ "type": "Feature", "properties": { "Id": 0, "Tipo": "Hangares", "IATA": "FDO", "Etiqueta": "FDO - Hangares", "CIU": null, "Metros2": 1459.9311263100001 }, "geometry": { "type": "MultiPolygon", "coordinates": [ [ [ [ -58.589689546552954, -34.458572196333456 ], [ -58.590082601306023, -34.458740690441267 ], [ -58.590260129095334, -34.458456554250169 ], [ -58.589867075276594, -34.458288060729743 ], [ -58.589689546552954, -34.458572196333456 ] ] ] ] } },
{ "type": "Feature", "properties": { "Id": 0, "Tipo": "Hangares", "IATA": "FDO", "Etiqueta": "FDO - Hangares", "CIU": null, "Metros2": 1726.7025488300001 }, "geometry": { "type": "MultiPolygon", "coordinates": [ [ [ [ -58.589143673165211, -34.458288656003404 ], [ -58.589690448785035, -34.458518547269691 ], [ -58.589834941458328, -34.458272784589916 ], [ -58.589298961766929, -34.458043018579446 ], [ -58.589143673165211, -34.458288656003404 ] ] ] ] } },
{ "type": "Feature", "properties": { "Id": 0, "Tipo": "Hangares", "IATA": "FDO", "Etiqueta": "FDO - Hangares", "CIU": null, "Metros2": 1413.88881021 }, "geometry": { "type": "MultiPolygon", "coordinates": [ [ [ [ -58.588691909977797, -34.458129272056553 ], [ -58.589077663215939, -34.458295737008335 ], [ -58.589253520063821, -34.458016146794236 ], [ -58.588867767723059, -34.457849682413233 ], [ -58.588691909977797, -34.458129272056553 ] ] ] ] } },
{ "type": "Feature", "properties": { "Id": 0, "Tipo": "Hangares", "IATA": "FDO", "Etiqueta": "FDO - Hangares", "CIU": null, "Metros2": 1413.9756050799999 }, "geometry": { "type": "MultiPolygon", "coordinates": [ [ [ [ -58.588246608488177, -34.45795427878587 ], [ -58.588632693367032, -34.458120262063993 ], [ -58.588808551286711, -34.457840672509889 ], [ -58.588422467307389, -34.457674689803106 ], [ -58.588246608488177, -34.45795427878587 ] ] ] ] } },
{ "type": "Feature", "properties": { "Id": 0, "Tipo": "Hangares", "IATA": "FDO", "Etiqueta": "FDO - Hangares", "CIU": null, "Metros2": 605.96956900199996 }, "geometry": { "type": "MultiPolygon", "coordinates": [ [ [ [ -58.587991543708753, -34.457694835429429 ], [ -58.588280860612691, -34.457819693797134 ], [ -58.588381351278336, -34.45765992866302 ], [ -58.588092034758979, -34.457535070539933 ], [ -58.587991543708753, -34.457694835429429 ] ] ] ] } },
{ "type": "Feature", "properties": { "Id": 0, "Tipo": "Hangares", "IATA": "FDO", "Etiqueta": "FDO - Hangares", "CIU": null, "Metros2": 1211.9404456699999 }, "geometry": { "type": "MultiPolygon", "coordinates": [ [ [ [ -58.587500227729016, -34.457581385077198 ], [ -58.587885982251301, -34.457747864269862 ], [ -58.58803671907787, -34.457508217041564 ], [ -58.58765096532467, -34.457341738338229 ], [ -58.587500227729016, -34.457581385077198 ] ] ] ] } },
{ "type": "Feature", "properties": { "Id": 0, "Tipo": "Hangares", "IATA": "FDO", "Etiqueta": "FDO - Hangares", "CIU": null, "Metros2": 1082.4872017499999 }, "geometry": { "type": "MultiPolygon", "coordinates": [ [ [ [ -58.587093567465381, -34.457428380106883 ], [ -58.58743332808109, -34.457572156976433 ], [ -58.587588882314392, -34.457332125770151 ], [ -58.587247541012374, -34.457184352398251 ], [ -58.587093567465381, -34.457428380106883 ] ] ] ] } },
{ "type": "Feature", "properties": { "Id": 0, "Tipo": "Hangares", "IATA": "FDO", "Etiqueta": "FDO - Hangares", "CIU": null, "Metros2": 1427.1077553699999 }, "geometry": { "type": "MultiPolygon", "coordinates": [ [ [ [ -58.586687910528084, -34.457353864008155 ], [ -58.587028417737635, -34.457498195275299 ], [ -58.587229718121399, -34.457178522014225 ], [ -58.586892096215109, -34.457031399858657 ], [ -58.586688069932563, -34.457353628240902 ], [ -58.586687910528084, -34.457353864008155 ] ] ] ] } },
{ "type": "Feature", "properties": { "Id": 0, "Tipo": "Hangares", "IATA": "FDO", "Etiqueta": "FDO - Hangares", "CIU": null, "Metros2": 3037.3612707399998 }, "geometry": { "type": "MultiPolygon", "coordinates": [ [ [ [ -58.585918388531937, -34.457001655909103 ], [ -58.586635602122364, -34.457317015689291 ], [ -58.586840946239064, -34.456996585422878 ], [ -58.58612373453056, -34.456681226880342 ], [ -58.585918388531937, -34.457001655909103 ] ] ] ] } },
{ "type": "Feature", "properties": { "Id": 0, "Tipo": "Hangares", "IATA": "FDO", "Etiqueta": "FDO - Hangares", "CIU": null, "Metros2": 1636.88202391 }, "geometry": { "type": "MultiPolygon", "coordinates": [ [ [ [ -58.585498026464229, -34.456831520887782 ], [ -58.585883857811382, -34.457000540957587 ], [ -58.586084584088184, -34.456673036257463 ], [ -58.585702135677231, -34.456508348727276 ], [ -58.585498026464229, -34.456831520887782 ] ] ] ] } },
{ "type": "Feature", "properties": { "Id": 0, "Tipo": "Hangares", "IATA": "FDO", "Etiqueta": "FDO - Hangares", "CIU": null, "Metros2": 1014.7627327 }, "geometry": { "type": "MultiPolygon", "coordinates": [ [ [ [ -58.585192764418544, -34.456640334100754 ], [ -58.585483011993254, -34.45676682769443 ], [ -58.585651687064235, -34.456501267607941 ], [ -58.585361440125496, -34.456374774425953 ], [ -58.585192764418544, -34.456640334100754 ] ] ] ] } },
{ "type": "Feature", "properties": { "Id": 0, "Tipo": "Hangares", "IATA": "FDO", "Etiqueta": "FDO - Hangares", "CIU": null, "Metros2": 1598.33289178 }, "geometry": { "type": "MultiPolygon", "coordinates": [ [ [ [ -58.58471314300148, -34.456458266552843 ], [ -58.585109164820174, -34.456637423460478 ], [ -58.58530297618772, -34.456327490301049 ], [ -58.584904790234305, -34.456157130679699 ], [ -58.58471314300148, -34.456458266552843 ] ] ] ] } },
{ "type": "Feature", "properties": { "Id": 0, "Tipo": "Hangares", "IATA": "FDO", "Etiqueta": "FDO - Hangares", "CIU": null, "Metros2": 359.26348893 }, "geometry": { "type": "MultiPolygon", "coordinates": [ [ [ [ -58.583326240541041, -34.45550226374376 ], [ -58.583131985009445, -34.455816366078665 ], [ -58.583217686107808, -34.455856113508247 ], [ -58.583414571711025, -34.455537152935101 ], [ -58.583326240541041, -34.45550226374376 ] ] ] ] } },
{ "type": "Feature", "properties": { "Id": 0, "Tipo": "Hangares", "IATA": "FDO", "Etiqueta": "FDO - Hangares", "CIU": null, "Metros2": 2490.27428143 }, "geometry": { "type": "MultiPolygon", "coordinates": [ [ [ [ -58.583326240541041, -34.45550226374376 ], [ -58.583054761646444, -34.455382422653734 ], [ -58.582766554346485, -34.455255195986695 ], [ -58.58255354605059, -34.455597319632254 ], [ -58.582842811167048, -34.455719899544754 ], [ -58.583119015875205, -34.45583694397336 ], [ -58.583326240541041, -34.45550226374376 ] ] ] ] } },
{ "type": "Feature", "properties": { "Id": 0, "Tipo": "Hangares", "IATA": "FDO", "Etiqueta": "FDO - Hangares", "CIU": null, "Metros2": 2486.8824517799999 }, "geometry": { "type": "MultiPolygon", "coordinates": [ [ [ [ -58.582178698591527, -34.455399548423699 ], [ -58.582487904109101, -34.455532968596849 ], [ -58.582683134910098, -34.455233438703608 ], [ -58.58236913984161, -34.455096711097283 ], [ -58.582055241079701, -34.454960024188281 ], [ -58.581864180058425, -34.455263750691444 ], [ -58.582178698591527, -34.455399548423699 ] ] ] ] } },
{ "type": "Feature", "properties": { "Id": 0, "Tipo": "Hangares", "IATA": "FDO", "Etiqueta": "FDO - Hangares", "CIU": null, "Metros2": 1082.4541418599999 }, "geometry": { "type": "MultiPolygon", "coordinates": [ [ [ [ -58.581477137236071, -34.455073746353754 ], [ -58.581764227732023, -34.455197343631809 ], [ -58.581944146528635, -34.454909874827038 ], [ -58.581660138466638, -34.454784300851614 ], [ -58.581477137236071, -34.455073746353754 ] ] ] ] } },
{ "type": "Feature", "properties": { "Id": 0, "Tipo": "Hangares", "IATA": "FDO", "Etiqueta": "FDO - Hangares", "CIU": null, "Metros2": 3014.7496926399999 }, "geometry": { "type": "MultiPolygon", "coordinates": [ [ [ [ -58.580469747862594, -34.454630404087936 ], [ -58.580760201127909, -34.454757320420114 ], [ -58.580810945732466, -34.454678294479606 ], [ -58.58115387574297, -34.454826880128266 ], [ -58.581103774257414, -34.454906220824341 ], [ -58.581376629886208, -34.455031244288669 ], [ -58.581556761671131, -34.454748623534968 ], [ -58.58128065160416, -34.454626117124839 ], [ -58.580941165360422, -34.454475499135725 ], [ -58.580650948132799, -34.454347866519093 ], [ -58.580469747862594, -34.454630404087936 ] ] ] ] } },
{ "type": "Feature", "properties": { "Id": 0, "Tipo": "Hangares", "IATA": "FDO", "Etiqueta": "FDO - Hangares", "CIU": null, "Metros2": 3882.5384631900001 }, "geometry": { "type": "MultiPolygon", "coordinates": [ [ [ [ -58.578736497213299, -34.453910298537231 ], [ -58.579664670166132, -34.454312276378083 ], [ -58.579665089628811, -34.454311625360631 ], [ -58.579865407515484, -34.453993185074445 ], [ -58.578937584121704, -34.453591845340569 ], [ -58.578736497213299, -34.453910298537231 ] ] ] ] } },
{ "type": "Feature", "properties": { "Id": 0, "Tipo": "Hangares", "IATA": "FDO", "Etiqueta": "FDO - Hangares", "CIU": null, "Metros2": 6654.3139897600004 }, "geometry": { "type": "MultiPolygon", "coordinates": [ [ [ [ -58.578327331918175, -34.452642369521385 ], [ -58.578788943668258, -34.452873180438118 ], [ -58.579535549119726, -34.451848543016325 ], [ -58.579073940750973, -34.451617734970988 ], [ -58.578327331918175, -34.452642369521385 ] ] ] ] } },
{ "type": "Feature", "properties": { "Id": 0, "Tipo": "Hangares", "IATA": "FDO", "Etiqueta": "FDO - Hangares", "CIU": null, "Metros2": 2280.0499123200002 }, "geometry": { "type": "MultiPolygon", "coordinates": [ [ [ [ -58.579114786946121, -34.451578940335288 ], [ -58.579577112792009, -34.451803888354746 ], [ -58.579829084536676, -34.451450226995433 ], [ -58.579368853996201, -34.451222324425359 ], [ -58.579114786946121, -34.451578940335288 ] ] ] ] } },
{ "type": "Feature", "properties": { "Id": 0, "Tipo": "Hangares", "IATA": "FDO", "Etiqueta": "FDO - Hangares", "CIU": null, "Metros2": 569.03756855100005 }, "geometry": { "type": "MultiPolygon", "coordinates": [ [ [ [ -58.579857985711328, -34.450898783564298 ], [ -58.579832299383057, -34.450935382429819 ], [ -58.579813499078703, -34.450926327830771 ], [ -58.579791638351466, -34.450957475793125 ], [ -58.579810438660175, -34.45096653039559 ], [ -58.579767994028487, -34.45102692000507 ], [ -58.580036010015029, -34.451156915799295 ], [ -58.580141443531154, -34.45101112312318 ], [ -58.579835034340476, -34.450859598329409 ], [ -58.57982027849922, -34.450880623022215 ], [ -58.579857985711328, -34.450898783564298 ] ] ] ] } },
{ "type": "Feature", "properties": { "Id": 0, "Tipo": "Hangares", "IATA": "FDO", "Etiqueta": "FDO - Hangares", "CIU": null, "Metros2": 2457.2399663599999 }, "geometry": { "type": "MultiPolygon", "coordinates": [ [ [ [ -58.580505962171266, -34.450480985415652 ], [ -58.58018120585006, -34.450327247931646 ], [ -58.579991115405988, -34.450602086252424 ], [ -58.579934741278734, -34.45057445853584 ], [ -58.579768436350477, -34.450807327456701 ], [ -58.580146769745575, -34.450992739681361 ], [ -58.580313074028183, -34.450759870235579 ], [ -58.580505962171266, -34.450480985415652 ] ] ] ] } },
{ "type": "Feature", "properties": { "Id": 0, "Tipo": "Hangares", "IATA": "FDO", "Etiqueta": "FDO - Hangares", "CIU": null, "Metros2": 306.60882637899999 }, "geometry": { "type": "MultiPolygon", "coordinates": [ [ [ [ -58.580505962171266, -34.450480985415652 ], [ -58.58054676568235, -34.450421989901827 ], [ -58.580176674650524, -34.450243206124227 ], [ -58.580133676273604, -34.450304287207096 ], [ -58.580505962171266, -34.450480985415652 ] ] ] ] } },
{ "type": "Feature", "properties": { "Id": 0, "Tipo": "Hangares", "IATA": "FDO", "Etiqueta": "FDO - Hangares", "CIU": null, "Metros2": 667.66767202400001 }, "geometry": { "type": "MultiPolygon", "coordinates": [ [ [ [ -58.580293077328399, -34.450253521958999 ], [ -58.580570975322047, -34.450380274439922 ], [ -58.580689805423425, -34.450201488379378 ], [ -58.580411907823077, -34.450074736175289 ], [ -58.580293077328399, -34.450253521958999 ] ] ] ] } },
{ "type": "Feature", "properties": { "Id": 0, "Tipo": "Hangares", "IATA": "FDO", "Etiqueta": "FDO - Hangares", "CIU": null, "Metros2": 1554.0632198400001 }, "geometry": { "type": "MultiPolygon", "coordinates": [ [ [ [ -58.580426435275577, -34.450028508521036 ], [ -58.580707448641398, -34.450160538357935 ], [ -58.580985250998687, -34.449754775028453 ], [ -58.580704238508936, -34.449622745844643 ], [ -58.580426435275577, -34.450028508521036 ] ] ] ] } },
{ "type": "Feature", "properties": { "Id": 0, "Tipo": "Hangares", "IATA": "FDO", "Etiqueta": "FDO - Hangares", "CIU": null, "Metros2": 927.42537066700004 }, "geometry": { "type": "MultiPolygon", "coordinates": [ [ [ [ -58.580731924148544, -34.449603662770386 ], [ -58.581021467836003, -34.449739818372855 ], [ -58.581182411629712, -34.449504942611171 ], [ -58.580896901064094, -34.449367836076014 ], [ -58.580731924148544, -34.449603662770386 ] ] ] ] } },
{ "type": "Feature", "properties": { "Id": 0, "Tipo": "Hangares", "IATA": "FDO", "Etiqueta": "FDO - Hangares", "CIU": null, "Metros2": 2264.8341712500001 }, "geometry": { "type": "MultiPolygon", "coordinates": [ [ [ [ -58.580889885211747, -34.449342266728159 ], [ -58.581184090404946, -34.449486102696326 ], [ -58.581578529185435, -34.448932430747675 ], [ -58.581284325189422, -34.4487885957477 ], [ -58.580889885211747, -34.449342266728159 ] ] ] ] } },
{ "type": "Feature", "properties": { "Id": 0, "Tipo": "Hangar Uno", "IATA": "FDO", "Etiqueta": "FDO - Hangar Uno", "CIU": null, "Metros2": 7412.6576726699996 }, "geometry": { "type": "MultiPolygon", "coordinates": [ [ [ [ -58.590518586741204, -34.458924583781567 ], [ -58.592555259991535, -34.45980362385572 ], [ -58.592729133566358, -34.459522423046963 ], [ -58.590692364937475, -34.458649346964052 ], [ -58.590518586741204, -34.458924583781567 ] ] ] ] } },
{ "type": "Feature", "properties": { "Id": 0, "Tipo": "Hangar aeroclub", "IATA": "GPO", "Etiqueta": "GPO - Hangar aeroclub", "CIU": null, "Metros2": 2062.0258436600002 }, "geometry": { "type": "MultiPolygon", "coordinates": [ [ [ [ -63.7587638, -35.6872341 ], [ -63.7583841, -35.6872301 ], [ -63.7583818, -35.6873766 ], [ -63.75815930000001, -35.6873743 ], [ -63.758152, -35.6878313 ], [ -63.7585343, -35.68783530000001 ], [ -63.7585358, -35.6877388 ], [ -63.7584223, -35.6877375 ], [ -63.7584279, -35.6874235 ], [ -63.7587609, -35.6874274 ], [ -63.7587638, -35.6872341 ] ] ] ] } },
{ "type": "Feature", "properties": { "Id": 0, "Tipo": "Hangar", "IATA": "IRJ", "Etiqueta": "IRJ - Hangar", "CIU": null, "Metros2": 763.30376982099995 }, "geometry": { "type": "MultiPolygon", "coordinates": [ [ [ [ -66.795929, -29.3859973 ], [ -66.7957811, -29.3857585 ], [ -66.7957608, -29.3857681 ], [ -66.7955921, -29.3858474 ], [ -66.7956504, -29.3859415 ], [ -66.7955827, -29.385973300000014 ], [ -66.7956723, -29.386118 ], [ -66.7959083, -29.3860071 ], [ -66.795929, -29.3859973 ] ] ] ] } },
{ "type": "Feature", "properties": { "Id": 0, "Tipo": "Hangar", "IATA": "LPG", "Etiqueta": "LPG - Hangar", "CIU": null, "Metros2": 946.84387625299996 }, "geometry": { "type": "MultiPolygon", "coordinates": [ [ [ [ -57.8876513, -34.9625046 ], [ -57.8874673, -34.9623391 ], [ -57.887163, -34.9625664 ], [ -57.8873471, -34.9627319 ], [ -57.8876513, -34.9625046 ] ] ] ] } },
{ "type": "Feature", "properties": { "Id": 0, "Tipo": "Hangar", "IATA": "LPG", "Etiqueta": "LPG - Hangar", "CIU": null, "Metros2": 491.09963460500001 }, "geometry": { "type": "MultiPolygon", "coordinates": [ [ [ [ -57.8864497, -34.9633869 ], [ -57.8863019, -34.9632536 ], [ -57.8861119, -34.9633966 ], [ -57.8862566, -34.963538 ], [ -57.8864497, -34.9633869 ] ] ] ] } },
{ "type": "Feature", "properties": { "Id": 0, "Tipo": "Hangar", "IATA": "LPG", "Etiqueta": "LPG - Hangar", "CIU": null, "Metros2": 1998.9290439500001 }, "geometry": { "type": "MultiPolygon", "coordinates": [ [ [ [ -57.88603, -34.9637091 ], [ -57.8857957, -34.9634987 ], [ -57.8852957, -34.96388 ], [ -57.8855237, -34.9640921 ], [ -57.88603, -34.9637091 ] ] ] ] } },
{ "type": "Feature", "properties": { "Id": 0, "Tipo": "Hangar", "IATA": "LPG", "Etiqueta": "LPG - Hangar", "CIU": null, "Metros2": 617.20257023500005 }, "geometry": { "type": "MultiPolygon", "coordinates": [ [ [ [ -57.8862566, -34.963538 ], [ -57.8861119, -34.9633966 ], [ -57.8860419, -34.963335 ], [ -57.8858731, -34.9634586 ], [ -57.886092, -34.9636562 ], [ -57.8862566, -34.963538 ] ] ] ] } },
{ "type": "Feature", "properties": { "Id": 0, "Tipo": "Hangar", "IATA": "LPG", "Etiqueta": "LPG - Hangar", "CIU": null, "Metros2": 581.85761538199995 }, "geometry": { "type": "MultiPolygon", "coordinates": [ [ [ [ -57.8870665, -34.9629407 ], [ -57.8868635, -34.9627582 ], [ -57.8866939, -34.9628848 ], [ -57.8868969, -34.9630673 ], [ -57.8870665, -34.9629407 ] ] ] ] } },
{ "type": "Feature", "properties": { "Id": 0, "Tipo": "Hangares", "IATA": "NQN", "Etiqueta": "NQN - Hangares", "CIU": null, "Metros2": 569.70491556900004 }, "geometry": { "type": "MultiPolygon", "coordinates": [ [ [ [ -68.1419615, -38.9528654 ], [ -68.1414878, -38.9524991 ], [ -68.1414115, -38.9525664 ], [ -68.1418813, -38.9529281 ], [ -68.1419615, -38.9528654 ] ] ] ] } }
]
}
