{
  "type": "FeatureCollection",
  "name": "paradasapp",
  "crs": {
    "type": "name",
    "properties": { "name": "urn:ogc:def:crs:OGC:1.3:CRS84" }
  },
  "features": [
    {
      "type": "Feature",
      "properties": { "gid": 1, "name": "571-572-574", "IATA": "AFA" },
      "geometry": {
        "type": "Point",
        "coordinates": [-68.400643399999979, -34.592062799999951, 0.0]
      }
    },
    {
      "type": "Feature",
      "properties": { "gid": 2, "name": "8A - sentido centro", "IATA": "SLA" },
      "geometry": {
        "type": "Point",
        "coordinates": [-65.476339499999938, -24.839280799999983, 0.0]
      }
    },
    {
      "type": "Feature",
      "properties": { "gid": 3, "name": "8A sentido oeste", "IATA": "SLA" },
      "geometry": {
        "type": "Point",
        "coordinates": [-65.475835299999972, -24.838599299999942, 0.0]
      }
    },
    {
      "type": "Feature",
      "properties": {
        "gid": 4,
        "name": "línea C (ramal a Sauce Viejo) - Sentido Norte",
        "IATA": "SFN"
      },
      "geometry": {
        "type": "Point",
        "coordinates": [-60.804323599999975, -31.709741199999939, 0.0]
      }
    },
    {
      "type": "Feature",
      "properties": {
        "gid": 5,
        "name": "línea C (ramal a Sauce Viejo) - sentido sur",
        "IATA": "SFN"
      },
      "geometry": {
        "type": "Point",
        "coordinates": [-60.8053, -31.710868399999981, 0.0]
      }
    },
    {
      "type": "Feature",
      "properties": {
        "gid": 15,
        "name": "Terminal de Omnibus de Neuquén",
        "IATA": "NQN"
      },
      "geometry": {
        "type": "Point",
        "coordinates": [-68.105341299999964, -38.957672, 0.0]
      }
    },
    {
      "type": "Feature",
      "properties": {
        "gid": 29,
        "name": "8/33/34/37/45/160/166",
        "IATA": "AEP"
      },
      "geometry": {
        "type": "Point",
        "coordinates": [-58.410660117922014, -34.557561552876408, 0.0]
      }
    },
    {
      "type": "Feature",
      "properties": {
        "gid": 30,
        "name": "8/33/34/37/45/160/166",
        "IATA": "AEP"
      },
      "geometry": {
        "type": "Point",
        "coordinates": [-58.413630107218907, -34.555950303622225, 0.0]
      }
    },
    {
      "type": "Feature",
      "properties": {
        "gid": 31,
        "name": "8/33/34/37/45/160/166",
        "IATA": "AEP"
      },
      "geometry": {
        "type": "Point",
        "coordinates": [-58.413551949605818, -34.555717834824357, 0.0]
      }
    },
    {
      "type": "Feature",
      "properties": {
        "gid": 32,
        "name": "8/33/34/37/45/160/166",
        "IATA": "AEP"
      },
      "geometry": {
        "type": "Point",
        "coordinates": [-58.419183305830003, -34.55420077551414, 0.0]
      }
    },
    {
      "type": "Feature",
      "properties": {
        "gid": 33,
        "name": "8/33/34/37/45/160/166",
        "IATA": "AEP"
      },
      "geometry": {
        "type": "Point",
        "coordinates": [-58.4190450269761, -34.553974318840361, 0.0]
      }
    },
    {
      "type": "Feature",
      "properties": { "gid": 34, "name": "8", "IATA": "EZE" },
      "geometry": {
        "type": "Point",
        "coordinates": [-58.541343655067763, -34.81355579227931, 0.0]
      }
    },
    {
      "type": "Feature",
      "properties": { "gid": 35, "name": "8", "IATA": "EZE" },
      "geometry": {
        "type": "Point",
        "coordinates": [-58.541111186269895, -34.811166974977084, 0.0]
      }
    },
    {
      "type": "Feature",
      "properties": { "gid": 36, "name": "72", "IATA": "BRC" },
      "geometry": {
        "type": "Point",
        "coordinates": [-71.161208945401782, -41.145671171270415, 0.0]
      }
    },
    {
      "type": "Feature",
      "properties": { "gid": 37, "name": "25", "IATA": "COR" },
      "geometry": {
        "type": "Point",
        "coordinates": [-64.214007179792191, -31.315030647068735, 0.0]
      }
    },
    {
      "type": "Feature",
      "properties": {
        "gid": 38,
        "name": "Expreso Colonia interurbano",
        "IATA": "CPC"
      },
      "geometry": {
        "type": "Point",
        "coordinates": [-71.142920063942, -40.081449055048687, 0.0]
      }
    },
    {
      "type": "Feature",
      "properties": { "gid": 6, "name": "119 sentido noroeste", "IATA": "SDE" },
      "geometry": {
        "type": "Point",
        "coordinates": [-64.297204699999952, -27.755426299999954, 0.0]
      }
    },
    {
      "type": "Feature",
      "properties": { "gid": 7, "name": "119 - sentido centro", "IATA": "SDE" },
      "geometry": {
        "type": "Point",
        "coordinates": [-64.297511, -27.755487499999958, 0.0]
      }
    },
    {
      "type": "Feature",
      "properties": { "gid": 8, "name": "28", "IATA": "PSS" },
      "geometry": {
        "type": "Point",
        "coordinates": [-55.96632029999995, -27.392037399999936, 0.0]
      }
    },
    {
      "type": "Feature",
      "properties": {
        "gid": 9,
        "name": "Línea C sentido Centro",
        "IATA": "USH"
      },
      "geometry": {
        "type": "Point",
        "coordinates": [-68.32842919999996, -54.825474099999951, 0.0]
      }
    },
    {
      "type": "Feature",
      "properties": {
        "gid": 10,
        "name": "Línea C - sentido Aeropuerto",
        "IATA": "USH"
      },
      "geometry": {
        "type": "Point",
        "coordinates": [-68.328861099999983, -54.825328899999931, 0.0]
      }
    },
    {
      "type": "Feature",
      "properties": { "gid": 11, "name": "965/675/680", "IATA": "MDZ" },
      "geometry": {
        "type": "Point",
        "coordinates": [-68.798877899999979, -32.827510899999936, 0.0]
      }
    },
    {
      "type": "Feature",
      "properties": { "gid": 12, "name": "542", "IATA": "MDQ" },
      "geometry": {
        "type": "Point",
        "coordinates": [-57.582103099999983, -37.933096099999943, 0.0]
      }
    },
    {
      "type": "Feature",
      "properties": {
        "gid": 13,
        "name": "501 Indalo Sentido Oeste",
        "IATA": "NQN"
      },
      "geometry": {
        "type": "Point",
        "coordinates": [-68.139584099999979, -38.955311399999971, 0.0]
      }
    },
    {
      "type": "Feature",
      "properties": {
        "gid": 14,
        "name": "501 Indalo Sentido Centro",
        "IATA": "NQN"
      },
      "geometry": {
        "type": "Point",
        "coordinates": [-68.140474599999948, -38.955461599999978, 0.0]
      }
    },
    {
      "type": "Feature",
      "properties": {
        "gid": 16,
        "name": "Línea D - Sentido centro",
        "IATA": "LUQ"
      },
      "geometry": {
        "type": "Point",
        "coordinates": [-66.344128399999988, -33.274844599999938, 0.0]
      }
    },
    {
      "type": "Feature",
      "properties": {
        "gid": 17,
        "name": "Línea D - Sentido Norte",
        "IATA": "LUQ"
      },
      "geometry": {
        "type": "Point",
        "coordinates": [-66.343901599999981, -33.274412, 0.0]
      }
    },
    {
      "type": "Feature",
      "properties": {
        "gid": 20,
        "name": "Aerobus - Línea Interurbana a Las Higueras ",
        "IATA": "RCU"
      },
      "geometry": {
        "type": "Point",
        "coordinates": [-64.286452299999951, -33.097341099999937, 0.0]
      }
    },
    {
      "type": "Feature",
      "properties": { "gid": 27, "name": "322A Red Tulum", "IATA": "UAQ" },
      "geometry": {
        "type": "Point",
        "coordinates": [-68.423173320970349, -31.571090859121842, 0.0]
      }
    },
    {
      "type": "Feature",
      "properties": {
        "gid": 28,
        "name": "8/33/34/37/45/160/166",
        "IATA": "AEP"
      },
      "geometry": {
        "type": "Point",
        "coordinates": [-58.410684166418342, -34.557882199494152, 0.0]
      }
    },
    {
      "type": "Feature",
      "properties": {
        "gid": 39,
        "name": "53/182/252/320/326/386/634",
        "IATA": "EPA"
      },
      "geometry": {
        "type": "Point",
        "coordinates": [-58.599084094758645, -34.605830893095629, 0.0]
      }
    },
    {
      "type": "Feature",
      "properties": { "gid": 40, "name": "710", "IATA": "FDO" },
      "geometry": {
        "type": "Point",
        "coordinates": [-58.583604879286874, -34.456201148923682, 0.0]
      }
    },
    {
      "type": "Feature",
      "properties": { "gid": 41, "name": "25", "IATA": "FMA" },
      "geometry": {
        "type": "Point",
        "coordinates": [-58.231382585856515, -26.212617091594893, 0.0]
      }
    },
    {
      "type": "Feature",
      "properties": { "gid": 42, "name": "15", "IATA": "JUJ" },
      "geometry": {
        "type": "Point",
        "coordinates": [-65.092490734600815, -24.38440631159671, 0.0]
      }
    },
    {
      "type": "Feature",
      "properties": { "gid": 43, "name": "Apeadero Aeropuerto", "IATA": "NQN" },
      "geometry": {
        "type": "Point",
        "coordinates": [-68.140859091134786, -38.955597656875206, 0.0]
      }
    },
    {
      "type": "Feature",
      "properties": { "gid": 44, "name": "14 ramal A", "IATA": "PRA" },
      "geometry": {
        "type": "Point",
        "coordinates": [-60.484288808976714, -31.789456376566381, 0.0]
      }
    },
    {
      "type": "Feature",
      "properties": {
        "gid": 45,
        "name": "Mar y Valle / 28 de Julio",
        "IATA": "REL"
      },
      "geometry": {
        "type": "Point",
        "coordinates": [-65.294250604649847, -43.211914970009758, 0.0]
      }
    },
    {
      "type": "Feature",
      "properties": { "gid": 46, "name": "115", "IATA": "ROS" },
      "geometry": {
        "type": "Point",
        "coordinates": [-60.77988891779799, -32.916561302620515, 0.0]
      }
    },
    {
      "type": "Feature",
      "properties": { "gid": 47, "name": "121", "IATA": "TUC" },
      "geometry": {
        "type": "Point",
        "coordinates": [-65.108610241261843, -26.835770746610677, 0.0]
      }
    },
    {
      "type": "Feature",
      "properties": { "gid": 19, "name": "8", "IATA": "CRD" },
      "geometry": {
        "type": "Point",
        "coordinates": [-67.467801073904113, -45.790298987172001, 0.0]
      }
    },
    {
      "type": "Feature",
      "properties": { "gid": 48, "name": "520", "IATA": "BHI" },
      "geometry": {
        "type": "Point",
        "coordinates": [-62.164119183593108, -38.71626770973841, 0.0]
      }
    },
    {
      "type": "Feature",
      "properties": { "gid": 49, "name": "Aerobus ERSA", "IATA": "CNQ" },
      "geometry": {
        "type": "Point",
        "coordinates": [-58.758389912261492, -27.449259461544663, 0.0]
      }
    },
    {
      "type": "Feature",
      "properties": { "gid": 50, "name": "Río Uruguay", "IATA": "IGR" },
      "geometry": {
        "type": "Point",
        "coordinates": [-54.47622242057254, -25.731167105956413, 0.0]
      }
    },
    {
      "type": "Feature",
      "properties": { "gid": 51, "name": "2 Ay B/104", "IATA": "RES" },
      "geometry": {
        "type": "Point",
        "coordinates": [-59.023530915395604, -27.445746740566715, 0.0]
      }
    },
    {
      "type": "Feature",
      "properties": { "gid": 52, "name": "CityBus Río Grande", "IATA": "RGA" },
      "geometry": {
        "type": "Point",
        "coordinates": [-67.749804514675787, -53.787073055402068, 0.0]
      }
    }
  ]
}
