{
"type": "FeatureCollection",
"name": "Plataformas2026",
"crs": { "type": "name", "properties": { "name": "urn:ogc:def:crs:OGC:1.3:CRS84" } },
"features": [
{ "type": "Feature", "properties": { "Id": 0, "Tipo": "Plataforma de cargas", "IATA": "AEP", "Etiqueta": "AEP - Plataforma comercial", "Metros2": 165856.70491056016 }, "geometry": { "type": "MultiPolygon", "coordinates": [ [ [ [ -58.419389540016411, -34.555558849746021 ], [ -58.419167304761331, -34.555275705429125 ], [ -58.41839216269333, -34.554279703818125 ], [ -58.418083610397275, -34.554311468855502 ], [ -58.417762201755558, -34.554374998893849 ], [ -58.417530787533515, -34.554438528883693 ], [ -58.417254376101646, -34.55453382377749 ], [ -58.417080815435121, -34.554819707803972 ], [ -58.416759406793389, -34.555005002481622 ], [ -58.416457282670173, -34.555174414397165 ], [ -58.416251581139477, -34.555296178998383 ], [ -58.416078020472945, -34.555396767012788 ], [ -58.416148730374132, -34.555502649001824 ], [ -58.416206583929636, -34.555603236766601 ], [ -58.416238724793807, -34.555698530326296 ], [ -58.416238724793807, -34.555788529699122 ], [ -58.416232296620976, -34.55590499933119 ], [ -58.416209574320987, -34.556021221832211 ], [ -58.416007486810308, -34.556121161283897 ], [ -58.415893588939177, -34.556188343824701 ], [ -58.415835084306032, -34.556228442793596 ], [ -58.415776353902906, -34.556251156934024 ], [ -58.415723366159092, -34.556264964452986 ], [ -58.415653377621751, -34.556252807490232 ], [ -58.416301750738654, -34.557319564026649 ], [ -58.418151831785451, -34.556278032773832 ], [ -58.418854231797923, -34.55588721124802 ], [ -58.419389540016411, -34.555558849746021 ] ] ], [ [ [ -58.409875016766797, -34.560814404323636 ], [ -58.409876530594786, -34.560814804390468 ], [ -58.409908419861189, -34.560779531327427 ], [ -58.410075040505085, -34.56065442985166 ], [ -58.410272063092741, -34.560574025777491 ], [ -58.411320443541143, -34.559951274879545 ], [ -58.412710285595907, -34.559082383067626 ], [ -58.413154706448971, -34.55888905038735 ], [ -58.415142408075219, -34.558062617954462 ], [ -58.416118158931624, -34.557649336681074 ], [ -58.416286520023633, -34.55756328091352 ], [ -58.416296813834279, -34.557427683102027 ], [ -58.416301750738654, -34.557319564026649 ], [ -58.416215148505543, -34.557177080428119 ], [ -58.415955942200945, -34.556752353921112 ], [ -58.415652135708768, -34.556251954037663 ], [ -58.415374818013071, -34.556173282669519 ], [ -58.414666982866606, -34.556505558932542 ], [ -58.414684042254571, -34.556539714928292 ], [ -58.412751552399747, -34.55745133810062 ], [ -58.412737806239583, -34.557431933631122 ], [ -58.411407972497599, -34.558286034462441 ], [ -58.41137198025308, -34.558256231801565 ], [ -58.410461962219387, -34.558958698859989 ], [ -58.410427642513127, -34.558938007581141 ], [ -58.409634169554892, -34.559596072632004 ], [ -58.40951626687805, -34.55949620119798 ], [ -58.409421944736586, -34.559557233755243 ], [ -58.409199613974558, -34.559615492063585 ], [ -58.409064868058188, -34.5597458795582 ], [ -58.408886329718968, -34.55985962167383 ], [ -58.409186139382918, -34.560142589189134 ], [ -58.409320885299302, -34.560267427492803 ], [ -58.409381520961674, -34.560334007844816 ], [ -58.409424700063482, -34.5603646307978 ], [ -58.409875016766797, -34.560814404323636 ] ] ] ] } },
{ "type": "Feature", "properties": { "Id": 0, "Tipo": "Plataforma militar", "IATA": "AEP", "Etiqueta": "AEP - Plataforma militar", "Metros2": 18678.158754799999 }, "geometry": { "type": "MultiPolygon", "coordinates": [ [ [ [ -58.407208396080399, -34.565481433614032 ], [ -58.406967824057212, -34.565612073113648 ], [ -58.406782332915711, -34.565712801000259 ], [ -58.406318621403265, -34.56596460933423 ], [ -58.406707327071032, -34.566013549893796 ], [ -58.406863711628226, -34.566044430770745 ], [ -58.407045647425988, -34.566093826485641 ], [ -58.407331182746702, -34.566233024954499 ], [ -58.407588164535355, -34.566375792614835 ], [ -58.407638133216352, -34.566418622912913 ], [ -58.407717845160157, -34.566347239082802 ], [ -58.409201683881797, -34.565502058089628 ], [ -58.408055310406866, -34.565009849463749 ], [ -58.40751048445685, -34.565317387095021 ], [ -58.407208396080399, -34.565481433614032 ] ] ] ] } },
{ "type": "Feature", "properties": { "Id": 0, "Tipo": "Plataforma industrial", "IATA": "AEP", "Etiqueta": "AEP - Plataforma industrial", "Metros2": 101433.540276 }, "geometry": { "type": "MultiPolygon", "coordinates": [ [ [ [ -58.407588164535355, -34.566375792614835 ], [ -58.407638133216366, -34.566418622912913 ], [ -58.407717845160157, -34.566347239082802 ], [ -58.407986726707577, -34.566192670783543 ], [ -58.408400614772383, -34.565954744548655 ], [ -58.408965446475108, -34.565632011205082 ], [ -58.409550695996359, -34.565310066400059 ], [ -58.410135487946825, -34.564988373304054 ], [ -58.410695849270034, -34.564680119456092 ], [ -58.411768616819877, -34.564089991780449 ], [ -58.412545172247462, -34.563651168267647 ], [ -58.413657375150123, -34.56301883359265 ], [ -58.414516252677906, -34.562530525172335 ], [ -58.41504026923235, -34.562232599463904 ], [ -58.416036406531916, -34.56166625302285 ], [ -58.415433247471526, -34.560900652840424 ], [ -58.412949090181435, -34.562281929954338 ], [ -58.411271570172396, -34.563224196512643 ], [ -58.407973637218284, -34.565055191756564 ], [ -58.407760216300098, -34.565181771196883 ], [ -58.406318621403265, -34.565964609334245 ], [ -58.406777958062882, -34.566022442655402 ], [ -58.406917156531627, -34.566058134570518 ], [ -58.407045647425988, -34.566093826485641 ], [ -58.407159861554291, -34.566150933549793 ], [ -58.407331182746702, -34.566233024954499 ], [ -58.407588164535355, -34.566375792614835 ] ] ] ] } },
{ "type": "Feature", "properties": { "Id": 0, "Tipo": "Plataforma de cargas", "IATA": "EZE", "Etiqueta": "EZE - Plataforma de cargas", "Metros2": 75053.074826399999 }, "geometry": { "type": "MultiPolygon", "coordinates": [ [ [ [ -58.537208510104563, -34.811586700025828 ], [ -58.538664740240165, -34.807275116683286 ], [ -58.537101434359329, -34.806918197532354 ], [ -58.535623789074691, -34.811208365725918 ], [ -58.537208510104563, -34.811586700025828 ] ] ] ] } },
{ "type": "Feature", "properties": { "Id": 0, "Tipo": "Plataforma Chivatos aviación general", "IATA": "EZE", "Etiqueta": "EZE - Plataforma Chivatos aviación general", "Metros2": 78796.041041899996 }, "geometry": { "type": "MultiPolygon", "coordinates": [ [ [ [ -58.525297225742008, -34.800827967087969 ], [ -58.529408934360106, -34.79744913245969 ], [ -58.528369347846706, -34.796558262259055 ], [ -58.526052942557556, -34.798478487290822 ], [ -58.525803099151915, -34.798289320140782 ], [ -58.524461083144615, -34.7994350306152 ], [ -58.52468951140122, -34.799599213424585 ], [ -58.524221709367453, -34.79997136112587 ], [ -58.525297225742008, -34.800827967087969 ] ] ] ] } },
{ "type": "Feature", "properties": { "Id": 0, "Tipo": "Plataforma Aerolineas Argentinas", "IATA": "EZE", "Etiqueta": "EZE - Plataforma Aerolineas Argentinas", "Metros2": 86188.880029899999 }, "geometry": { "type": "MultiPolygon", "coordinates": [ [ [ [ -58.528659404143298, -34.804547064640076 ], [ -58.529002046528149, -34.804232975787329 ], [ -58.528509498099879, -34.803840364721339 ], [ -58.529016323294172, -34.80340492335722 ], [ -58.529473179807326, -34.803790396040256 ], [ -58.5299587908641, -34.803392464757565 ], [ -58.529523148488408, -34.803026589057311 ], [ -58.530029973682588, -34.802569732544271 ], [ -58.530508245344834, -34.802976620376228 ], [ -58.530979378624011, -34.802591147693306 ], [ -58.530486830195741, -34.802191398244304 ], [ -58.532335671397277, -34.800628092363468 ], [ -58.532214318885963, -34.80050673985221 ], [ -58.532221457269031, -34.800456771171014 ], [ -58.532299979482161, -34.800378248957827 ], [ -58.532414193610464, -34.800371110574872 ], [ -58.532585514802918, -34.800385387340896 ], [ -58.531093592752313, -34.799136170312863 ], [ -58.530700981686323, -34.799485951080669 ], [ -58.530836610963661, -34.799600165208858 ], [ -58.529373242445104, -34.800827967087969 ], [ -58.529872929256214, -34.801241993302938 ], [ -58.529537425254489, -34.801520390240626 ], [ -58.529708746446829, -34.801698849816091 ], [ -58.527481570945383, -34.803576244549731 ], [ -58.528659404143298, -34.804547064640076 ] ] ] ] } },
{ "type": "Feature", "properties": { "Id": 0, "Tipo": "Plataforma", "IATA": "SLA", "Etiqueta": "SLA - Plataforma", "Metros2": 14867.1179937 }, "geometry": { "type": "MultiPolygon", "coordinates": [ [ [ [ -65.480326451828319, -24.843777305929677 ], [ -65.4803736795742, -24.843781599361137 ], [ -65.480352212417074, -24.843901815441598 ], [ -65.480725740952721, -24.843918989167321 ], [ -65.480871717621881, -24.843523993474378 ], [ -65.481026281153902, -24.842566558262149 ], [ -65.480974759976561, -24.842566558262149 ], [ -65.481142203802904, -24.841407331771961 ], [ -65.4804595482031, -24.841308582848683 ], [ -65.480425200751597, -24.841647763932883 ], [ -65.480674219775381, -24.841660644227204 ], [ -65.480369386142797, -24.843532580337239 ], [ -65.479965803586992, -24.843476765728497 ], [ -65.479961510155533, -24.843575514651775 ], [ -65.480141834276139, -24.84360127524036 ], [ -65.480120367119014, -24.843747251909576 ], [ -65.480326451828319, -24.843777305929677 ] ] ] ] } },
{ "type": "Feature", "properties": { "Id": 0, "Tipo": "Plataforma comercial", "IATA": "TUC", "Etiqueta": "TUC - Plataforma comercial", "Metros2": 38204.574145099999 }, "geometry": { "type": "MultiPolygon", "coordinates": [ [ [ [ -65.1069963, -26.8371253 ], [ -65.108242165762903, -26.836954509199128 ], [ -65.107744587978445, -26.834265300723043 ], [ -65.106468073790651, -26.83446601526299 ], [ -65.1069963, -26.8371253 ] ] ] ] } },
{ "type": "Feature", "properties": { "Id": 0, "Tipo": "Plataforma comercial", "IATA": "REL", "Etiqueta": "REL - Plataforma comercial", "Metros2": 42925.236244899999 }, "geometry": { "type": "MultiPolygon", "coordinates": [ [ [ [ -65.283618870675454, -43.210887295537439 ], [ -65.283946238391223, -43.210213899499621 ], [ -65.280091041891112, -43.209139472967784 ], [ -65.279132774314903, -43.210890967386142 ], [ -65.279668342067097, -43.211030085030899 ], [ -65.281057306263691, -43.210860211885183 ], [ -65.281286301035053, -43.21049014066719 ], [ -65.28152195682263, -43.210384454560888 ], [ -65.281689874293036, -43.210351872810612 ], [ -65.283618870675454, -43.210887295537439 ] ] ] ] } },
{ "type": "Feature", "properties": { "Id": 0, "Tipo": "Plataforma Base Aeronaval", "IATA": "REL", "Etiqueta": "REL - Plataforma Base Aeronaval", "Metros2": 14950.214406200001 }, "geometry": { "type": "MultiPolygon", "coordinates": [ [ [ [ -65.274142242989001, -43.214459449396017 ], [ -65.272187166880457, -43.214494384371775 ], [ -65.272181169751846, -43.214600679084619 ], [ -65.272155539142545, -43.214657237304813 ], [ -65.272092018376625, -43.214722347094622 ], [ -65.272026160993164, -43.214766657976057 ], [ -65.271928184195048, -43.21478802935129 ], [ -65.271762287126407, -43.214788383631998 ], [ -65.271786993119434, -43.215555795723738 ], [ -65.272908616818015, -43.215520388454863 ], [ -65.272888998456281, -43.214682210104435 ], [ -65.273655962035591, -43.214671657181647 ], [ -65.273679160353993, -43.215316143720841 ], [ -65.274203172106496, -43.215303588527256 ], [ -65.274142242989001, -43.214459449396017 ] ] ] ] } },
{ "type": "Feature", "properties": { "Id": 0, "Tipo": "Plataforma comercial", "IATA": "NQN", "Etiqueta": "NQN - Plataforma comercial", "Metros2": 24209.538687299999 }, "geometry": { "type": "MultiPolygon", "coordinates": [ [ [ [ -68.139132096342948, -38.951930197341589 ], [ -68.139410510938418, -38.951928970845529 ], [ -68.139404782574132, -38.951726515479542 ], [ -68.140959522395391, -38.951720804773046 ], [ -68.140965239455667, -38.951922121821255 ], [ -68.141292646936165, -38.95192067949754 ], [ -68.141302164780242, -38.951716045851128 ], [ -68.141877518451437, -38.951719377096538 ], [ -68.141873298709299, -38.951105486816274 ], [ -68.141869791443028, -38.950857463629447 ], [ -68.141293598720608, -38.950847066691722 ], [ -68.139146373108886, -38.950855632751441 ], [ -68.139127337420916, -38.950873716655053 ], [ -68.139132096342948, -38.951930197341589 ] ] ] ] } },
{ "type": "Feature", "properties": { "Id": 0, "Tipo": "Plataforma comercial", "IATA": "COR", "Etiqueta": "COR - Plataforma comercial", "Metros2": 106399.990949 }, "geometry": { "type": "MultiPolygon", "coordinates": [ [ [ [ -64.212117287985308, -31.312210912513773 ], [ -64.210176460647332, -31.312166684582433 ], [ -64.210100707200965, -31.314381198127915 ], [ -64.210180060524081, -31.31446059765366 ], [ -64.210117224702572, -31.317206421266523 ], [ -64.210163318472269, -31.317573996814712 ], [ -64.210577671040781, -31.317887533341974 ], [ -64.211431257252485, -31.317199012931603 ], [ -64.211979885613985, -31.317218185732678 ], [ -64.212117287985308, -31.312210912513773 ] ] ] ] } },
{ "type": "Feature", "properties": { "Id": 0, "Tipo": "Plataforma Dirección General de Aeronáutica Provincia de Córdoba", "IATA": "COR", "Etiqueta": "COR - Plataforma Dirección General de Aeronáutica Provincia de Córdoba", "Metros2": 5256.3569887399999 }, "geometry": { "type": "MultiPolygon", "coordinates": [ [ [ [ -64.211525027542109, -31.319536702832352 ], [ -64.21151112623653, -31.320347181422392 ], [ -64.212125051024429, -31.320354940544462 ], [ -64.212138947075914, -31.3195444616901 ], [ -64.211525027542109, -31.319536702832352 ] ] ] ] } },
{ "type": "Feature", "properties": { "Id": 0, "Tipo": "Plataforma comercial", "IATA": "IGR", "Etiqueta": "IGR - Plataforma comercial", "Metros2": 23863.4698398 }, "geometry": { "type": "MultiPolygon", "coordinates": [ [ [ [ -54.478120806683606, -25.732380537234537 ], [ -54.477659746704255, -25.73147217594007 ], [ -54.475780416665948, -25.73226097101778 ], [ -54.476226004668142, -25.733173558633155 ], [ -54.478120806683606, -25.732380537234537 ] ] ] ] } },
{ "type": "Feature", "properties": { "Id": 0, "Tipo": "Plataforma aeroclub", "IATA": "IGR", "Etiqueta": "IGR - Plataforma aeroclub", "Metros2": 1878.15658373 }, "geometry": { "type": "MultiPolygon", "coordinates": [ [ [ [ -54.480786680397479, -25.730405871222736 ], [ -54.481438344768989, -25.730135153781056 ], [ -54.481333294692945, -25.729928448223838 ], [ -54.480681021063809, -25.730198594767522 ], [ -54.480786680397479, -25.730405871222736 ] ] ] ] } },
{ "type": "Feature", "properties": { "Id": 0, "Tipo": "Plataforma comercial", "IATA": "FDO", "Etiqueta": "FDO - Plataforma comercial", "Metros2": 10246.0410397 }, "geometry": { "type": "MultiPolygon", "coordinates": [ [ [ [ -58.583353429460487, -34.455461010747968 ], [ -58.584800840464617, -34.456075371498912 ], [ -58.585138102458657, -34.455534358837319 ], [ -58.58369119455169, -34.454916204901963 ], [ -58.583353429460487, -34.455461010747968 ] ] ] ] } },
{ "type": "Feature", "properties": { "Id": 0, "Tipo": "Plataforma comercial", "IATA": "BRC", "Etiqueta": "BRC - Plataforma comercial", "Metros2": 39712.187580899998 }, "geometry": { "type": "MultiPolygon", "coordinates": [ [ [ [ -71.162414499999954, -41.1459602 ], [ -71.1614671, -41.1462785 ], [ -71.1614924, -41.1463211 ], [ -71.16077869999998, -41.1465658 ], [ -71.160746499999973, -41.1465114 ], [ -71.1604565, -41.146604 ], [ -71.161469356320509, -41.148310577064066 ], [ -71.163794427770199, -41.14752945945736 ], [ -71.1633877, -41.146841499999979 ], [ -71.1630115, -41.1469678 ], [ -71.162414499999954, -41.1459602 ] ] ] ] } },
{ "type": "Feature", "properties": { "Id": 0, "Tipo": "Plataforma auxiliar", "IATA": "BRC", "Etiqueta": "BRC - Plataforma auxiliar", "Metros2": 7904.8587012999997 }, "geometry": { "type": "MultiPolygon", "coordinates": [ [ [ [ -71.158436598338753, -41.148322119639801 ], [ -71.158288742332118, -41.148060719481833 ], [ -71.158073386844222, -41.148126069606114 ], [ -71.157694104044651, -41.147491928612602 ], [ -71.157424106119521, -41.147625050322127 ], [ -71.156964466794619, -41.147835624116574 ], [ -71.156032331100732, -41.148167215947247 ], [ -71.155918666515987, -41.148019620760579 ], [ -71.15545376411832, -41.148186578922378 ], [ -71.156022688317691, -41.149111154329354 ], [ -71.158436598338753, -41.148322119639801 ] ] ] ] } },
{ "type": "Feature", "properties": { "Id": 0, "Tipo": "Plataforma comercial", "IATA": "MDZ", "Etiqueta": "MDZ - Plataforma comercial", "Metros2": 60191.275966300003 }, "geometry": { "type": "MultiPolygon", "coordinates": [ [ [ [ -68.79814468880204, -32.8265854498149 ], [ -68.796144812847615, -32.826596279468049 ], [ -68.796213400651141, -32.829493572682793 ], [ -68.798216886489911, -32.829468303492092 ], [ -68.79814468880204, -32.8265854498149 ] ] ] ] } },
{ "type": "Feature", "properties": { "Id": 0, "Tipo": "Plataforma comercial", "IATA": "CRD", "Etiqueta": "CRD - Plataforma comercial", "Metros2": 31085.018722699999 }, "geometry": { "type": "MultiPolygon", "coordinates": [ [ [ [ -67.467463389484408, -45.788970915259966 ], [ -67.467396487182157, -45.789754580210612 ], [ -67.471059155934796, -45.789882160324105 ], [ -67.471090814991442, -45.789816320112784 ], [ -67.471962555638214, -45.789822748239885 ], [ -67.472005885775502, -45.789090220382221 ], [ -67.467463389484408, -45.788970915259966 ] ] ] ] } },
{ "type": "Feature", "properties": { "Id": 0, "Tipo": "Plataforma comercial", "IATA": "USH", "Etiqueta": "USH - Plataforma comercial", "Metros2": 32698.973217399998 }, "geometry": { "type": "MultiPolygon", "coordinates": [ [ [ [ -68.311171790300577, -54.839728706342129 ], [ -68.3111585, -54.839838 ], [ -68.3098013, -54.839793 ], [ -68.30970419999997, -54.8407652 ], [ -68.309715244809141, -54.840765565945745 ], [ -68.309688694558744, -54.840997112091401 ], [ -68.313195914165362, -54.841135511056137 ], [ -68.313224422661207, -54.840881811386005 ], [ -68.313329699999983, -54.840885299999982 ], [ -68.3133546, -54.8406363 ], [ -68.313253, -54.8406329 ], [ -68.313256000311966, -54.84060079576566 ], [ -68.313328362087546, -54.839956821390508 ], [ -68.313316225580152, -54.839956358209157 ], [ -68.313329341310322, -54.839814538134291 ], [ -68.312552365003, -54.8397849174032 ], [ -68.3125485, -54.83973240000001 ], [ -68.311954556055682, -54.839715383772763 ], [ -68.311951601640359, -54.839759868623688 ], [ -68.311171790300577, -54.839728706342129 ] ] ] ] } },
{ "type": "Feature", "properties": { "Id": 0, "Tipo": "Plataforma provincial", "IATA": "SFN", "Etiqueta": "SFN - Plataforma provincial", "Metros2": 3171.5057489599999 }, "geometry": { "type": "MultiPolygon", "coordinates": [ [ [ [ -60.810039598939994, -31.717670330326662 ], [ -60.81028438738344, -31.717586326135688 ], [ -60.809762302686536, -31.716536549865943 ], [ -60.809521318935907, -31.716629806322331 ], [ -60.810039598939994, -31.717670330326662 ] ] ] ] } },
{ "type": "Feature", "properties": { "Id": 0, "Tipo": "Plataforma comercial", "IATA": "SFN", "Etiqueta": "SFN - Plataforma comercial", "Metros2": 18717.4399705 }, "geometry": { "type": "MultiPolygon", "coordinates": [ [ [ [ -60.806600494131956, -31.707875732766347 ], [ -60.805838045639305, -31.708143021865045 ], [ -60.806502485417518, -31.709451161813167 ], [ -60.806576496812148, -31.709617718832494 ], [ -60.80657732292449, -31.709713156566497 ], [ -60.806781456032866, -31.710079320453669 ], [ -60.807599944176886, -31.709835531454562 ], [ -60.806998209809088, -31.70867970939414 ], [ -60.806872969509406, -31.708398945217031 ], [ -60.806855604000226, -31.708327472873872 ], [ -60.806600494131956, -31.707875732766347 ] ] ] ] } },
{ "type": "Feature", "properties": { "Id": 0, "Tipo": "Plataforma militar", "IATA": "PRA", "Etiqueta": "PRA - Plataforma militar", "Metros2": 20840.118899900001 }, "geometry": { "type": "MultiPolygon", "coordinates": [ [ [ [ -60.474786927348418, -31.780920521508566 ], [ -60.474003972534938, -31.781023291991644 ], [ -60.473943941453612, -31.780866590013339 ], [ -60.470342674443053, -31.781456519264889 ], [ -60.470361179961301, -31.781611413841127 ], [ -60.472528306863488, -31.781299125352724 ], [ -60.472621742949748, -31.781863945920488 ], [ -60.474894131697717, -31.781453184619082 ], [ -60.474786927348418, -31.780920521508566 ] ] ] ] } },
{ "type": "Feature", "properties": { "Id": 0, "Tipo": "Plataforma comercial", "IATA": "PRA", "Etiqueta": "PRA - Plataforma comercial", "Metros2": 13733.1350336 }, "geometry": { "type": "MultiPolygon", "coordinates": [ [ [ [ -60.483463435633269, -31.788898661071936 ], [ -60.482542102906216, -31.789005951751069 ], [ -60.482754590121438, -31.790383126385574 ], [ -60.483681086369302, -31.790285422559215 ], [ -60.483463435633269, -31.788898661071936 ] ] ] ] } },
{ "type": "Feature", "properties": { "Id": 0, "Tipo": "Plataforma comercial", "IATA": "FTE", "Etiqueta": "FTE - Plataforma comercial", "Metros2": 45784.479045100001 }, "geometry": { "type": "MultiPolygon", "coordinates": [ [ [ [ -72.056574161987697, -50.283967438638435 ], [ -72.05677920692014, -50.282675645196534 ], [ -72.052393069633098, -50.282376435924526 ], [ -72.052180108805928, -50.283675186154895 ], [ -72.056574161987697, -50.283967438638435 ] ] ] ] } },
{ "type": "Feature", "properties": { "Id": 0, "Tipo": "Plataforma militar", "IATA": "RGA", "Etiqueta": "RGA - Plataforma militar", "Metros2": 24228.6808642 }, "geometry": { "type": "MultiPolygon", "coordinates": [ [ [ [ -67.756881162608067, -53.780826079069683 ], [ -67.754514893852516, -53.780764360641861 ], [ -67.754394049648766, -53.782208838439956 ], [ -67.755453701072781, -53.782242938391306 ], [ -67.756046306564485, -53.782183293706851 ], [ -67.756784276150114, -53.78202799045873 ], [ -67.756881162608067, -53.780826079069683 ] ] ] ] } },
{ "type": "Feature", "properties": { "Id": 0, "Tipo": "Plataforma comercial", "IATA": "RGA", "Etiqueta": "RGA - Plataforma comercial", "Metros2": 8859.4433426199994 }, "geometry": { "type": "MultiPolygon", "coordinates": [ [ [ [ -67.754512574985682, -53.780772509937556 ], [ -67.752352119922335, -53.780707100660038 ], [ -67.752305308860258, -53.781272561373434 ], [ -67.754464500679319, -53.781322222750774 ], [ -67.754512574985682, -53.780772509937556 ] ] ] ] } },
{ "type": "Feature", "properties": { "Id": 0, "Tipo": "Plataforma comercial", "IATA": "RGL", "Etiqueta": "RGL - Plataforma comercial", "Metros2": 19861.443397399999 }, "geometry": { "type": "MultiPolygon", "coordinates": [ [ [ [ -69.303429825443942, -51.611850011943027 ], [ -69.304186858782785, -51.612407014212856 ], [ -69.306423720394577, -51.611207479482715 ], [ -69.306443944196431, -51.610766938303435 ], [ -69.306453918262477, -51.610667901735617 ], [ -69.306574565032165, -51.610593133535964 ], [ -69.306868864932397, -51.610542015354959 ], [ -69.30506469242134, -51.610478688474636 ], [ -69.305242487372979, -51.610559317563805 ], [ -69.305313816015499, -51.610711800255864 ], [ -69.305276641780068, -51.610841589186506 ], [ -69.305187060145386, -51.610946058825085 ], [ -69.305105077406395, -51.610990371140751 ], [ -69.303429825443942, -51.611850011943027 ] ] ] ] } },
{ "type": "Feature", "properties": { "Id": 0, "Tipo": "Plataforma comercial", "IATA": "PMY", "Etiqueta": "PMY - Plataforma comercial", "Metros2": 4075.23085833 }, "geometry": { "type": "MultiPolygon", "coordinates": [ [ [ [ -65.100704093655978, -42.75586259677079 ], [ -65.10102756544515, -42.755481470797555 ], [ -65.100178068993557, -42.755091058410414 ], [ -65.099862245852307, -42.755475698624934 ], [ -65.100704093655978, -42.75586259677079 ] ] ] ] } },
{ "type": "Feature", "properties": { "Id": 0, "Tipo": "Plataforma comercial", "IATA": "EQS", "Etiqueta": "EQS - Plataforma comercial", "Metros2": 8574.3583377800005 }, "geometry": { "type": "MultiPolygon", "coordinates": [ [ [ [ -71.146714102072892, -42.907069679619383 ], [ -71.147274673398826, -42.906439044580111 ], [ -71.146232763836935, -42.905937053669611 ], [ -71.145670966728844, -42.906575163280905 ], [ -71.146714102072892, -42.907069679619383 ] ] ] ] } },
{ "type": "Feature", "properties": { "Id": 0, "Tipo": "Plataforma comercial", "IATA": "BHI", "Etiqueta": "BHI - Plataforma comercial", "Metros2": 13417.675456299999 }, "geometry": { "type": "MultiPolygon", "coordinates": [ [ [ [ -62.1634216056855, -38.716829743174017 ], [ -62.163209405325667, -38.715499621277139 ], [ -62.162179439480383, -38.715593520078635 ], [ -62.162346847700405, -38.716599748864049 ], [ -62.162403084847199, -38.716927061431427 ], [ -62.1634216056855, -38.716829743174017 ] ] ] ] } },
{ "type": "Feature", "properties": { "Id": 0, "Tipo": "Plataforma militar", "IATA": "BHI", "Etiqueta": "BHI - Plataforma militar", "Metros2": 59621.736903700003 }, "geometry": { "type": "MultiPolygon", "coordinates": [ [ [ [ -62.163452102504813, -38.732473277344511 ], [ -62.163014810560618, -38.731582610987182 ], [ -62.16241609999998, -38.7317808 ], [ -62.16237578977529, -38.731597469918462 ], [ -62.1622349, -38.7309567 ], [ -62.161414499999985, -38.731114099999978 ], [ -62.1616025, -38.7320341 ], [ -62.160615300000011, -38.732289799999975 ], [ -62.15968723532901, -38.732403527830591 ], [ -62.1591035, -38.7324768 ], [ -62.159124, -38.73264480000001 ], [ -62.1586385, -38.7326795 ], [ -62.158630199999983, -38.7325502 ], [ -62.157995023815189, -38.732557230462334 ], [ -62.157707764107684, -38.732541004381567 ], [ -62.157054728188498, -38.732531918032961 ], [ -62.156368174166808, -38.732484273543861 ], [ -62.155947988980337, -38.732430739851161 ], [ -62.155957930154671, -38.732349365325369 ], [ -62.155467489236017, -38.732303371868966 ], [ -62.155114664807989, -38.732232192581321 ], [ -62.155543, -38.730980700000011 ], [ -62.1547636, -38.7308054 ], [ -62.154150992390463, -38.732374996756242 ], [ -62.154380585815979, -38.732406448052309 ], [ -62.154431298061141, -38.732483142852089 ], [ -62.154330279878657, -38.732901890567376 ], [ -62.154286861421888, -38.733079023350065 ], [ -62.154844102149703, -38.733146405943934 ], [ -62.15499775738386, -38.732628920439772 ], [ -62.155773615812386, -38.732713630068318 ], [ -62.15743684065783, -38.732916282712289 ], [ -62.158168781586895, -38.732881218183806 ], [ -62.158185358592171, -38.733276139066987 ], [ -62.158624610114522, -38.73330045414032 ], [ -62.158595361154077, -38.733141741476821 ], [ -62.159228894823244, -38.733063994323508 ], [ -62.159257089563212, -38.733242390937761 ], [ -62.159700563583471, -38.73318796578917 ], [ -62.159657792560431, -38.732811901987553 ], [ -62.16035467554849, -38.732726373342018 ], [ -62.161490373988741, -38.732438364338812 ], [ -62.162718237568207, -38.732074498641026 ], [ -62.162992378565924, -38.732596198568167 ], [ -62.163452102504813, -38.732473277344511 ] ] ] ] } },
{ "type": "Feature", "properties": { "Id": 0, "Tipo": "Plataforma comercial", "IATA": "PSS", "Etiqueta": "PSS - Plataforma comercial", "Metros2": 15951.752909299999 }, "geometry": { "type": "MultiPolygon", "coordinates": [ [ [ [ -55.967095998713376, -27.392660759097964 ], [ -55.967837189905197, -27.392662865224963 ], [ -55.967872886671273, -27.390754614909156 ], [ -55.967131899950232, -27.390736817372044 ], [ -55.967095998713376, -27.392660759097964 ] ] ] ] } },
{ "type": "Feature", "properties": { "Id": 0, "Tipo": "Plataforma TAPSA y Prefectura Naval", "IATA": "CRD", "Etiqueta": "CRD - Plataforma TAPSA y Prefectura Naval", "Metros2": 2562.1159035000001 }, "geometry": { "type": "MultiPolygon", "coordinates": [ [ [ [ -67.46397511589042, -45.790671140239795 ], [ -67.46444771821028, -45.790720146493967 ], [ -67.464581226651077, -45.790114692710326 ], [ -67.464098571863673, -45.790062827522071 ], [ -67.46397511589042, -45.790671140239795 ] ] ] ] } },
{ "type": "Feature", "properties": { "Id": 0, "Tipo": "Plataforma Norte Brigada Aérea", "IATA": "CRD", "Etiqueta": "CRD - Plataforma Norte Brigada Aérea", "Metros2": 8081.6729257300003 }, "geometry": { "type": "MultiPolygon", "coordinates": [ [ [ [ -67.476166098252961, -45.790039710753597 ], [ -67.475049739992471, -45.79000474303983 ], [ -67.474996247876376, -45.7908403873043 ], [ -67.476112622817837, -45.790875355331735 ], [ -67.476166098252961, -45.790039710753597 ] ] ] ] } },
{ "type": "Feature", "properties": { "Id": 0, "Tipo": "Plataforma Sur  Brigada Aérea", "IATA": "CRD", "Etiqueta": "CRD - Plataforma Sur  Brigada Aérea", "Metros2": 2352.89520262 }, "geometry": { "type": "MultiPolygon", "coordinates": [ [ [ [ -67.476303003496369, -45.792646971082789 ], [ -67.475771529392475, -45.79263319747826 ], [ -67.475744445021377, -45.793144571299784 ], [ -67.476275923987259, -45.793158344969619 ], [ -67.476303003496369, -45.792646971082789 ] ] ] ] } },
{ "type": "Feature", "properties": { "Id": 0, "Tipo": "Plataforma aviación general", "IATA": "ROS", "Etiqueta": "ROS - Plataforma aviación general", "Metros2": 11225.3701642 }, "geometry": { "type": "MultiPolygon", "coordinates": [ [ [ [ -60.7823708, -32.919979 ], [ -60.782408038775671, -32.920180184886284 ], [ -60.781858061746554, -32.920252179577538 ], [ -60.781860567721452, -32.920268794118179 ], [ -60.781839, -32.9202719 ], [ -60.7818813, -32.920504399999984 ], [ -60.7811335, -32.9206214 ], [ -60.780964499999982, -32.9206439 ], [ -60.7806579, -32.9209519 ], [ -60.7804496, -32.9209788 ], [ -60.780493, -32.921215 ], [ -60.7806008, -32.9212013 ], [ -60.780653300000019, -32.9211943 ], [ -60.7807911, -32.9211765 ], [ -60.7808306, -32.921171099999988 ], [ -60.781103399999985, -32.921136299999986 ], [ -60.781147, -32.921130399999988 ], [ -60.781547, -32.92107870000001 ], [ -60.7815779, -32.9210747 ], [ -60.7815346, -32.920838499999988 ], [ -60.7813841, -32.920858 ], [ -60.7813735, -32.9207464 ], [ -60.781386899999973, -32.920692299999985 ], [ -60.7814419, -32.920663099999977 ], [ -60.7819, -32.9206076 ], [ -60.7819134, -32.9206811 ], [ -60.7819914, -32.9206693 ], [ -60.7820119, -32.920839 ], [ -60.782254399999985, -32.920807699999983 ], [ -60.782217799999977, -32.9206451 ], [ -60.782310699999982, -32.920635 ], [ -60.782376, -32.9206811 ], [ -60.7823988, -32.9208117 ], [ -60.782357199999986, -32.9208601 ], [ -60.782375, -32.9209634 ], [ -60.782591799999985, -32.9209387 ], [ -60.7825704, -32.9208331 ], [ -60.782510199999983, -32.9207937 ], [ -60.782483299999974, -32.9206675 ], [ -60.7825312, -32.9206051 ], [ -60.7826139, -32.920597 ], [ -60.782648799999983, -32.920613699999983 ], [ -60.7826975, -32.9209071 ], [ -60.782959899999973, -32.9208716 ], [ -60.783018599999984, -32.9208628 ], [ -60.782952799999983, -32.9205574 ], [ -60.782822, -32.9205736 ], [ -60.782807067427747, -32.920503465081481 ], [ -60.782809250734154, -32.920503172375987 ], [ -60.78280826952362, -32.920497282765666 ], [ -60.782863299999988, -32.9203879 ], [ -60.782932399999979, -32.920235 ], [ -60.782893, -32.9202094 ], [ -60.7827869, -32.9201355 ], [ -60.782748908434264, -32.920140973378246 ], [ -60.782748026155708, -32.920135677571047 ], [ -60.782644072220251, -32.920149286153794 ], [ -60.7826073, -32.919951199999986 ], [ -60.7823708, -32.919979 ] ], [ [ -60.7812743, -32.9207137 ], [ -60.7812975, -32.920869199999984 ], [ -60.7811482, -32.9208882 ], [ -60.78116570000001, -32.9209918 ], [ -60.7809712, -32.9210143 ], [ -60.780958500000011, -32.920913 ], [ -60.781002, -32.9208364 ], [ -60.781070399999983, -32.9207588 ], [ -60.781150899999986, -32.9207081 ], [ -60.7812287, -32.9207014 ], [ -60.7812743, -32.9207137 ] ] ] ] } },
{ "type": "Feature", "properties": { "Id": 0, "Tipo": "Plataforma comercial", "IATA": "RES", "Etiqueta": "RES - Plataforma comercial", "Metros2": 51899.082126900001 }, "geometry": { "type": "MultiPolygon", "coordinates": [ [ [ [ -59.049682006514608, -27.444948097803447 ], [ -59.048949872972628, -27.445227901707579 ], [ -59.049031576542419, -27.445517301274862 ], [ -59.048929440055879, -27.445552301266545 ], [ -59.04873737577023, -27.445190500515547 ], [ -59.04852924213759, -27.445242475012328 ], [ -59.048835391984106, -27.445991071782707 ], [ -59.048730480656829, -27.44605481731605 ], [ -59.048721101467997, -27.446212326617335 ], [ -59.04825531715916, -27.446230632710982 ], [ -59.048199915999803, -27.446425126455754 ], [ -59.048217203863516, -27.446626597000158 ], [ -59.048287660242245, -27.446777239287506 ], [ -59.048388002319648, -27.446929380116941 ], [ -59.048564178386279, -27.447067491919864 ], [ -59.048767778993955, -27.447166857867121 ], [ -59.048968918389875, -27.447225979384235 ], [ -59.049186960318096, -27.447254743026626 ], [ -59.049357432200885, -27.447245458444335 ], [ -59.049554208356554, -27.447215203064804 ], [ -59.049756245308629, -27.447180753257864 ], [ -59.050018110508155, -27.447069060749829 ], [ -59.050309917587064, -27.446878626940773 ], [ -59.050545813998639, -27.446703221259824 ], [ -59.050767606418468, -27.446513734491948 ], [ -59.051603784721138, -27.445851300547623 ], [ -59.051427325718528, -27.445717636135306 ], [ -59.049718494908021, -27.445003421395839 ], [ -59.049682006514608, -27.444948097803447 ] ] ] ] } },
{ "type": "Feature", "properties": { "Id": 0, "Tipo": "Plataforma comercial", "IATA": "JUJ", "Etiqueta": "JUJ - Plataforma comercial", "Metros2": 20345.7570796 }, "geometry": { "type": "MultiPolygon", "coordinates": [ [ [ [ -65.093847412445754, -24.38705317443263 ], [ -65.094499100664905, -24.387420266075196 ], [ -65.095780630399247, -24.385390339985406 ], [ -65.095105779689334, -24.385025711169078 ], [ -65.093847412445754, -24.38705317443263 ] ] ] ] } },
{ "type": "Feature", "properties": { "Id": 0, "Tipo": "Plataforma comercial", "IATA": "JNI", "Etiqueta": "JNI - Plataforma comercial", "Metros2": 1853.72520057 }, "geometry": { "type": "MultiPolygon", "coordinates": [ [ [ [ -60.931296052890573, -34.552165997348411 ], [ -60.931666878218202, -34.551838162448313 ], [ -60.931370538682351, -34.551608699838177 ], [ -60.931003410717274, -34.551939954005512 ], [ -60.931296052890573, -34.552165997348411 ] ] ] ] } },
{ "type": "Feature", "properties": { "Id": 0, "Tipo": "Plataforma comercial", "IATA": "RCQ", "Etiqueta": "RCQ - Plataforma comercial", "Metros2": 17936.686760699999 }, "geometry": { "type": "MultiPolygon", "coordinates": [ [ [ [ -59.692114203944698, -29.205729936607497 ], [ -59.693150073539243, -29.205624272398381 ], [ -59.693016678643289, -29.204660132134393 ], [ -59.693292946564554, -29.204642054106614 ], [ -59.69322578128947, -29.204148904423676 ], [ -59.691926449450875, -29.204279371162045 ], [ -59.692114203944698, -29.205729936607497 ] ] ] ] } },
{ "type": "Feature", "properties": { "Id": 0, "Tipo": "Plataforma militar", "IATA": "RCQ", "Etiqueta": "RCQ - Plataforma militar", "Metros2": 49068.797971200001 }, "geometry": { "type": "MultiPolygon", "coordinates": [ [ [ [ -59.69136096087243, -29.202572343005329 ], [ -59.694298887911032, -29.202247205205708 ], [ -59.694080184779807, -29.200723627445939 ], [ -59.691133146651339, -29.201082453866604 ], [ -59.69136096087243, -29.202572343005329 ] ] ] ] } },
{ "type": "Feature", "properties": { "Id": 0, "Tipo": "Plataforma comercial", "IATA": "MDQ", "Etiqueta": "MDQ - Plataforma comercial", "Metros2": 38872.5467909 }, "geometry": { "type": "MultiPolygon", "coordinates": [ [ [ [ -57.580092025160759, -37.935309577081732 ], [ -57.581062051289642, -37.934865286422493 ], [ -57.581138194041785, -37.934965223784722 ], [ -57.581918536229665, -37.934661399548084 ], [ -57.581630329540324, -37.934135044731804 ], [ -57.581446089391207, -37.933824364170853 ], [ -57.580911186305478, -37.933717836931322 ], [ -57.581128896109256, -37.933036753916809 ], [ -57.581254547546216, -37.933075113795773 ], [ -57.581264644672267, -37.933003836830295 ], [ -57.58127593442611, -37.932924140669712 ], [ -57.581227095315811, -37.932835648654454 ], [ -57.581276432159264, -37.932779723560671 ], [ -57.581338068766293, -37.932719012595207 ], [ -57.581409303695182, -37.932676723044374 ], [ -57.580963103863425, -37.932104787021274 ], [ -57.580807501877345, -37.932195484212897 ], [ -57.58067633866267, -37.932278146719327 ], [ -57.58057998920026, -37.932350337404223 ], [ -57.580433590406642, -37.932466518782689 ], [ -57.580333003735177, -37.932583218610361 ], [ -57.580286545084675, -37.932666976339021 ], [ -57.580231251617562, -37.932758014106881 ], [ -57.580179890311427, -37.932885682928308 ], [ -57.5801526400287, -37.93300447100102 ], [ -57.580140758361331, -37.9331182703189 ], [ -57.580150573942021, -37.933274679329642 ], [ -57.580166232027508, -37.933352044661383 ], [ -57.580178149637725, -37.933422388069445 ], [ -57.580189549426386, -37.933494971181986 ], [ -57.580201334958574, -37.933570010345811 ], [ -57.580213964490198, -37.933650423303327 ], [ -57.580241820767952, -37.933707831208828 ], [ -57.579303010734037, -37.93412875217134 ], [ -57.580092025160759, -37.935309577081732 ] ] ] ] } },
{ "type": "Feature", "properties": { "Id": 0, "Tipo": "Plataforma comercial", "IATA": "CPC", "Etiqueta": "CPC - Plataforma comercial", "Metros2": 14247.6369617 }, "geometry": { "type": "MultiPolygon", "coordinates": [ [ [ [ -71.142441004558762, -40.081446768039818 ], [ -71.143138141667947, -40.080643570391238 ], [ -71.143091373539306, -40.080611738309777 ], [ -71.142507600027457, -40.080434020750211 ], [ -71.142166153071813, -40.080330074410703 ], [ -71.142109742624328, -40.080307581623259 ], [ -71.142036550200473, -40.080235538048662 ], [ -71.141849545769375, -40.080405649253215 ], [ -71.141760130281611, -40.080487997539528 ], [ -71.141677944884805, -40.08056185090166 ], [ -71.141560604756663, -40.080481599034101 ], [ -71.141403088156792, -40.080430599757285 ], [ -71.141261141578042, -40.080390664379344 ], [ -71.14105678078306, -40.080363647804965 ], [ -71.141053169160827, -40.080446377876328 ], [ -71.140898444053505, -40.080724949381626 ], [ -71.140910682812418, -40.080835736681429 ], [ -71.140959378504732, -40.08082882007551 ], [ -71.141039503040147, -40.080820969593482 ], [ -71.141184486682207, -40.080864188055386 ], [ -71.141280603235131, -40.08091565093661 ], [ -71.141373620791768, -40.080994947021303 ], [ -71.141420216494339, -40.081125540659059 ], [ -71.142441004558762, -40.081446768039818 ] ] ] ] } },
{ "type": "Feature", "properties": { "Id": 0, "Tipo": "Plataforma comercial", "IATA": "VLG", "Etiqueta": "VLG - Plataforma comercial", "Metros2": 4487.3728488400002 }, "geometry": { "type": "MultiPolygon", "coordinates": [ [ [ [ -57.020727125451387, -37.234822997010269 ], [ -57.020863478901262, -37.235340413772086 ], [ -57.020956855106249, -37.235328258961715 ], [ -57.02123259515907, -37.235280896428456 ], [ -57.021431922789311, -37.23524923250045 ], [ -57.021504199792055, -37.235266546763704 ], [ -57.021615427580478, -37.235320256354804 ], [ -57.021762049043481, -37.235166841052212 ], [ -57.021694943703253, -37.235137481387689 ], [ -57.0216728359878, -37.235121568168118 ], [ -57.021599288629076, -37.235039750652703 ], [ -57.021505526414465, -37.234691856342728 ], [ -57.020727125451387, -37.234822997010269 ] ] ] ] } },
{ "type": "Feature", "properties": { "Id": 0, "Tipo": "Plataforma comercial", "IATA": "CNQ", "Etiqueta": "CNQ - Plataforma comercial", "Metros2": 17097.742456799999 }, "geometry": { "type": "MultiPolygon", "coordinates": [ [ [ [ -58.757615789562742, -27.448912729672053 ], [ -58.759154199584231, -27.44872039728633 ], [ -58.758999263862627, -27.44770908995428 ], [ -58.757753316485307, -27.447862890131315 ], [ -58.757513961121511, -27.44816585134312 ], [ -58.757615789562742, -27.448912729672053 ] ] ] ] } },
{ "type": "Feature", "properties": { "Id": 0, "Tipo": "Plataforma comercial", "IATA": "LPG", "Etiqueta": "LPG - Plataforma comercial", "Metros2": 3709.90900564 }, "geometry": { "type": "MultiPolygon", "coordinates": [ [ [ [ -57.894820216016775, -34.966167551364762 ], [ -57.895318775211777, -34.966063621042487 ], [ -57.895110729616164, -34.9653726137226 ], [ -57.894626388252838, -34.965471355259837 ], [ -57.894820216016775, -34.966167551364762 ] ] ] ] } },
{ "type": "Feature", "properties": { "Id": 0, "Tipo": "Plataforma aviación general", "IATA": "FMA", "Etiqueta": "FMA - Plataforma aviación general", "Metros2": 4592.3422207800004 }, "geometry": { "type": "MultiPolygon", "coordinates": [ [ [ [ -58.230779264903198, -26.214917029126692 ], [ -58.230369218497984, -26.215085505257818 ], [ -58.230796777796044, -26.215909720159583 ], [ -58.231203950626742, -26.215736271440946 ], [ -58.230779264903198, -26.214917029126692 ] ] ] ] } },
{ "type": "Feature", "properties": { "Id": 0, "Tipo": "Plataforma comercial", "IATA": "FMA", "Etiqueta": "FMA - Plataforma comercial", "Metros2": 7981.3598618699998 }, "geometry": { "type": "MultiPolygon", "coordinates": [ [ [ [ -58.230176374198734, -26.213795603896337 ], [ -58.229771904721645, -26.213965718611796 ], [ -58.229668555609202, -26.214214984736184 ], [ -58.229618201188636, -26.214288573484609 ], [ -58.229822452365738, -26.214672397898024 ], [ -58.229921721964153, -26.214734856472752 ], [ -58.230034941566238, -26.214796748628281 ], [ -58.230161301004671, -26.214862008694126 ], [ -58.23026179847632, -26.21493913192311 ], [ -58.230299103200288, -26.214977465496432 ], [ -58.23069646987723, -26.214801775466263 ], [ -58.230176374198734, -26.213795603896337 ] ] ] ] } },
{ "type": "Feature", "properties": { "Id": 0, "Tipo": "Plataforma provincial", "IATA": "FMA", "Etiqueta": "FMA - Plataforma provincial", "Metros2": 4972.3883468200002 }, "geometry": { "type": "MultiPolygon", "coordinates": [ [ [ [ -58.233237663292179, -26.218429391999216 ], [ -58.232830116397864, -26.218601412401462 ], [ -58.233268886186451, -26.219482300331286 ], [ -58.233691385297924, -26.219303968743962 ], [ -58.233237663292179, -26.218429391999216 ] ] ] ] } },
{ "type": "Feature", "properties": { "Id": 0, "Tipo": "Plataforma comercial", "IATA": "GPO", "Etiqueta": "GPO - Plataforma comercial", "Metros2": 7853.8687338199998 }, "geometry": { "type": "MultiPolygon", "coordinates": [ [ [ [ -63.758972723211023, -35.688424628391076 ], [ -63.758548874509387, -35.689368131813119 ], [ -63.759280010572397, -35.689590801384533 ], [ -63.759698625336952, -35.688647197831557 ], [ -63.758972723211023, -35.688424628391076 ] ] ] ] } },
{ "type": "Feature", "properties": { "Id": 0, "Tipo": "Plataforma comercial", "IATA": "GNR", "Etiqueta": "GNR - Plataforma comercial", "Metros2": 12465.2688112 }, "geometry": { "type": "MultiPolygon", "coordinates": [ [ [ [ -67.608732238547688, -39.002985776392457 ], [ -67.608800370899218, -39.003527182194048 ], [ -67.610056162247744, -39.00347267250612 ], [ -67.610049926613939, -39.003415062257844 ], [ -67.61041606446588, -39.003402314861809 ], [ -67.610425178785263, -39.003441935377175 ], [ -67.611076935195683, -39.003416267121203 ], [ -67.611065232633749, -39.003262571914817 ], [ -67.611112747260236, -39.003251657688146 ], [ -67.611098243998001, -39.002834802144221 ], [ -67.608732238547688, -39.002985776392457 ] ] ] ] } },
{ "type": "Feature", "properties": { "Id": 0, "Tipo": "Plataforma comercial", "IATA": "IRJ", "Etiqueta": "IRJ - Plataforma comercial", "Metros2": 12477.2837316 }, "geometry": { "type": "MultiPolygon", "coordinates": [ [ [ [ -66.794096957078338, -29.383558511778418 ], [ -66.795033577210887, -29.384380503736438 ], [ -66.795185008612975, -29.384147713923539 ], [ -66.794296814568725, -29.383368739377428 ], [ -66.794278475372593, -29.383074658278463 ], [ -66.794482264748467, -29.382982549932542 ], [ -66.794520064868948, -29.382983175502492 ], [ -66.794576765051886, -29.382984113837381 ], [ -66.794652067708157, -29.382999159098048 ], [ -66.794726953774386, -29.383033516177186 ], [ -66.794809624408359, -29.383142850131712 ], [ -66.794966916200522, -29.383031913480526 ], [ -66.794166154936477, -29.381745217543703 ], [ -66.794022596760371, -29.381827553237297 ], [ -66.794057109850712, -29.381948859515333 ], [ -66.794056216871411, -29.38199024206007 ], [ -66.794039216795909, -29.38204791692192 ], [ -66.794019364383416, -29.382091745458453 ], [ -66.793976926262289, -29.382160038524656 ], [ -66.793699960156673, -29.382290684840633 ], [ -66.794108370509264, -29.382950819862231 ], [ -66.794182772061546, -29.383113677541928 ], [ -66.794209054427995, -29.383452071018315 ], [ -66.794096957078338, -29.383558511778418 ] ] ] ] } },
{ "type": "Feature", "properties": { "Id": 0, "Tipo": "Plataforma comercial", "IATA": "SDE", "Etiqueta": "SDE - Plataforma comercial", "Metros2": 9816.8016782300001 }, "geometry": { "type": "MultiPolygon", "coordinates": [ [ [ [ -64.300331510266489, -27.755806825025122 ], [ -64.299804405530367, -27.75546873158828 ], [ -64.29889300770688, -27.756616492048124 ], [ -64.2994032376631, -27.756942791890161 ], [ -64.299659117354622, -27.756629912437241 ], [ -64.300331510266489, -27.755806825025122 ] ] ] ] } },
{ "type": "Feature", "properties": { "Id": 0, "Tipo": "Plataforma comercial", "IATA": "CTC", "Etiqueta": "CTC - Plataforma comercial", "Metros2": 4665.7363211800002 }, "geometry": { "type": "MultiPolygon", "coordinates": [ [ [ [ -65.754288147449387, -28.592061696919064 ], [ -65.754136578181431, -28.592098123337891 ], [ -65.754047703681152, -28.592105139745801 ], [ -65.753949473970295, -28.592081751719405 ], [ -65.753893342706974, -28.59205836369302 ], [ -65.753837211443624, -28.592020942850809 ], [ -65.754115528957669, -28.593211393394064 ], [ -65.754143594589337, -28.593173972551813 ], [ -65.754173999023664, -28.593134212906943 ], [ -65.754206742260592, -28.593087436854187 ], [ -65.754269889931834, -28.593035983196099 ], [ -65.754342392813641, -28.593017272775004 ], [ -65.75450377019574, -28.592977513130155 ], [ -65.754288147449387, -28.592061696919064 ] ] ] ] } },
{ "type": "Feature", "properties": { "Id": 0, "Tipo": "Plataforma comercial", "IATA": "LUQ", "Etiqueta": "LUQ - Plataforma comercial", "Metros2": 21653.4254879 }, "geometry": { "type": "MultiPolygon", "coordinates": [ [ [ [ -66.352209811388207, -33.273772026019572 ], [ -66.351471675420882, -33.273836139773003 ], [ -66.351518691803889, -33.274229625690523 ], [ -66.351545159162598, -33.27448481683146 ], [ -66.351552270341898, -33.274627632819417 ], [ -66.35153174934139, -33.274722587698747 ], [ -66.351489880233117, -33.274835641569126 ], [ -66.351382438991763, -33.274955223710933 ], [ -66.351043102212259, -33.275321174317959 ], [ -66.350949764297738, -33.275416860573706 ], [ -66.350967758759339, -33.275655366599167 ], [ -66.351314902166422, -33.276251330274732 ], [ -66.351588925328983, -33.276164122985705 ], [ -66.351540061819094, -33.27601874152208 ], [ -66.351548113372033, -33.275901825921153 ], [ -66.351587452775348, -33.275796749676786 ], [ -66.351669344301783, -33.275679625215737 ], [ -66.351918230826072, -33.275421279568569 ], [ -66.352514928914616, -33.27478741344985 ], [ -66.353053447182234, -33.274218915575311 ], [ -66.35286855614369, -33.274109816348719 ], [ -66.352795778467254, -33.274186865769877 ], [ -66.352695365986904, -33.274247116496404 ], [ -66.352569705256201, -33.274283903172986 ], [ -66.352444057548112, -33.274253053401232 ], [ -66.352350144482685, -33.27420640625769 ], [ -66.352288186901276, -33.274147092868304 ], [ -66.352253579172967, -33.274062941402015 ], [ -66.352209811388207, -33.273772026019572 ] ] ] ] } },
{ "type": "Feature", "properties": { "Id": 0, "Tipo": "Plataforma comercial", "IATA": "RSA", "Etiqueta": "RSA - Plataforma comercial", "Metros2": 6321.8970908600004 }, "geometry": { "type": "MultiPolygon", "coordinates": [ [ [ [ -64.278638823581744, -36.592360264479204 ], [ -64.278853588945211, -36.592578160572089 ], [ -64.279196659814772, -36.592579937419508 ], [ -64.279156663502221, -36.591213676506484 ], [ -64.279061910789835, -36.591216671254195 ], [ -64.278631779923415, -36.591581330633552 ], [ -64.278638823581744, -36.592360264479204 ] ] ] ] } },
{ "type": "Feature", "properties": { "Id": 0, "Tipo": "Plataforma comercial", "IATA": "LGS", "Etiqueta": "LGS - Plataforma comercial", "Metros2": 8633.2193240899996 }, "geometry": { "type": "MultiPolygon", "coordinates": [ [ [ [ -69.583941853950819, -35.483954451215027 ], [ -69.584429641175745, -35.483961773106216 ], [ -69.584424086332831, -35.483317086887496 ], [ -69.584490201595429, -35.483319458376286 ], [ -69.584497310097049, -35.482648889723578 ], [ -69.584497310097049, -35.482456960179945 ], [ -69.583278599999971, -35.483782099999928 ], [ -69.58343518766776, -35.483777784332119 ], [ -69.58394413822856, -35.483778185917572 ], [ -69.583941853950819, -35.483954451215027 ] ] ] ] } },
{ "type": "Feature", "properties": { "Id": 0, "Tipo": "Plataforma comercial", "IATA": "NEC", "Etiqueta": "NEC - Plataforma comercial", "Metros2": 2099.63574509 }, "geometry": { "type": "MultiPolygon", "coordinates": [ [ [ [ -58.812594729978791, -38.487330558159051 ], [ -58.812577881698004, -38.486929373754343 ], [ -58.812039535443198, -38.486950115956802 ], [ -58.812064535003138, -38.487350986229842 ], [ -58.812594729978791, -38.487330558159051 ] ] ] ] } },
{ "type": "Feature", "properties": { "Id": 0, "Tipo": "Plataforma comercial", "IATA": "AOL", "Etiqueta": "AOL - Plataforma comercial", "Metros2": 5471.7598436500002 }, "geometry": { "type": "MultiPolygon", "coordinates": [ [ [ [ -57.148942695635547, -29.689824491073331 ], [ -57.149726654238776, -29.689123521396201 ], [ -57.149357697289439, -29.688811651792797 ], [ -57.148577137285656, -29.689515337921875 ], [ -57.148942695635547, -29.689824491073331 ] ] ] ] } },
{ "type": "Feature", "properties": { "Id": 0, "Tipo": "Plataforma comercial", "IATA": "RCU", "Etiqueta": "RCU - Plataforma comercial", "Metros2": 5814.2940071700004 }, "geometry": { "type": "MultiPolygon", "coordinates": [ [ [ [ -64.276897996433775, -33.095715693079249 ], [ -64.276899538565402, -33.096653095119819 ], [ -64.277498003992591, -33.096644616161505 ], [ -64.277498493018996, -33.095709764487268 ], [ -64.276897996433775, -33.095715693079249 ] ] ] ] } },
{ "type": "Feature", "properties": { "Id": 0, "Tipo": "Plataforma militar", "IATA": "RCU", "Etiqueta": "RCU - Plataforma militar", "Metros2": 33730.853020199997 }, "geometry": { "type": "MultiPolygon", "coordinates": [ [ [ [ -64.275372763027562, -33.090678923576554 ], [ -64.276645671296293, -33.091803040858927 ], [ -64.276858302715041, -33.092169649669621 ], [ -64.277003789870321, -33.092505957138741 ], [ -64.276995303394855, -33.095235328504941 ], [ -64.277546713444508, -33.095210536355253 ], [ -64.277537903867881, -33.092918444324376 ], [ -64.27778287363617, -33.092707165287131 ], [ -64.27815500794047, -33.092412953252996 ], [ -64.275747142324292, -33.090364804949729 ], [ -64.275372763027562, -33.090678923576554 ] ] ] ] } },
{ "type": "Feature", "properties": { "Id": 0, "Tipo": "Plataforma comercial", "IATA": "AFA", "Etiqueta": "AFA - Plataforma comercial", "Metros2": 8064.908154 }, "geometry": { "type": "MultiPolygon", "coordinates": [ [ [ [ -68.39944515932811, -34.591301847237141 ], [ -68.401209950599565, -34.590738157032462 ], [ -68.40101515117523, -34.590336915262213 ], [ -68.399264713044644, -34.590925482537479 ], [ -68.39944515932811, -34.591301847237141 ] ] ] ] } },
{ "type": "Feature", "properties": { "Id": 0, "Tipo": "Plataforma aeroclub", "IATA": "AFA", "Etiqueta": "AFA - Plataforma aeroclub", "Metros2": 4119.8716832099999 }, "geometry": { "type": "MultiPolygon", "coordinates": [ [ [ [ -68.403148958510172, -34.59056714817816 ], [ -68.404444413492826, -34.590106588637603 ], [ -68.404374707612206, -34.589970103089257 ], [ -68.404314375513181, -34.589842501525453 ], [ -68.404055673749014, -34.589934405856191 ], [ -68.403464806409474, -34.590136367783927 ], [ -68.403027253188966, -34.590302052134724 ], [ -68.403148958510172, -34.59056714817816 ] ] ] ] } },
{ "type": "Feature", "properties": { "Id": 0, "Tipo": "Plataforma comercial", "IATA": "TTG", "Etiqueta": "TTG - Plataforma comercial", "Metros2": 15422.3678745 }, "geometry": { "type": "MultiPolygon", "coordinates": [ [ [ [ -63.794648504840595, -22.61613665119949 ], [ -63.795589004865192, -22.616030181175777 ], [ -63.795415861538473, -22.614790833760956 ], [ -63.795375513387661, -22.61441775608537 ], [ -63.794790648379958, -22.614481355742114 ], [ -63.794838404751758, -22.61487363904919 ], [ -63.794751223371243, -22.615018106551023 ], [ -63.794503904674322, -22.615043361816944 ], [ -63.794648504840595, -22.61613665119949 ] ] ] ] } },
{ "type": "Feature", "properties": { "Id": 0, "Tipo": "Plataforma comercial", "IATA": "VME", "Etiqueta": "VME - Plataforma comercial", "Metros2": 6342.6205218300001 }, "geometry": { "type": "MultiPolygon", "coordinates": [ [ [ [ -65.373292637158812, -33.719576715938018 ], [ -65.373636411759279, -33.719114987414194 ], [ -65.37271413513372, -33.718653226826859 ], [ -65.372381994719589, -33.719092637387327 ], [ -65.372606704387223, -33.719224829927789 ], [ -65.372560341724068, -33.719288521636607 ], [ -65.373010042150469, -33.719514550749111 ], [ -65.373075458967506, -33.719460544680523 ], [ -65.373292637158812, -33.719576715938018 ] ] ] ] } },
{ "type": "Feature", "properties": { "Id": 0, "Tipo": "Plataforma militar", "IATA": "VME", "Etiqueta": "VME - Plataforma militar", "Metros2": 57478.630699100002 }, "geometry": { "type": "MultiPolygon", "coordinates": [ [ [ [ -65.375838259913067, -33.720460766760461 ], [ -65.376906940345393, -33.72100012884286 ], [ -65.37698598415632, -33.721114948843955 ], [ -65.377142006502837, -33.721630631343885 ], [ -65.377263731202703, -33.722155675779163 ], [ -65.377876786984601, -33.724070292091518 ], [ -65.380199581705625, -33.724868878290984 ], [ -65.380546145569056, -33.724279440955343 ], [ -65.378645334101137, -33.723611970029111 ], [ -65.378575703611475, -33.723773716373927 ], [ -65.378359661666678, -33.723667742987331 ], [ -65.378246657535954, -33.723514612516652 ], [ -65.378407296441864, -33.723391464854195 ], [ -65.377639247961767, -33.720717768210775 ], [ -65.378007944300919, -33.720223800187163 ], [ -65.376564118856422, -33.719491852366183 ], [ -65.375838259913067, -33.720460766760461 ] ] ] ] } },
{ "type": "Feature", "properties": { "Id": 0, "Tipo": "Plataforma comercial", "IATA": "TDL", "Etiqueta": "TDL - Plataforma comercial", "Metros2": 6568.9797857200001 }, "geometry": { "type": "MultiPolygon", "coordinates": [ [ [ [ -59.23359313631574, -37.241243571927562 ], [ -59.234210643381552, -37.24068401290257 ], [ -59.233540908818448, -37.24021767972247 ], [ -59.232925407038337, -37.240755793175751 ], [ -59.23359313631574, -37.241243571927562 ] ] ] ] } },
{ "type": "Feature", "properties": { "Id": 0, "Tipo": "Plataforma militar", "IATA": "TDL", "Etiqueta": "TDL - Plataforma militar", "Metros2": 32135.317719899998 }, "geometry": { "type": "MultiPolygon", "coordinates": [ [ [ [ -59.237190776461063, -37.238590013729933 ], [ -59.238122870108739, -37.237815286379522 ], [ -59.238033908662935, -37.237767035919894 ], [ -59.237819018975117, -37.237640498085668 ], [ -59.237641997223633, -37.237454606091475 ], [ -59.237605630450872, -37.237364975602446 ], [ -59.237666037803841, -37.237287887663442 ], [ -59.237809272267256, -37.237127896238604 ], [ -59.237952326154343, -37.236985782744014 ], [ -59.238109686431798, -37.236903358695955 ], [ -59.238228700226955, -37.236927963400269 ], [ -59.238510189370849, -37.237102606855139 ], [ -59.239645465409041, -37.236132501532978 ], [ -59.241156331274418, -37.236356744457517 ], [ -59.241410878265057, -37.236245139946234 ], [ -59.240648269880566, -37.235733672608227 ], [ -59.23929363622532, -37.235540225764055 ], [ -59.238774510297773, -37.236019630296589 ], [ -59.236443381206016, -37.238048818750798 ], [ -59.237190776461063, -37.238590013729933 ] ] ] ] } },
{ "type": "Feature", "properties": { "Id": 0, "Tipo": "Plataforma comercial", "IATA": "SST", "Etiqueta": "SST - Plataforma comercial", "Metros2": 1788.9002174300001 }, "geometry": { "type": "MultiPolygon", "coordinates": [ [ [ [ -56.720549355617457, -36.541103220353278 ], [ -56.720646306303301, -36.540658517788401 ], [ -56.720262042071845, -36.540603967012267 ], [ -56.720164196095375, -36.54105276606218 ], [ -56.720549355617457, -36.541103220353278 ] ] ] ] } },
{ "type": "Feature", "properties": { "Id": 0, "Tipo": "Plataforma aviación general", "IATA": "RHD", "Etiqueta": "RHD - Plataforma aviación general", "Metros2": 18320.155402600001 }, "geometry": { "type": "MultiPolygon", "coordinates": [ [ [ [ -64.932616276352334, -27.505665322361928 ], [ -64.933254760663601, -27.505166267757222 ], [ -64.933242664946732, -27.505151869701169 ], [ -64.933142797760553, -27.503014375073139 ], [ -64.932452973876934, -27.503056831615417 ], [ -64.932562124528943, -27.505618162208229 ], [ -64.932616276352334, -27.505665322361928 ] ] ] ] } },
{ "type": "Feature", "properties": { "Id": 0, "Tipo": "Plataforma comercial", "IATA": "RYO", "Etiqueta": "RYO - Plataforma comercial", "Metros2": 8306.0729866700003 }, "geometry": { "type": "MultiPolygon", "coordinates": [ [ [ [ -72.227798287833934, -51.604534607779115 ], [ -72.227454227693599, -51.603640637265784 ], [ -72.226329425926465, -51.60381219519882 ], [ -72.226670973733974, -51.604715805462739 ], [ -72.227798287833934, -51.604534607779115 ] ] ] ] } },
{ "type": "Feature", "properties": { "Id": 0, "Tipo": "Plataforma comercial", "IATA": "PMQ", "Etiqueta": "PMQ - Plataforma comercial", "Metros2": 7094.6588464699998 }, "geometry": { "type": "MultiPolygon", "coordinates": [ [ [ [ -70.983166270880716, -46.537821467835528 ], [ -70.983473941598206, -46.538355086848391 ], [ -70.984818768537536, -46.537987819350121 ], [ -70.984507094668942, -46.5374558071452 ], [ -70.983166270880716, -46.537821467835528 ] ] ] ] } },
{ "type": "Feature", "properties": { "Id": 0, "Tipo": "Plataforma de la Gobernación Prov. Bs. As.", "IATA": "LPG", "Etiqueta": "LPG - Plataforma de la Gobernación Prov. Bs. As.", "Metros2": 7194.78863026 }, "geometry": { "type": "MultiPolygon", "coordinates": [ [ [ [ -57.893028889065612, -34.96137797192123 ], [ -57.894634768214807, -34.960166590785626 ], [ -57.894371863263459, -34.959906503045332 ], [ -57.893524331458401, -34.960506940730163 ], [ -57.893540535322558, -34.96061093556191 ], [ -57.89279675148731, -34.961159677953589 ], [ -57.893028889065612, -34.96137797192123 ] ] ] ] } },
{ "type": "Feature", "properties": { "Id": 0, "Tipo": "Plataforma militar", "IATA": "EPA", "Etiqueta": "EPA - Plataforma militar", "Metros2": 132662.34516900001 }, "geometry": { "type": "MultiPolygon", "coordinates": [ [ [ [ -58.601618585149481, -34.609433964014329 ], [ -58.602709330074617, -34.611683030557117 ], [ -58.603335604211281, -34.61302580799196 ], [ -58.604506299026241, -34.612673647763074 ], [ -58.60534386930027, -34.614510591659553 ], [ -58.606638296087453, -34.614053735146399 ], [ -58.604906048475073, -34.610436954417537 ], [ -58.603973299760867, -34.608580974833046 ], [ -58.602364784120994, -34.609152045474445 ], [ -58.601618585149481, -34.609433964014329 ] ] ] ] } },
{ "type": "Feature", "properties": { "Id": 0, "Tipo": "Plataforma comercial sector sur", "IATA": "EPA", "Etiqueta": "EPA - Plataforma comercial sector sur", "Metros2": 13995.994305300001 }, "geometry": { "type": "MultiPolygon", "coordinates": [ [ [ [ -58.601618585149481, -34.609438722936432 ], [ -58.602389530515438, -34.609138910849708 ], [ -58.601661415447666, -34.607658886103991 ], [ -58.600890470081708, -34.607930144658724 ], [ -58.601618585149481, -34.609438722936432 ] ] ] ] } },
{ "type": "Feature", "properties": { "Id": 0, "Tipo": "Plataforma comercial", "IATA": "EPA", "Etiqueta": "EPA - Plataforma comercial", "Metros2": 10380.716407399999 }, "geometry": { "type": "MultiPolygon", "coordinates": [ [ [ [ -58.600543068774869, -34.606665223187967 ], [ -58.601350181948071, -34.606539587646857 ], [ -58.601018960976099, -34.60516521096995 ], [ -58.60038971092677, -34.605264158476423 ], [ -58.600464330823854, -34.605600709441021 ], [ -58.600509535203201, -34.605816364950968 ], [ -58.600560598147972, -34.606067941791167 ], [ -58.600411459440906, -34.606099410241548 ], [ -58.600543068774869, -34.606665223187967 ] ] ] ] } },
{ "type": "Feature", "properties": { "Id": 0, "Tipo": "Plataforma comercial", "IATA": "ROS", "Etiqueta": "ROS - Plataforma comercial", "Metros2": 68032.936442799997 }, "geometry": { "type": "MultiPolygon", "coordinates": [ [ [ [ -60.781255730938284, -32.917532747676901 ], [ -60.78299235462336, -32.91698675147461 ], [ -60.781590863042496, -32.913884404596025 ], [ -60.78102144132059, -32.91406062073942 ], [ -60.780938140943142, -32.913892802977159 ], [ -60.779703830036688, -32.914284097222563 ], [ -60.781255730938284, -32.917532747676901 ] ] ] ] } },
{ "type": "Feature", "properties": { "Id": 0, "Tipo": "Plataforma comercial", "IATA": "UAQ", "Etiqueta": "UAQ - Plataforma comercial", "Metros2": 37792.040599300002 }, "geometry": { "type": "MultiPolygon", "coordinates": [ [ [ [ -68.422395438880457, -31.572281644650051 ], [ -68.422382683045058, -31.572093054759687 ], [ -68.422337171293108, -31.571961628639777 ], [ -68.422259207486036, -31.571582852753455 ], [ -68.422275192965913, -31.571138982297658 ], [ -68.42241358156636, -31.570851574120809 ], [ -68.422495811958498, -31.570833154757494 ], [ -68.422447627963194, -31.570645236686243 ], [ -68.422339011421357, -31.570660484423282 ], [ -68.422309678844982, -31.569738800471388 ], [ -68.421342520107416, -31.569745943824014 ], [ -68.421155260325804, -31.569581608734183 ], [ -68.420995986920786, -31.569741319413705 ], [ -68.4211646603476, -31.569945180019872 ], [ -68.421211088878607, -31.570224107293871 ], [ -68.42120522916548, -31.570755852102085 ], [ -68.421202117507619, -31.571393871526865 ], [ -68.42119657210948, -31.571684976119069 ], [ -68.421203803598061, -31.571964646239891 ], [ -68.421203778946747, -31.572216473166264 ], [ -68.421202741907464, -31.572429146270576 ], [ -68.421182684109922, -31.572664564466081 ], [ -68.421136638383999, -31.572906071372781 ], [ -68.420915354561927, -31.57319566868572 ], [ -68.421108142342277, -31.573320726061002 ], [ -68.421653766107568, -31.57289320894812 ], [ -68.422395438880457, -31.572281644650051 ] ] ] ] } },
{ "type": "Feature", "properties": { "Id": 0, "Tipo": "Plataforma comercial sur", "IATA": "AEP", "Etiqueta": "AEP - Plataforma comercial sur", "Metros2": 9854.4563780600001 }, "geometry": { "type": "MultiPolygon", "coordinates": [ [ [ [ -58.409876530594786, -34.560814804390446 ], [ -58.409875016766797, -34.560814404323636 ], [ -58.409465123838388, -34.560403469352025 ], [ -58.408888856204911, -34.559856153928692 ], [ -58.408340608757634, -34.560214718009661 ], [ -58.408003743966681, -34.560514329363883 ], [ -58.408461880082378, -34.561091355597924 ], [ -58.408214993612219, -34.561267541347569 ], [ -58.408168922114605, -34.561334312049482 ], [ -58.408233104306049, -34.5613938711708 ], [ -58.408331238042734, -34.561517269849595 ], [ -58.408447427423376, -34.561633569146011 ], [ -58.408790908030809, -34.561536697197688 ], [ -58.409161918413361, -34.561325246571009 ], [ -58.409909774438766, -34.560878398293035 ], [ -58.409874851238008, -34.560816661943988 ], [ -58.409876530594786, -34.560814804390446 ] ] ] ] } },
{ "type": "Feature", "properties": { "Id": 0, "Tipo": "Plataforma comercial", "IATA": "EZE", "Etiqueta": "EZE - Plataforma comercial", "Metros2": 339617.69286499999 }, "geometry": { "type": "MultiPolygon", "coordinates": [ [ [ [ -58.535623789074641, -34.811208365725918 ], [ -58.535566682010597, -34.811681878466054 ], [ -58.535566682101525, -34.812154193447142 ], [ -58.535382199999987, -34.812156499999986 ], [ -58.535376800000016, -34.8121402 ], [ -58.535329900000022, -34.812094299999984 ], [ -58.535283, -34.8120632 ], [ -58.5352351, -34.8120447 ], [ -58.535181, -34.8120358 ], [ -58.535024, -34.8120343 ], [ -58.534680299999984, -34.8120765 ], [ -58.53448, -34.8120787 ], [ -58.53448969999998, -34.813461799999978 ], [ -58.534503299999983, -34.8136597 ], [ -58.5346127, -34.813650399999986 ], [ -58.5347836, -34.813584 ], [ -58.5349686, -34.8138641 ], [ -58.5352508, -34.8137319 ], [ -58.5350776, -34.813463700000014 ], [ -58.5353468, -34.8133453 ], [ -58.535397199999984, -34.8133066 ], [ -58.535586054483076, -34.813378828889455 ], [ -58.535649963145815, -34.814227901742299 ], [ -58.5356585, -34.814346699999987 ], [ -58.5347399, -34.814562 ], [ -58.534929699999978, -34.8149989 ], [ -58.534953799999982, -34.814998199999984 ], [ -58.534985399999982, -34.815002699999987 ], [ -58.5350111, -34.8150135 ], [ -58.535027, -34.815030199999988 ], [ -58.535169399999972, -34.815299699999983 ], [ -58.5351717, -34.8153368 ], [ -58.53516, -34.815369399999987 ], [ -58.5351149, -34.8154307 ], [ -58.5351017, -34.815455599999972 ], [ -58.5351032, -34.8154831 ], [ -58.535112599999984, -34.8155124 ], [ -58.5352985, -34.8158203 ], [ -58.535328100000022, -34.8158503 ], [ -58.5353592, -34.815865 ], [ -58.535398099999988, -34.8158714 ], [ -58.5354463, -34.815872 ], [ -58.535493, -34.8158612 ], [ -58.53624439999998, -34.815516399999986 ], [ -58.536289, -34.8155952 ], [ -58.5360609, -34.815668200000012 ], [ -58.5356391, -34.815870699999984 ], [ -58.535602, -34.8159012 ], [ -58.53558910000001, -34.8159348 ], [ -58.535590399999982, -34.8159695 ], [ -58.5356058, -34.8160073 ], [ -58.535765799999986, -34.816227 ], [ -58.536238299999987, -34.8167652 ], [ -58.536244699999976, -34.8167915 ], [ -58.5362383, -34.8168188 ], [ -58.536224199999985, -34.8168325 ], [ -58.536562199999985, -34.817141500000012 ], [ -58.537076899999967, -34.8167421 ], [ -58.537191972648195, -34.816591376618113 ], [ -58.537208510104563, -34.816607362748123 ], [ -58.538279267557229, -34.817344995659916 ], [ -58.538517213657805, -34.817392584880047 ], [ -58.539480895365124, -34.817808990556095 ], [ -58.540111452531725, -34.818118320486846 ], [ -58.540742009698278, -34.818249190842096 ], [ -58.541420156084818, -34.818189704316957 ], [ -58.54239573509733, -34.818035039351621 ], [ -58.542943011128678, -34.817987450131511 ], [ -58.544073255106461, -34.817761401335979 ], [ -58.544763298798152, -34.817654325590631 ], [ -58.545560418235084, -34.817642428285637 ], [ -58.546428921502176, -34.817856579776212 ], [ -58.546595483772649, -34.817868477081156 ], [ -58.545978311074172, -34.81561988643066 ], [ -58.543926025956686, -34.816006548844143 ], [ -58.541308618850287, -34.816452697782715 ], [ -58.540041555864718, -34.815370043025077 ], [ -58.538744749616441, -34.814346874792513 ], [ -58.538096346492338, -34.814697845290993 ], [ -58.537935732874423, -34.814507488410456 ], [ -58.537721581383991, -34.814102980039536 ], [ -58.537519327198538, -34.813484320178027 ], [ -58.537453892020785, -34.813121452374638 ], [ -58.537477686630901, -34.812883506273963 ], [ -58.538441368338219, -34.812954890104201 ], [ -58.538494906210914, -34.812193462582286 ], [ -58.538251011457838, -34.811854389388927 ], [ -58.538151312041613, -34.811683107854208 ], [ -58.538059107927715, -34.811620647002748 ], [ -58.537269531319751, -34.811406029368975 ], [ -58.53720851010452, -34.811586700025806 ], [ -58.535623789074641, -34.811208365725918 ] ] ] ] } },
{ "type": "Feature", "properties": { "Id": 0, "Tipo": "Zona de Estacionamiento Alternativo para Aeronaves", "IATA": "EZE", "Etiqueta": "EZE - Zona de Estacionamiento Alternativo para Aeronaves", "Metros2": 22247.5456314 }, "geometry": { "type": "MultiPolygon", "coordinates": [ [ [ [ -58.532490400000015, -34.8163268 ], [ -58.535054399999986, -34.818412199999983 ], [ -58.5353113, -34.8182121 ], [ -58.5355669, -34.8179915 ], [ -58.5330071, -34.8159004 ], [ -58.5327524, -34.8160941 ], [ -58.532490400000015, -34.8163268 ] ] ] ] } },
{ "type": "Feature", "properties": { "Id": 0, "Tipo": "Plataforma militar", "IATA": "REL", "Etiqueta": "REL - Plataforma militar", "Metros2": 1890.1247479799999 }, "geometry": { "type": "MultiPolygon", "coordinates": [ [ [ [ -65.280091125912094, -43.209132329069298 ], [ -65.279419601894219, -43.208928057236051 ], [ -65.279279592831699, -43.209205807914358 ], [ -65.279951287482376, -43.209395792782175 ], [ -65.280091125912094, -43.209132329069298 ] ] ] ] } },
{ "type": "Feature", "properties": { "Id": 0, "Tipo": "Plataforma militar", "IATA": "RGL", "Etiqueta": "RGL - Plataforma militar", "Metros2": 6406.0701321799997 }, "geometry": { "type": "MultiPolygon", "coordinates": [ [ [ [ -69.3013336, -51.6102865 ], [ -69.2989314, -51.6101747 ], [ -69.2990996, -51.6102114 ], [ -69.2991828, -51.6102417 ], [ -69.2992944, -51.610314 ], [ -69.2993652, -51.6104056 ], [ -69.29938, -51.6105119 ], [ -69.2993551, -51.6107168 ], [ -69.3005284, -51.6107704 ], [ -69.3006236, -51.6107749 ], [ -69.3008121, -51.610782 ], [ -69.3008555, -51.6105064 ], [ -69.3009263, -51.6104093 ], [ -69.3010149, -51.610347 ], [ -69.3011418, -51.6103048 ], [ -69.3013336, -51.6102865 ] ] ] ] } },
{ "type": "Feature", "properties": { "Id": 0, "Tipo": "Plataforma militar", "IATA": "RGL", "Etiqueta": "RGL - Plataforma militar", "Metros2": 3271.1666666599999 }, "geometry": { "type": "MultiPolygon", "coordinates": [ [ [ [ -69.2951649, -51.6105083 ], [ -69.2949542, -51.6104985 ], [ -69.2944, -51.61047580000001 ], [ -69.2942813, -51.6104671 ], [ -69.2942235, -51.6109453 ], [ -69.2951071, -51.6109865 ], [ -69.2951496, -51.6106351 ], [ -69.2951649, -51.6105083 ] ] ] ] } },
{ "type": "Feature", "properties": { "Id": 0, "Tipo": "Plataforma", "IATA": "RGL", "Etiqueta": "RGL - Plataforma", "Metros2": 646.78259602599996 }, "geometry": { "type": "MultiPolygon", "coordinates": [ [ [ [ -69.2965459, -51.6110529 ], [ -69.2965337, -51.6108173 ], [ -69.2964419, -51.6108192 ], [ -69.2963402, -51.6108212 ], [ -69.2962155, -51.6108237 ], [ -69.2961783, -51.6108244 ], [ -69.2961905, -51.61106 ], [ -69.2965459, -51.6110529 ] ] ] ] } },
{ "type": "Feature", "properties": { "Id": 0, "Tipo": "Plataforma", "IATA": "RGL", "Etiqueta": "RGL - Plataforma", "Metros2": 2743.9384095800001 }, "geometry": { "type": "MultiPolygon", "coordinates": [ [ [ [ -69.3004733, -51.6112288 ], [ -69.3004571, -51.6112498 ], [ -69.300434, -51.6112651 ], [ -69.3004109, -51.6112718 ], [ -69.2996853, -51.6112718 ], [ -69.2996945, -51.6117549 ], [ -69.3001043, -51.611752 ], [ -69.3001644, -51.6117597 ], [ -69.3002245, -51.6117788 ], [ -69.300263, -51.6117999 ], [ -69.3002969, -51.6118257 ], [ -69.3003261, -51.6118573 ], [ -69.3003492, -51.6118965 ], [ -69.3003693, -51.6119386 ], [ -69.3003843, -51.6119846 ], [ -69.3004207, -51.6116736 ], [ -69.3004109, -51.6116822 ], [ -69.3003955, -51.6116889 ], [ -69.3003801, -51.61169180000001 ], [ -69.3003631, -51.6116898 ], [ -69.3003492, -51.6116841 ], [ -69.3003431, -51.6116697 ], [ -69.3003477, -51.6114134 ], [ -69.30036, -51.611399 ], [ -69.3003785, -51.6113933 ], [ -69.3004124, -51.6113952 ], [ -69.3004309, -51.6114019 ], [ -69.3004463, -51.6114124 ], [ -69.30045, -51.6114313 ], [ -69.3004733, -51.6112288 ] ] ] ] } },
{ "type": "Feature", "properties": { "Id": 0, "Tipo": "Plataforma", "IATA": "RGL", "Etiqueta": "RGL - Plataforma", "Metros2": 226.718398901 }, "geometry": { "type": "MultiPolygon", "coordinates": [ [ [ [ -69.3024435, -51.6120142 ], [ -69.3022375, -51.612002 ], [ -69.3022684, -51.6120099 ], [ -69.3022822, -51.6120242 ], [ -69.3022915, -51.6120386 ], [ -69.3022915, -51.6120539 ], [ -69.3022822, -51.6120673 ], [ -69.3022668, -51.6120759 ], [ -69.3022422, -51.6120835 ], [ -69.3022144, -51.6120855 ], [ -69.3022037, -51.6121754 ], [ -69.302424, -51.6121859 ], [ -69.3024347, -51.6120941 ], [ -69.3024147, -51.6120883 ], [ -69.3023931, -51.61207970000001 ], [ -69.3023793, -51.6120682 ], [ -69.3023716, -51.612051 ], [ -69.3023747, -51.6120376 ], [ -69.3023839, -51.6120271 ], [ -69.3023978, -51.6120195 ], [ -69.3024435, -51.6120142 ] ] ] ] } },
{ "type": "Feature", "properties": { "Id": 0, "Tipo": "Plataforma militar", "IATA": "RHD", "Etiqueta": "RHD - Plataforma militar", "Metros2": 9698.4838485599994 }, "geometry": { "type": "MultiPolygon", "coordinates": [ [ [ [ -64.932212204183628, -27.503037078333413 ], [ -64.933136162470618, -27.50300835567354 ], [ -64.93309846427168, -27.502059072307965 ], [ -64.932161070737848, -27.502093660283098 ], [ -64.932165689666817, -27.502308562334797 ], [ -64.932212204183628, -27.503037078333413 ] ] ] ] } },
{ "type": "Feature", "properties": { "Id": 0, "Tipo": "Plataforma comercial", "IATA": "RHD", "Etiqueta": "RHD - Plataforma comercial", "Metros2": 10502.860833000001 }, "geometry": { "type": "MultiPolygon", "coordinates": [ [ [ [ -64.932616276352334, -27.505665322361928 ], [ -64.932728067561513, -27.50576267975347 ], [ -64.933691327319139, -27.506460996471194 ], [ -64.934202282757312, -27.505964858991497 ], [ -64.933317094047666, -27.505240465811497 ], [ -64.933254760663601, -27.505166267757222 ], [ -64.932616276352334, -27.505665322361928 ] ] ] ] } },
{ "type": "Feature", "properties": { "Id": 0, "Tipo": "Plataforma Sur", "IATA": "ROS", "Etiqueta": "ROS - Plataforma Sur", "Metros2": 6655.5407804400002 }, "geometry": { "type": "MultiPolygon", "coordinates": [ [ [ [ -60.7827539, -32.9182981 ], [ -60.7825302, -32.9177893 ], [ -60.7825188, -32.9176831 ], [ -60.7825467, -32.9175707 ], [ -60.7824714, -32.9175548 ], [ -60.7824161, -32.9175431 ], [ -60.7823805, -32.9176728 ], [ -60.7823353, -32.9177471 ], [ -60.7822806, -32.9177952 ], [ -60.7821862, -32.9178327 ], [ -60.7815649, -32.9180354 ], [ -60.781827, -32.9185991 ], [ -60.7827539, -32.9182981 ] ] ] ] } },
{ "type": "Feature", "properties": { "Id": 0, "Tipo": "Plataforma Sur", "IATA": "ROS", "Etiqueta": "ROS - Plataforma Sur", "Metros2": 1329.25401592 }, "geometry": { "type": "MultiPolygon", "coordinates": [ [ [ [ -60.7821862, -32.9178327 ], [ -60.7821247, -32.9178219 ], [ -60.7820818, -32.9177931 ], [ -60.7820638, -32.9177616 ], [ -60.782022, -32.917658 ], [ -60.7814725, -32.9178349 ], [ -60.7815649, -32.9180354 ], [ -60.7821862, -32.9178327 ] ] ] ] } },
{ "type": "Feature", "properties": { "Id": 0, "Tipo": "Plataforma provincial", "IATA": "RSA", "Etiqueta": "RSA - Plataforma provincial", "Metros2": 535.54469376899999 }, "geometry": { "type": "MultiPolygon", "coordinates": [ [ [ [ -64.2802919, -36.5888958 ], [ -64.2802919, -36.5884525 ], [ -64.2801372, -36.5885079 ], [ -64.2801372, -36.5885628 ], [ -64.2801372, -36.5886531 ], [ -64.2802229, -36.58889580000001 ], [ -64.2802919, -36.5888958 ] ] ] ] } },
{ "type": "Feature", "properties": { "Id": 0, "Tipo": "Plataforma provincial", "IATA": "SDE", "Etiqueta": "SDE - Plataforma provincial", "Metros2": 5394.4226366399998 }, "geometry": { "type": "MultiPolygon", "coordinates": [ [ [ [ -64.2981257, -27.757683 ], [ -64.2980418, -27.75742330000001 ], [ -64.2979211, -27.7575327 ], [ -64.2978032, -27.7575963 ], [ -64.2976133, -27.757484 ], [ -64.2971611, -27.7580594 ], [ -64.2969408, -27.7583672 ], [ -64.2972248, -27.7585336 ], [ -64.2973517, -27.7583708 ], [ -64.2974952, -27.7584585 ], [ -64.2975984, -27.758326 ], [ -64.2974672, -27.7582459 ], [ -64.2976588, -27.7580001 ], [ -64.2977843, -27.7580768 ], [ -64.2979067, -27.7579199 ], [ -64.2977717, -27.7578375 ], [ -64.2978348, -27.7577566 ], [ -64.2981257, -27.757683 ] ] ] ] } },
{ "type": "Feature", "properties": { "Id": 0, "Tipo": "Plataforma auxiliar", "IATA": "SFN", "Etiqueta": "SFN - Plataforma auxiliar", "Metros2": 4685.9342711999998 }, "geometry": { "type": "MultiPolygon", "coordinates": [ [ [ [ -60.805935004777766, -31.710049930240302 ], [ -60.806272408442453, -31.710742502148264 ], [ -60.806725135194498, -31.710568073960008 ], [ -60.80664097542769, -31.710428878616266 ], [ -60.806742266217036, -31.710261531684203 ], [ -60.806498525539162, -31.709837157367737 ], [ -60.805935004777766, -31.710049930240302 ] ] ] ] } },
{ "type": "Feature", "properties": { "Id": 0, "Tipo": "Plataforma comercial", "IATA": "SLA", "Etiqueta": "SLA - Plataforma comercial", "Metros2": 27964.8832845 }, "geometry": { "type": "MultiPolygon", "coordinates": [ [ [ [ -65.4801213, -24.8450171 ], [ -65.4799962, -24.8449711 ], [ -65.4796657, -24.8442097 ], [ -65.4795455, -24.844249399999988 ], [ -65.4789535, -24.8444683 ], [ -65.4778709, -24.8448667 ], [ -65.4776157, -24.8449631 ], [ -65.4778209, -24.8454153 ], [ -65.4776609, -24.8457901 ], [ -65.4777886, -24.8458404 ], [ -65.4779416, -24.8458887 ], [ -65.4790948, -24.8454543 ], [ -65.4792546, -24.8458036 ], [ -65.4798209, -24.8455903 ], [ -65.4797197, -24.845369 ], [ -65.4800136, -24.8452583 ], [ -65.480074, -24.8451342 ], [ -65.4801213, -24.8450171 ] ] ] ] } },
{ "type": "Feature", "properties": { "Id": 0, "Tipo": "Plataforma militar", "IATA": "TDL", "Etiqueta": "TDL - Plataforma militar", "Metros2": 2855.9353845300002 }, "geometry": { "type": "MultiPolygon", "coordinates": [ [ [ [ -59.2361846, -37.2405805 ], [ -59.2356945, -37.2402237 ], [ -59.2355996, -37.2403308 ], [ -59.235559400000014, -37.2403586 ], [ -59.2355031, -37.2403778 ], [ -59.235438700000017, -37.2403821 ], [ -59.2353716, -37.2403735 ], [ -59.23532070000001, -37.2403479 ], [ -59.23522950000001, -37.2404376 ], [ -59.2358467, -37.2408717 ], [ -59.2361846, -37.2405805 ] ] ] ] } },
{ "type": "Feature", "properties": { "Id": 0, "Tipo": "Plataforma militar", "IATA": "TDL", "Etiqueta": "TDL - Plataforma militar", "Metros2": 5017.6096237000002 }, "geometry": { "type": "MultiPolygon", "coordinates": [ [ [ [ -59.237088, -37.2398734 ], [ -59.2369572, -37.2394756 ], [ -59.2365411, -37.2391585 ], [ -59.236232, -37.2394194 ], [ -59.2360545, -37.2395585 ], [ -59.2361975, -37.2396595 ], [ -59.2368035, -37.2401007 ], [ -59.237088, -37.2398734 ] ] ] ] } },
{ "type": "Feature", "properties": { "Id": 0, "Tipo": "Plataforma", "IATA": "TDL", "Etiqueta": "TDL - Plataforma", "Metros2": 7490.51133837 }, "geometry": { "type": "MultiPolygon", "coordinates": [ [ [ [ -59.23837, -37.2320012 ], [ -59.2376304, -37.2314544 ], [ -59.2369921, -37.2320017 ], [ -59.2376319, -37.2324747 ], [ -59.2377317, -37.2325485 ], [ -59.23837, -37.2320012 ] ] ] ] } },
{ "type": "Feature", "properties": { "Id": 0, "Tipo": "Plataforma remota", "IATA": "UAQ", "Etiqueta": "UAQ - Plataforma remota", "Metros2": 13637.29512 }, "geometry": { "type": "MultiPolygon", "coordinates": [ [ [ [ -68.4206537, -31.5695729 ], [ -68.4203412, -31.5693044 ], [ -68.4203233, -31.5722859 ], [ -68.4203141, -31.573638800000012 ], [ -68.4206387, -31.573371799999986 ], [ -68.4206537, -31.5695729 ] ] ] ] } },
{ "type": "Feature", "properties": { "Id": 0, "Tipo": "Plataforma general", "IATA": "USH", "Etiqueta": "USH - Plataforma general", "Metros2": 19750.383611199999 }, "geometry": { "type": "MultiPolygon", "coordinates": [ [ [ [ -68.304366507730265, -54.84065984378482 ], [ -68.3043124823037, -54.841453364344652 ], [ -68.306444630388071, -54.841530722966468 ], [ -68.306917941949337, -54.841541052083919 ], [ -68.306936810682259, -54.841272595028848 ], [ -68.308272201351912, -54.841288715729654 ], [ -68.308328555373137, -54.840797397999822 ], [ -68.306986544647089, -54.840750806123978 ], [ -68.304366507730265, -54.84065984378482 ] ] ] ] } },
{ "type": "Feature", "properties": { "Id": 0, "Tipo": "Plataforma comercial", "IATA": "VDM", "Etiqueta": "VDM - Plataforma comercial", "Metros2": 24434.373615 }, "geometry": { "type": "MultiPolygon", "coordinates": [ [ [ [ -63.0060819, -40.8635415 ], [ -63.0060237, -40.8634981 ], [ -63.0056752, -40.863238 ], [ -63.0056406, -40.8632646 ], [ -63.0054836, -40.8631479 ], [ -63.0054374, -40.8631619 ], [ -63.0053819, -40.86312 ], [ -63.0053912, -40.8630711 ], [ -63.0053157, -40.8630138 ], [ -63.0052127, -40.8629352 ], [ -63.004699, -40.8625434 ], [ -63.0041769, -40.862145 ], [ -63.0034455, -40.8615871 ], [ -63.0030736, -40.861883 ], [ -63.0035164, -40.862224 ], [ -63.0035823, -40.8621688 ], [ -63.0037127, -40.8622577 ], [ -63.0036033, -40.8627099 ], [ -63.0040172, -40.8630196 ], [ -63.0038608, -40.8631391 ], [ -63.0052494, -40.864178 ], [ -63.0052812, -40.86415370000001 ], [ -63.0058768, -40.8636983 ], [ -63.0060819, -40.8635415 ] ] ] ] } },
{ "type": "Feature", "properties": { "Id": 0, "Tipo": "Plataforma Aeroclub", "IATA": "VLG", "Etiqueta": "VLG - Plataforma Aeroclub", "Metros2": 463.64441937399999 }, "geometry": { "type": "MultiPolygon", "coordinates": [ [ [ [ -57.0189647, -37.234495 ], [ -57.018804, -37.2344838 ], [ -57.0187692, -37.2347725 ], [ -57.0188355, -37.2347778 ], [ -57.0188578, -37.2347796 ], [ -57.0188809, -37.2347815 ], [ -57.018926, -37.2347843 ], [ -57.0189647, -37.234495 ] ] ] ] } },
{ "type": "Feature", "properties": { "Id": 0, "Tipo": "Plataforma", "IATA": "VLG", "Etiqueta": "VLG - Plataforma", "Metros2": 1686.7833593099999 }, "geometry": { "type": "MultiPolygon", "coordinates": [ [ [ [ -57.0199893, -37.2358606 ], [ -57.0199134, -37.2358044 ], [ -57.0198434, -37.2357505 ], [ -57.0197204, -37.2357041 ], [ -57.0196586, -37.2356789 ], [ -57.0195994, -37.235656 ], [ -57.0194021, -37.2355795 ], [ -57.0192456, -37.2358119 ], [ -57.0196426, -37.235968 ], [ -57.0197103, -37.2359792 ], [ -57.0198154, -37.2359792 ], [ -57.0199181, -37.2359848 ], [ -57.0199893, -37.2358606 ] ] ] ] } },
{ "type": "Feature", "properties": { "Id": 0, "Tipo": "Plataforma remota Sector  III", "IATA": "EZE", "Etiqueta": "EZE - Plataforma remota Sector  III", "Metros2": 6410.7431081499999 }, "geometry": { "type": "MultiPolygon", "coordinates": [ [ [ [ -58.536445740294418, -34.801823376662909 ], [ -58.535744992345258, -34.801285552636152 ], [ -58.535276673803885, -34.801618102103077 ], [ -58.535404621238563, -34.801987433563099 ], [ -58.535533646850482, -34.80209050828293 ], [ -58.535948484696434, -34.802220724772326 ], [ -58.536445740294418, -34.801823376662909 ] ] ] ] } },
{ "type": "Feature", "properties": { "Id": 0, "Tipo": "Plataforma remota Sector  IV", "IATA": "EZE", "Etiqueta": "EZE - Plataforma remota Sector  IV", "Metros2": 76959.159295899997 }, "geometry": { "type": "MultiPolygon", "coordinates": [ [ [ [ -58.540819840792722, -34.822267178554583 ], [ -58.54028376306406, -34.82270970335702 ], [ -58.547650824318318, -34.82872807994994 ], [ -58.548318233018797, -34.828236541806106 ], [ -58.542144549648739, -34.823176362013022 ], [ -58.542019561687574, -34.823282795978507 ], [ -58.540819840792722, -34.822267178554583 ] ] ] ] } },
{ "type": "Feature", "properties": { "Id": 0, "Tipo": "Plataforma Aeroclub", "IATA": "FTE", "Etiqueta": "FTE - Plataforma Aeroclub", "Metros2": 1589.1048808099999 }, "geometry": { "type": "MultiPolygon", "coordinates": [ [ [ [ -72.04762079782229, -50.283078140228881 ], [ -72.047025668806214, -50.283073500784951 ], [ -72.046993953055207, -50.283408494424258 ], [ -72.047589086281576, -50.283413133881389 ], [ -72.04762079782229, -50.283078140228881 ] ] ] ] } },
{ "type": "Feature", "properties": { "Id": 0, "Tipo": "Plataforma comercial", "IATA": "RLO", "Etiqueta": "RLO - Plataforma comercial", "Metros2": 15194.338762199999 }, "geometry": { "type": "MultiPolygon", "coordinates": [ [ [ [ -65.181076304678228, -32.379230301578581 ], [ -65.180174440733154, -32.379474945734991 ], [ -65.180723533752158, -32.380936815982622 ], [ -65.181628925046226, -32.380692190978031 ], [ -65.181076304678228, -32.379230301578581 ] ] ] ] } },
{ "type": "Feature", "properties": { "Id": 0, "Tipo": "Plataforma B", "IATA": "RLO", "Etiqueta": "RLO - Plataforma B", "Metros2": 3033.9346142 }, "geometry": { "type": "MultiPolygon", "coordinates": [ [ [ [ -65.181199106900834, -32.381590027430555 ], [ -65.180744703539929, -32.381706363626158 ], [ -65.180946819559537, -32.382286225551958 ], [ -65.181411768151236, -32.382169957138778 ], [ -65.181199106900834, -32.381590027430555 ] ] ] ] } },
{ "type": "Feature", "properties": { "Id": 0, "Tipo": null, "IATA": "RGA", "Etiqueta": null, "Metros2": 3604.7077165300002 }, "geometry": { "type": "MultiPolygon", "coordinates": [ [ [ [ -67.7486809, -53.7815062 ], [ -67.7482838, -53.7815065 ], [ -67.7482832, -53.7812735 ], [ -67.7480066, -53.7812674 ], [ -67.7477746, -53.7812638 ], [ -67.7476345, -53.7813632 ], [ -67.7473349, -53.78136 ], [ -67.747328, -53.7815857 ], [ -67.7476812, -53.7815895 ], [ -67.747854, -53.7817164 ], [ -67.747843, -53.7819164 ], [ -67.7482156, -53.7819235 ], [ -67.7482974, -53.7819251 ], [ -67.7483102, -53.7816575 ], [ -67.7486755, -53.7816636 ], [ -67.7486775, -53.7816089 ], [ -67.7486809, -53.7815062 ] ] ] ] } },
{ "type": "Feature", "properties": { "Id": 0, "Tipo": null, "IATA": "RGA", "Etiqueta": null, "Metros2": 1054.8010825399999 }, "geometry": { "type": "MultiPolygon", "coordinates": [ [ [ [ -67.7498316, -53.7813942 ], [ -67.7495923, -53.7813861 ], [ -67.749618, -53.7811223 ], [ -67.7493541, -53.7811134 ], [ -67.7493144, -53.7815236 ], [ -67.7498174, -53.7815406 ], [ -67.7498316, -53.7813942 ] ] ] ] } }
]
}
