{
"type": "FeatureCollection",
"name": "PoblacionDentro1hora",
"features": [
{ "type": "Feature", "properties": { "IATA": "AEP", "Pob1hora": "96%" }, "geometry": null },
{ "type": "Feature", "properties": { "IATA": "BRC", "Pob1hora": "69%" }, "geometry": null },
{ "type": "Feature", "properties": { "IATA": "COR", "Pob1hora": "69%" }, "geometry": null },
{ "type": "Feature", "properties": { "IATA": "EZE", "Pob1hora": "91%" }, "geometry": null },
{ "type": "Feature", "properties": { "IATA": "IGR", "Pob1hora": "30%" }, "geometry": null },
{ "type": "Feature", "properties": { "IATA": "MDZ", "Pob1hora": "83%" }, "geometry": null },
{ "type": "Feature", "properties": { "IATA": "NQN", "Pob1hora": "56%" }, "geometry": null },
{ "type": "Feature", "properties": { "IATA": "ROS", "Pob1hora": "56%" }, "geometry": null },
{ "type": "Feature", "properties": { "IATA": "SLA", "Pob1hora": "92%" }, "geometry": null },
{ "type": "Feature", "properties": { "IATA": "TUC", "Pob1hora": "75%" }, "geometry": null },
{ "type": "Feature", "properties": { "IATA": "USH", "Pob1hora": "100%" }, "geometry": null },
{ "type": "Feature", "properties": { "IATA": "JUJ", "Pob1hora": "48%" }, "geometry": null },
{ "type": "Feature", "properties": { "IATA": "MDQ", "Pob1hora": "53%" }, "geometry": null },
{ "type": "Feature", "properties": { "IATA": "SFN", "Pob1hora": "55%" }, "geometry": null },
{ "type": "Feature", "properties": { "IATA": "RES", "Pob1hora": "33%" }, "geometry": null },
{ "type": "Feature", "properties": { "IATA": "PRA", "Pob1hora": "35%" }, "geometry": null },
{ "type": "Feature", "properties": { "IATA": "PSS", "Pob1hora": "34%" }, "geometry": null },
{ "type": "Feature", "properties": { "IATA": "SDE", "Pob1hora": "62%" }, "geometry": null },
{ "type": "Feature", "properties": { "IATA": "CNQ", "Pob1hora": "55%" }, "geometry": null },
{ "type": "Feature", "properties": { "IATA": "UAQ", "Pob1hora": "91%" }, "geometry": null },
{ "type": "Feature", "properties": { "IATA": "BHI", "Pob1hora": "52%" }, "geometry": null },
{ "type": "Feature", "properties": { "IATA": "RSA", "Pob1hora": "23%" }, "geometry": null },
{ "type": "Feature", "properties": { "IATA": "LUQ", "Pob1hora": "66%" }, "geometry": null },
{ "type": "Feature", "properties": { "IATA": "FMA", "Pob1hora": "49%" }, "geometry": null },
{ "type": "Feature", "properties": { "IATA": "RCU", "Pob1hora": "53%" }, "geometry": null },
{ "type": "Feature", "properties": { "IATA": "IRJ", "Pob1hora": "49%" }, "geometry": null },
{ "type": "Feature", "properties": { "IATA": "CRD", "Pob1hora": "58%" }, "geometry": null },
{ "type": "Feature", "properties": { "IATA": "CTC", "Pob1hora": "80%" }, "geometry": null },
{ "type": "Feature", "properties": { "IATA": "AFA", "Pob1hora": "67%" }, "geometry": null },
{ "type": "Feature", "properties": { "IATA": "RGL", "Pob1hora": "73%" }, "geometry": null },
{ "type": "Feature", "properties": { "IATA": "REL", "Pob1hora": "95%" }, "geometry": null },
{ "type": "Feature", "properties": { "IATA": "PMY", "Pob1hora": "68" }, "geometry": null },
{ "type": "Feature", "properties": { "IATA": "VDM", "Pob1hora": "82%" }, "geometry": null },
{ "type": "Feature", "properties": { "IATA": "RGA", "Pob1hora": "95%" }, "geometry": null },
{ "type": "Feature", "properties": { "IATA": "EQS", "Pob1hora": "51%" }, "geometry": null },
{ "type": "Feature", "properties": { "IATA": "RHD", "Pob1hora": "90%" }, "geometry": null },
{ "type": "Feature", "properties": { "IATA": "CPC", "Pob1hora": "75%" }, "geometry": null },
{ "type": "Feature", "properties": { "IATA": "FTE", "Pob1hora": "69%" }, "geometry": null },
{ "type": "Feature", "properties": { "IATA": "VME", "Pob1hora": "99%" }, "geometry": null },
{ "type": "Feature", "properties": { "IATA": "RCQ", "Pob1hora": "57%" }, "geometry": null },
{ "type": "Feature", "properties": { "IATA": "COC", "Pob1hora": "0%" }, "geometry": null },
{ "type": "Feature", "properties": { "IATA": "GNR", "Pob1hora": "0%" }, "geometry": null },
{ "type": "Feature", "properties": { "IATA": "GPO", "Pob1hora": "0%" }, "geometry": null },
{ "type": "Feature", "properties": { "IATA": "JNI", "Pob1hora": "0%" }, "geometry": null },
{ "type": "Feature", "properties": { "IATA": "LPG", "Pob1hora": "0%" }, "geometry": null },
{ "type": "Feature", "properties": { "IATA": "NEC", "Pob1hora": "0%" }, "geometry": null },
{ "type": "Feature", "properties": { "IATA": "RYO", "Pob1hora": "0%" }, "geometry": null },
{ "type": "Feature", "properties": { "IATA": "SST", "Pob1hora": "0%" }, "geometry": null },
{ "type": "Feature", "properties": { "IATA": "TDL", "Pob1hora": "0%" }, "geometry": null },
{ "type": "Feature", "properties": { "IATA": "TTG", "Pob1hora": "0%" }, "geometry": null },
{ "type": "Feature", "properties": { "IATA": "VLG", "Pob1hora": "0%" }, "geometry": null },
{ "type": "Feature", "properties": { "IATA": "PMQ", "Pob1hora": "0%" }, "geometry": null },
{ "type": "Feature", "properties": { "IATA": "RLO", "Pob1hora": "0%" }, "geometry": null },
{ "type": "Feature", "properties": { "IATA": "FDO", "Pob1hora": "0%" }, "geometry": null },
{ "type": "Feature", "properties": { "IATA": "AOL", "Pob1hora": "0%" }, "geometry": null },
{ "type": "Feature", "properties": { "IATA": "EPA", "Pob1hora": "0%" }, "geometry": null },
{ "type": "Feature", "properties": { "IATA": "LGS", "Pob1hora": "0%" }, "geometry": null }
]
}
