{
"type": "FeatureCollection",
"name": "smn_estaciones_meteorologicas2026",
"crs": { "type": "name", "properties": { "name": "urn:ogc:def:crs:OGC:1.3:CRS84" } },
"features": [
{ "type": "Feature", "properties": { "gid": 1, "nombre": "Base Belgrano II", "latitud": -77.86666667, "longitud": -34.63333333, "altura": 256.0, "nro": 89034.0, "nro_oaci": "SAYB", "fuente": "SMN", "Aerop": null }, "geometry": { "type": "Point", "coordinates": [ -34.63333333, -77.86666667 ] } },
{ "type": "Feature", "properties": { "gid": 2, "nombre": "Base Carlini (Ex Jubany)", "latitud": -62.23333333, "longitud": -58.66666667, "altura": 11.0, "nro": 89053.0, "nro_oaci": "SAYJ", "fuente": "SMN", "Aerop": null }, "geometry": { "type": "Point", "coordinates": [ -58.66666667, -62.23333333 ] } },
{ "type": "Feature", "properties": { "gid": 3, "nombre": "Base Esperanza", "latitud": -63.4, "longitud": -57.0, "altura": 24.0, "nro": 88963.0, "nro_oaci": "SAYE", "fuente": "SMN", "Aerop": null }, "geometry": { "type": "Point", "coordinates": [ -57.0, -63.4 ] } },
{ "type": "Feature", "properties": { "gid": 4, "nombre": "Base Marambio", "latitud": -64.23333333, "longitud": -56.63333333, "altura": 198.0, "nro": 89055.0, "nro_oaci": "SAWB", "fuente": "SMN", "Aerop": null }, "geometry": { "type": "Point", "coordinates": [ -56.63333333, -64.23333333 ] } },
{ "type": "Feature", "properties": { "gid": 5, "nombre": "Base Orcadas", "latitud": -60.73333333, "longitud": -44.73333333, "altura": 12.0, "nro": 88968.0, "nro_oaci": "SAYO", "fuente": "SMN", "Aerop": null }, "geometry": { "type": "Point", "coordinates": [ -44.73333333, -60.73333333 ] } },
{ "type": "Feature", "properties": { "gid": 6, "nombre": "Base San Martín", "latitud": -68.13333333, "longitud": -67.1, "altura": 7.0, "nro": 89066.0, "nro_oaci": "SAYS", "fuente": "SMN", "Aerop": null }, "geometry": { "type": "Point", "coordinates": [ -67.1, -68.13333333 ] } },
{ "type": "Feature", "properties": { "gid": 7, "nombre": "Azul Aéro", "latitud": -36.83333333, "longitud": -59.88333333, "altura": 147.0, "nro": 87641.0, "nro_oaci": "SAZA", "fuente": "SMN", "Aerop": "Si" }, "geometry": { "type": "Point", "coordinates": [ -59.88333333, -36.83333333 ] } },
{ "type": "Feature", "properties": { "gid": 8, "nombre": "Bahía Blanca Aéro", "latitud": -38.71666667, "longitud": -62.16666667, "altura": 83.0, "nro": 87750.0, "nro_oaci": "SAZB", "fuente": "SMN", "Aerop": "SNA" }, "geometry": { "type": "Point", "coordinates": [ -62.16666667, -38.71666667 ] } },
{ "type": "Feature", "properties": { "gid": 9, "nombre": "Benito Juarez Aéro", "latitud": -37.7, "longitud": -59.78333333, "altura": 207.0, "nro": 87649.0, "nro_oaci": "SAZJ", "fuente": "SMN", "Aerop": "Si" }, "geometry": { "type": "Point", "coordinates": [ -59.78333333, -37.7 ] } },
{ "type": "Feature", "properties": { "gid": 10, "nombre": "Bolivar Aéro", "latitud": -36.18333333, "longitud": -61.06666667, "altura": 94.0, "nro": 87640.0, "nro_oaci": "SAZI", "fuente": "SMN", "Aerop": "Si" }, "geometry": { "type": "Point", "coordinates": [ -61.06666667, -36.18333333 ] } },
{ "type": "Feature", "properties": { "gid": 11, "nombre": "Campo de Mayo Aéro", "latitud": -34.53333333, "longitud": -58.68333333, "altura": 26.0, "nro": 87570.0, "nro_oaci": "SADO", "fuente": "SMN", "Aerop": "Si" }, "geometry": { "type": "Point", "coordinates": [ -58.68333333, -34.53333333 ] } },
{ "type": "Feature", "properties": { "gid": 12, "nombre": "Coronel Pringles Aéro", "latitud": -38.0, "longitud": -61.33333333, "altura": 247.0, "nro": 87683.0, "nro_oaci": "SABP", "fuente": "SMN", "Aerop": "Si" }, "geometry": { "type": "Point", "coordinates": [ -61.33333333, -38.0 ] } },
{ "type": "Feature", "properties": { "gid": 13, "nombre": "Coronel Suarez Aéro", "latitud": -37.45, "longitud": -61.88333333, "altura": 233.0, "nro": 87637.0, "nro_oaci": "SAZC", "fuente": "SMN", "Aerop": "Si" }, "geometry": { "type": "Point", "coordinates": [ -61.88333333, -37.45 ] } },
{ "type": "Feature", "properties": { "gid": 14, "nombre": "Dolores Aéro", "latitud": -36.31666667, "longitud": -57.71666667, "altura": 9.0, "nro": 87648.0, "nro_oaci": "SAZD", "fuente": "SMN", "Aerop": "Si" }, "geometry": { "type": "Point", "coordinates": [ -57.71666667, -36.31666667 ] } },
{ "type": "Feature", "properties": { "gid": 15, "nombre": "El Palomar Aéro", "latitud": -34.6, "longitud": -58.61666667, "altura": 12.0, "nro": 87571.0, "nro_oaci": "SADP", "fuente": "SMN", "Aerop": "SNA" }, "geometry": { "type": "Point", "coordinates": [ -58.61666667, -34.6 ] } },
{ "type": "Feature", "properties": { "gid": 16, "nombre": "Ezeiza Aéro", "latitud": -34.81666667, "longitud": -58.55, "altura": 20.0, "nro": 87576.0, "nro_oaci": "SAEZ", "fuente": "SMN", "Aerop": "SNA" }, "geometry": { "type": "Point", "coordinates": [ -58.55, -34.81666667 ] } },
{ "type": "Feature", "properties": { "gid": 17, "nombre": "Junin Aéro", "latitud": -34.55, "longitud": -60.93333333, "altura": 81.0, "nro": 87548.0, "nro_oaci": "SAAJ", "fuente": "SMN", "Aerop": "SNA" }, "geometry": { "type": "Point", "coordinates": [ -60.93333333, -34.55 ] } },
{ "type": "Feature", "properties": { "gid": 18, "nombre": "La Plata Aéro", "latitud": -34.96666667, "longitud": -57.9, "altura": 23.0, "nro": 87593.0, "nro_oaci": "SADL", "fuente": "SMN", "Aerop": "SNA" }, "geometry": { "type": "Point", "coordinates": [ -57.9, -34.96666667 ] } },
{ "type": "Feature", "properties": { "gid": 19, "nombre": "Las Flores", "latitud": -36.03333333, "longitud": -59.13333333, "altura": 36.0, "nro": 87563.0, "nro_oaci": "SAEL", "fuente": "SMN", "Aerop": null }, "geometry": { "type": "Point", "coordinates": [ -59.13333333, -36.03333333 ] } },
{ "type": "Feature", "properties": { "gid": 20, "nombre": "Mar del Plata Aéro", "latitud": -37.93333333, "longitud": -57.58333333, "altura": 21.0, "nro": 87692.0, "nro_oaci": "SAZM", "fuente": "SMN", "Aerop": "SNA" }, "geometry": { "type": "Point", "coordinates": [ -57.58333333, -37.93333333 ] } },
{ "type": "Feature", "properties": { "gid": 21, "nombre": "Mariano Moreno Aéro", "latitud": -34.55, "longitud": -58.78333333, "altura": 32.0, "nro": 87572.0, "nro_oaci": "SADJ", "fuente": "SMN", "Aerop": "Si" }, "geometry": { "type": "Point", "coordinates": [ -58.78333333, -34.55 ] } },
{ "type": "Feature", "properties": { "gid": 22, "nombre": "Merlo Aéro", "latitud": -34.68333333, "longitud": -58.75, "altura": 36.0, "nro": 87573.0, "nro_oaci": "SADR", "fuente": "SMN", "Aerop": "Si" }, "geometry": { "type": "Point", "coordinates": [ -58.75, -34.68333333 ] } },
{ "type": "Feature", "properties": { "gid": 23, "nombre": "Moron Aéro", "latitud": -34.66666667, "longitud": -58.63333333, "altura": 24.0, "nro": 87574.0, "nro_oaci": "SADM", "fuente": "SMN", "Aerop": "Si" }, "geometry": { "type": "Point", "coordinates": [ -58.63333333, -34.66666667 ] } },
{ "type": "Feature", "properties": { "gid": 24, "nombre": "Nueve de Julio", "latitud": -35.43333333, "longitud": -60.88333333, "altura": 76.0, "nro": 87550.0, "nro_oaci": "SAZX", "fuente": "SMN", "Aerop": null }, "geometry": { "type": "Point", "coordinates": [ -60.88333333, -35.43333333 ] } },
{ "type": "Feature", "properties": { "gid": 25, "nombre": "Olavarría Aéro", "latitud": -36.88333333, "longitud": -60.21666667, "altura": 166.0, "nro": 87643.0, "nro_oaci": "SAZF", "fuente": "SMN", "Aerop": "Si" }, "geometry": { "type": "Point", "coordinates": [ -60.21666667, -36.88333333 ] } },
{ "type": "Feature", "properties": { "gid": 26, "nombre": "Pehuajó Aéro", "latitud": -35.83333333, "longitud": -61.86666667, "altura": 87.0, "nro": 87544.0, "nro_oaci": "SAZP", "fuente": "SMN", "Aerop": "Si" }, "geometry": { "type": "Point", "coordinates": [ -61.86666667, -35.83333333 ] } },
{ "type": "Feature", "properties": { "gid": 27, "nombre": "Pigué Aéro", "latitud": -37.6, "longitud": -62.38333333, "altura": 304.0, "nro": 87679.0, "nro_oaci": "SAZE", "fuente": "SMN", "Aerop": "Si" }, "geometry": { "type": "Point", "coordinates": [ -62.38333333, -37.6 ] } },
{ "type": "Feature", "properties": { "gid": 28, "nombre": "Punta Indio B.A.", "latitud": -35.35, "longitud": -57.3, "altura": 22.0, "nro": 87596.0, "nro_oaci": "SAAI", "fuente": "SMN", "Aerop": null }, "geometry": { "type": "Point", "coordinates": [ -57.3, -35.35 ] } },
{ "type": "Feature", "properties": { "gid": 29, "nombre": "San Fernando Aéro", "latitud": -34.45, "longitud": -58.58333333, "altura": 3.0, "nro": 87553.0, "nro_oaci": "SADF", "fuente": "SMN", "Aerop": "SNA" }, "geometry": { "type": "Point", "coordinates": [ -58.58333333, -34.45 ] } },
{ "type": "Feature", "properties": { "gid": 30, "nombre": "Tandil Aéro", "latitud": -37.23333333, "longitud": -59.23333333, "altura": 175.0, "nro": 87645.0, "nro_oaci": "SAZT", "fuente": "SMN", "Aerop": "SNA" }, "geometry": { "type": "Point", "coordinates": [ -59.23333333, -37.23333333 ] } },
{ "type": "Feature", "properties": { "gid": 31, "nombre": "Trenque Lauquen", "latitud": -35.96666667, "longitud": -62.73333333, "altura": 95.0, "nro": 87540.0, "nro_oaci": "SAET", "fuente": "SMN", "Aerop": null }, "geometry": { "type": "Point", "coordinates": [ -62.73333333, -35.96666667 ] } },
{ "type": "Feature", "properties": { "gid": 32, "nombre": "Tres Arroyos", "latitud": -38.36666667, "longitud": -60.28333333, "altura": 115.0, "nro": 87688.0, "nro_oaci": "SAZH", "fuente": "SMN", "Aerop": null }, "geometry": { "type": "Point", "coordinates": [ -60.28333333, -38.36666667 ] } },
{ "type": "Feature", "properties": { "gid": 33, "nombre": "Villa Gesell Aéro", "latitud": -37.23333333, "longitud": -57.01666667, "altura": 9.0, "nro": 87663.0, "nro_oaci": "SAZV", "fuente": "SMN", "Aerop": "SNA" }, "geometry": { "type": "Point", "coordinates": [ -57.01666667, -37.23333333 ] } },
{ "type": "Feature", "properties": { "gid": 34, "nombre": "Aeroparque Aéro", "latitud": -34.56666667, "longitud": -58.41666667, "altura": 6.0, "nro": 87582.0, "nro_oaci": "SABE", "fuente": "SMN", "Aerop": "SNA" }, "geometry": { "type": "Point", "coordinates": [ -58.41666667, -34.56666667 ] } },
{ "type": "Feature", "properties": { "gid": 35, "nombre": "Buenos Aires Observatorio", "latitud": -34.58333333, "longitud": -58.48333333, "altura": 25.0, "nro": 87585.0, "nro_oaci": "SABA", "fuente": "SMN", "Aerop": null }, "geometry": { "type": "Point", "coordinates": [ -58.48333333, -34.58333333 ] } },
{ "type": "Feature", "properties": { "gid": 36, "nombre": "Catamarca Aéro", "latitud": -28.6, "longitud": -65.75, "altura": 464.0, "nro": 87222.0, "nro_oaci": "SANC", "fuente": "SMN", "Aerop": "SNA" }, "geometry": { "type": "Point", "coordinates": [ -65.75, -28.6 ] } },
{ "type": "Feature", "properties": { "gid": 37, "nombre": "Tinogasta", "latitud": -28.06666667, "longitud": -67.56666667, "altura": 1201.0, "nro": 87211.0, "nro_oaci": "SANI", "fuente": "SMN", "Aerop": null }, "geometry": { "type": "Point", "coordinates": [ -67.56666667, -28.06666667 ] } },
{ "type": "Feature", "properties": { "gid": 38, "nombre": "Presidencia Roque Saenz Peña", "latitud": -26.75, "longitud": -60.48333333, "altura": 93.0, "nro": 87148.0, "nro_oaci": "SARS", "fuente": "SMN", "Aerop": null }, "geometry": { "type": "Point", "coordinates": [ -60.48333333, -26.75 ] } },
{ "type": "Feature", "properties": { "gid": 39, "nombre": "Resistencia Aéro", "latitud": -27.43333333, "longitud": -59.05, "altura": 52.0, "nro": 87155.0, "nro_oaci": "SARE", "fuente": "SMN", "Aerop": "SNA" }, "geometry": { "type": "Point", "coordinates": [ -59.05, -27.43333333 ] } },
{ "type": "Feature", "properties": { "gid": 40, "nombre": "Comodoro Rivadavia Aéro", "latitud": -45.8, "longitud": -67.46666667, "altura": 46.0, "nro": 87860.0, "nro_oaci": "SAVC", "fuente": "SMN", "Aerop": "SNA" }, "geometry": { "type": "Point", "coordinates": [ -67.46666667, -45.8 ] } },
{ "type": "Feature", "properties": { "gid": 41, "nombre": "Esquel Aéro", "latitud": -42.9, "longitud": -71.15, "altura": 797.0, "nro": 87803.0, "nro_oaci": "SAVE", "fuente": "SMN", "Aerop": "SNA" }, "geometry": { "type": "Point", "coordinates": [ -71.15, -42.9 ] } },
{ "type": "Feature", "properties": { "gid": 42, "nombre": "Paso de Indios", "latitud": -43.7, "longitud": -69.05, "altura": 460.0, "nro": 87814.0, "nro_oaci": "SAVP", "fuente": "SMN", "Aerop": null }, "geometry": { "type": "Point", "coordinates": [ -69.05, -43.7 ] } },
{ "type": "Feature", "properties": { "gid": 43, "nombre": "Puerto Madryn Aéro", "latitud": -42.75, "longitud": -65.1, "altura": 136.0, "nro": 87823.0, "nro_oaci": "SAVY", "fuente": "SMN", "Aerop": "SNA" }, "geometry": { "type": "Point", "coordinates": [ -65.1, -42.75 ] } },
{ "type": "Feature", "properties": { "gid": 44, "nombre": "Trelew Aéro", "latitud": -43.21666667, "longitud": -65.28333333, "altura": 43.0, "nro": 87828.0, "nro_oaci": "SAVT", "fuente": "SMN", "Aerop": "SNA" }, "geometry": { "type": "Point", "coordinates": [ -65.28333333, -43.21666667 ] } },
{ "type": "Feature", "properties": { "gid": 45, "nombre": "Cordoba Aéro", "latitud": -31.3, "longitud": -64.21666667, "altura": 495.0, "nro": 87344.0, "nro_oaci": "SACO", "fuente": "SMN", "Aerop": "SNA" }, "geometry": { "type": "Point", "coordinates": [ -64.21666667, -31.3 ] } },
{ "type": "Feature", "properties": { "gid": 46, "nombre": "Cordoba Observatorio", "latitud": -31.41666667, "longitud": -64.2, "altura": 425.0, "nro": 87345.0, "nro_oaci": "SACK", "fuente": "SMN", "Aerop": null }, "geometry": { "type": "Point", "coordinates": [ -64.2, -31.41666667 ] } },
{ "type": "Feature", "properties": { "gid": 47, "nombre": "Escuela de Aviacion Milita", "latitud": -31.45, "longitud": -64.28333333, "altura": 502.0, "nro": 87347.0, "nro_oaci": "SACE", "fuente": "SMN", "Aerop": null }, "geometry": { "type": "Point", "coordinates": [ -64.28333333, -31.45 ] } },
{ "type": "Feature", "properties": { "gid": 48, "nombre": "Laboulaye Aéro", "latitud": -34.13333333, "longitud": -63.36666667, "altura": 137.0, "nro": 87534.0, "nro_oaci": "SAOL", "fuente": "SMN", "Aerop": "Si" }, "geometry": { "type": "Point", "coordinates": [ -63.36666667, -34.13333333 ] } },
{ "type": "Feature", "properties": { "gid": 49, "nombre": "Marcos Juarez Aéro", "latitud": -32.68333333, "longitud": -62.15, "altura": 114.0, "nro": 87467.0, "nro_oaci": "SAOM", "fuente": "SMN", "Aerop": "Si" }, "geometry": { "type": "Point", "coordinates": [ -62.15, -32.68333333 ] } },
{ "type": "Feature", "properties": { "gid": 50, "nombre": "Pilar Observatorio", "latitud": -31.66666667, "longitud": -63.88333333, "altura": 338.0, "nro": 87349.0, "nro_oaci": "SACI", "fuente": "SMN", "Aerop": null }, "geometry": { "type": "Point", "coordinates": [ -63.88333333, -31.66666667 ] } },
{ "type": "Feature", "properties": { "gid": 51, "nombre": "Rio Cuarto Aéro", "latitud": -33.1, "longitud": -64.28333333, "altura": 421.0, "nro": 87453.0, "nro_oaci": "SAOC", "fuente": "SMN", "Aerop": "SNA" }, "geometry": { "type": "Point", "coordinates": [ -64.28333333, -33.1 ] } },
{ "type": "Feature", "properties": { "gid": 52, "nombre": "Villa De Maria Del Rio Seco", "latitud": -29.9, "longitud": -63.73333333, "altura": 341.0, "nro": 87244.0, "nro_oaci": "SACV", "fuente": "SMN", "Aerop": null }, "geometry": { "type": "Point", "coordinates": [ -63.73333333, -29.9 ] } },
{ "type": "Feature", "properties": { "gid": 53, "nombre": "Villa Dolores Aéro", "latitud": -31.95, "longitud": -65.15, "altura": 566.0, "nro": 87328.0, "nro_oaci": "SAOD", "fuente": "SMN", "Aerop": "Si" }, "geometry": { "type": "Point", "coordinates": [ -65.15, -31.95 ] } },
{ "type": "Feature", "properties": { "gid": 54, "nombre": "Corrientes Aéro", "latitud": -27.45, "longitud": -58.76666667, "altura": 62.0, "nro": 87166.0, "nro_oaci": "SARC", "fuente": "SMN", "Aerop": "SNA" }, "geometry": { "type": "Point", "coordinates": [ -58.76666667, -27.45 ] } },
{ "type": "Feature", "properties": { "gid": 55, "nombre": "Ituzaingó", "latitud": -27.58333333, "longitud": -56.68333333, "altura": 72.0, "nro": 87173.0, "nro_oaci": "SARO", "fuente": "SMN", "Aerop": null }, "geometry": { "type": "Point", "coordinates": [ -56.68333333, -27.58333333 ] } },
{ "type": "Feature", "properties": { "gid": 56, "nombre": "Mercedes Aéro (Ctes)", "latitud": -29.23333333, "longitud": -58.08333333, "altura": 107.0, "nro": 87281.0, "nro_oaci": "SATM", "fuente": "SMN", "Aerop": null }, "geometry": { "type": "Point", "coordinates": [ -58.08333333, -29.23333333 ] } },
{ "type": "Feature", "properties": { "gid": 57, "nombre": "Monte Caseros Aéro", "latitud": -30.26666667, "longitud": -57.63333333, "altura": 54.0, "nro": 87393.0, "nro_oaci": "SARM", "fuente": "SMN", "Aerop": "Si" }, "geometry": { "type": "Point", "coordinates": [ -57.63333333, -30.26666667 ] } },
{ "type": "Feature", "properties": { "gid": 58, "nombre": "Paso de Los Libres Aéro", "latitud": -29.68333333, "longitud": -57.15, "altura": 70.0, "nro": 87289.0, "nro_oaci": "SARL", "fuente": "SMN", "Aerop": "SNA" }, "geometry": { "type": "Point", "coordinates": [ -57.15, -29.68333333 ] } },
{ "type": "Feature", "properties": { "gid": 59, "nombre": "Concordia Aéro", "latitud": -31.3, "longitud": -58.0, "altura": 38.0, "nro": 87395.0, "nro_oaci": "SAAC", "fuente": "SMN", "Aerop": "SNA" }, "geometry": { "type": "Point", "coordinates": [ -58.0, -31.3 ] } },
{ "type": "Feature", "properties": { "gid": 60, "nombre": "Gualeguaychú Aéro", "latitud": -33.01666667, "longitud": -58.61666667, "altura": 23.0, "nro": 87497.0, "nro_oaci": "SAAG", "fuente": "SMN", "Aerop": "Si" }, "geometry": { "type": "Point", "coordinates": [ -58.61666667, -33.01666667 ] } },
{ "type": "Feature", "properties": { "gid": 61, "nombre": "Paraná Aéro", "latitud": -31.78333333, "longitud": -60.48333333, "altura": 78.0, "nro": 87374.0, "nro_oaci": "SAAP", "fuente": "SMN", "Aerop": "SNA" }, "geometry": { "type": "Point", "coordinates": [ -60.48333333, -31.78333333 ] } },
{ "type": "Feature", "properties": { "gid": 62, "nombre": "Formosa Aéro", "latitud": -26.21666667, "longitud": -58.23333333, "altura": 60.0, "nro": 87162.0, "nro_oaci": "SARF", "fuente": "SMN", "Aerop": "SNA" }, "geometry": { "type": "Point", "coordinates": [ -58.23333333, -26.21666667 ] } },
{ "type": "Feature", "properties": { "gid": 63, "nombre": "Las Lomitas", "latitud": -24.7, "longitud": -60.6, "altura": 130.0, "nro": 87078.0, "nro_oaci": "SATK", "fuente": "SMN", "Aerop": null }, "geometry": { "type": "Point", "coordinates": [ -60.6, -24.7 ] } },
{ "type": "Feature", "properties": { "gid": 64, "nombre": "Jujuy Aéro", "latitud": -24.38333333, "longitud": -65.1, "altura": 907.0, "nro": 87046.0, "nro_oaci": "SASJ", "fuente": "SMN", "Aerop": "SNA" }, "geometry": { "type": "Point", "coordinates": [ -65.1, -24.38333333 ] } },
{ "type": "Feature", "properties": { "gid": 65, "nombre": "Jujuy U N", "latitud": -24.18333333, "longitud": -65.33333333, "altura": 1302.0, "nro": 87043.0, "nro_oaci": null, "fuente": "SMN", "Aerop": null }, "geometry": { "type": "Point", "coordinates": [ -65.33333333, -24.18333333 ] } },
{ "type": "Feature", "properties": { "gid": 66, "nombre": "La Quiaca Observatorio", "latitud": -22.1, "longitud": -65.6, "altura": 3459.0, "nro": 87007.0, "nro_oaci": "SASQ", "fuente": "SMN", "Aerop": null }, "geometry": { "type": "Point", "coordinates": [ -65.6, -22.1 ] } },
{ "type": "Feature", "properties": { "gid": 67, "nombre": "General Pico Aéro", "latitud": -35.68333333, "longitud": -63.76666667, "altura": 145.0, "nro": 87532.0, "nro_oaci": "SAZG", "fuente": "SMN", "Aerop": "SNA" }, "geometry": { "type": "Point", "coordinates": [ -63.76666667, -35.68333333 ] } },
{ "type": "Feature", "properties": { "gid": 68, "nombre": "Santa Rosa Aéro", "latitud": -36.6, "longitud": -64.28333333, "altura": 191.0, "nro": 87623.0, "nro_oaci": "SAZR", "fuente": "SMN", "Aerop": "SNA" }, "geometry": { "type": "Point", "coordinates": [ -64.28333333, -36.6 ] } },
{ "type": "Feature", "properties": { "gid": 69, "nombre": "Victorica", "latitud": -36.21666667, "longitud": -65.43333333, "altura": 312.0, "nro": 87616.0, "nro_oaci": "SAHV", "fuente": "SMN", "Aerop": null }, "geometry": { "type": "Point", "coordinates": [ -65.43333333, -36.21666667 ] } },
{ "type": "Feature", "properties": { "gid": 70, "nombre": "Chamical Aéro", "latitud": -30.35, "longitud": -66.3, "altura": 461.0, "nro": 87320.0, "nro_oaci": "SACT", "fuente": "SMN", "Aerop": "Si" }, "geometry": { "type": "Point", "coordinates": [ -66.3, -30.35 ] } },
{ "type": "Feature", "properties": { "gid": 71, "nombre": "Chepes", "latitud": -31.33333333, "longitud": -66.58333333, "altura": 658.0, "nro": 87322.0, "nro_oaci": "SACP", "fuente": "SMN", "Aerop": null }, "geometry": { "type": "Point", "coordinates": [ -66.58333333, -31.33333333 ] } },
{ "type": "Feature", "properties": { "gid": 72, "nombre": "Chilecito Aéro", "latitud": -29.21666667, "longitud": -67.45, "altura": 947.0, "nro": 87213.0, "nro_oaci": "SANO", "fuente": "SMN", "Aerop": "Si" }, "geometry": { "type": "Point", "coordinates": [ -67.45, -29.21666667 ] } },
{ "type": "Feature", "properties": { "gid": 73, "nombre": "La Rioja Aéro", "latitud": -29.38333333, "longitud": -66.8, "altura": 429.0, "nro": 87217.0, "nro_oaci": "SANL", "fuente": "SMN", "Aerop": "SNA" }, "geometry": { "type": "Point", "coordinates": [ -66.8, -29.38333333 ] } },
{ "type": "Feature", "properties": { "gid": 74, "nombre": "Malargue Aéro", "latitud": -35.48333333, "longitud": -69.58333333, "altura": 1425.0, "nro": 87506.0, "nro_oaci": "SAMM", "fuente": "SMN", "Aerop": "SNA" }, "geometry": { "type": "Point", "coordinates": [ -69.58333333, -35.48333333 ] } },
{ "type": "Feature", "properties": { "gid": 75, "nombre": "Mendoza Aéro", "latitud": -32.85, "longitud": -68.8, "altura": 704.0, "nro": 87418.0, "nro_oaci": "SAME", "fuente": "SMN", "Aerop": "SNA" }, "geometry": { "type": "Point", "coordinates": [ -68.8, -32.85 ] } },
{ "type": "Feature", "properties": { "gid": 76, "nombre": "Mendoza Observatorio", "latitud": -32.9, "longitud": -68.86666667, "altura": 827.0, "nro": 87420.0, "nro_oaci": "SAMK", "fuente": "SMN", "Aerop": null }, "geometry": { "type": "Point", "coordinates": [ -68.86666667, -32.9 ] } },
{ "type": "Feature", "properties": { "gid": 77, "nombre": "San Carlos (Mza)", "latitud": -33.76666667, "longitud": -69.05, "altura": 940.0, "nro": 87412.0, "nro_oaci": "SAMS", "fuente": "SMN", "Aerop": null }, "geometry": { "type": "Point", "coordinates": [ -69.05, -33.76666667 ] } },
{ "type": "Feature", "properties": { "gid": 78, "nombre": "San Martin (Mza)", "latitud": -33.06666667, "longitud": -68.46666667, "altura": 653.0, "nro": 87416.0, "nro_oaci": "SAMI", "fuente": "SMN", "Aerop": null }, "geometry": { "type": "Point", "coordinates": [ -68.46666667, -33.06666667 ] } },
{ "type": "Feature", "properties": { "gid": 79, "nombre": "San Rafael Aéro", "latitud": -34.58333333, "longitud": -68.4, "altura": 748.0, "nro": 87509.0, "nro_oaci": "SAMR", "fuente": "SMN", "Aerop": "SNA" }, "geometry": { "type": "Point", "coordinates": [ -68.4, -34.58333333 ] } },
{ "type": "Feature", "properties": { "gid": 80, "nombre": "Uspallata", "latitud": -32.6, "longitud": -69.33333333, "altura": 1891.0, "nro": 87405.0, "nro_oaci": "SAMU", "fuente": "SMN", "Aerop": null }, "geometry": { "type": "Point", "coordinates": [ -69.33333333, -32.6 ] } },
{ "type": "Feature", "properties": { "gid": 81, "nombre": "Bernardo De Irigoyen Aéro", "latitud": -26.28333333, "longitud": -53.66666667, "altura": 815.0, "nro": 87163.0, "nro_oaci": "SATI", "fuente": "SMN", "Aerop": "Si" }, "geometry": { "type": "Point", "coordinates": [ -53.66666667, -26.28333333 ] } },
{ "type": "Feature", "properties": { "gid": 82, "nombre": "Iguazú Aéro", "latitud": -25.73333333, "longitud": -54.48333333, "altura": 270.0, "nro": 87097.0, "nro_oaci": "SARI", "fuente": "SMN", "Aerop": "SNA" }, "geometry": { "type": "Point", "coordinates": [ -54.48333333, -25.73333333 ] } },
{ "type": "Feature", "properties": { "gid": 83, "nombre": "Oberá", "latitud": -27.48333333, "longitud": -55.13333333, "altura": 303.0, "nro": 87187.0, "nro_oaci": "SATO", "fuente": "SMN", "Aerop": null }, "geometry": { "type": "Point", "coordinates": [ -55.13333333, -27.48333333 ] } },
{ "type": "Feature", "properties": { "gid": 84, "nombre": "Posadas Aéro", "latitud": -27.38333333, "longitud": -55.96666667, "altura": 125.0, "nro": 87178.0, "nro_oaci": "SARP", "fuente": "SMN", "Aerop": "SNA" }, "geometry": { "type": "Point", "coordinates": [ -55.96666667, -27.38333333 ] } },
{ "type": "Feature", "properties": { "gid": 85, "nombre": "Chapelco Aéro", "latitud": -40.08333333, "longitud": -71.15, "altura": 779.0, "nro": 87761.0, "nro_oaci": "SAZY", "fuente": "SMN", "Aerop": "SNA" }, "geometry": { "type": "Point", "coordinates": [ -71.15, -40.08333333 ] } },
{ "type": "Feature", "properties": { "gid": 86, "nombre": "Neuquén Aéro", "latitud": -38.95, "longitud": -68.13333333, "altura": 271.0, "nro": 87715.0, "nro_oaci": "SAZN", "fuente": "SMN", "Aerop": "SNA" }, "geometry": { "type": "Point", "coordinates": [ -68.13333333, -38.95 ] } },
{ "type": "Feature", "properties": { "gid": 87, "nombre": "Bariloche Aéro", "latitud": -41.15, "longitud": -71.16666667, "altura": 835.0, "nro": 87765.0, "nro_oaci": "SAZS", "fuente": "SMN", "Aerop": "SNA" }, "geometry": { "type": "Point", "coordinates": [ -71.16666667, -41.15 ] } },
{ "type": "Feature", "properties": { "gid": 88, "nombre": "Cipolletti", "latitud": -38.93333333, "longitud": -67.98333333, "altura": 265.0, "nro": 87719.0, "nro_oaci": "SAHI", "fuente": "SMN", "Aerop": null }, "geometry": { "type": "Point", "coordinates": [ -67.98333333, -38.93333333 ] } },
{ "type": "Feature", "properties": { "gid": 89, "nombre": "El Bolson Aéro", "latitud": -41.95, "longitud": -71.53333333, "altura": 337.0, "nro": 87800.0, "nro_oaci": "SAVB", "fuente": "SMN", "Aerop": "Si" }, "geometry": { "type": "Point", "coordinates": [ -71.53333333, -41.95 ] } },
{ "type": "Feature", "properties": { "gid": 90, "nombre": "Maquinchao", "latitud": -41.25, "longitud": -68.7, "altura": 888.0, "nro": 87774.0, "nro_oaci": "SAVQ", "fuente": "SMN", "Aerop": null }, "geometry": { "type": "Point", "coordinates": [ -68.7, -41.25 ] } },
{ "type": "Feature", "properties": { "gid": 91, "nombre": "Rio Colorado", "latitud": -38.98333333, "longitud": -64.08333333, "altura": 79.0, "nro": 87736.0, "nro_oaci": "SAZQ", "fuente": "SMN", "Aerop": null }, "geometry": { "type": "Point", "coordinates": [ -64.08333333, -38.98333333 ] } },
{ "type": "Feature", "properties": { "gid": 92, "nombre": "San Antonio Oeste Aéro", "latitud": -40.75, "longitud": -65.03333333, "altura": 20.0, "nro": 87784.0, "nro_oaci": "SAVN", "fuente": "SMN", "Aerop": "Si" }, "geometry": { "type": "Point", "coordinates": [ -65.03333333, -40.75 ] } },
{ "type": "Feature", "properties": { "gid": 93, "nombre": "Viedma Aéro", "latitud": -40.86666667, "longitud": -63.0, "altura": 7.0, "nro": 87791.0, "nro_oaci": "SAVV", "fuente": "SMN", "Aerop": "SNA" }, "geometry": { "type": "Point", "coordinates": [ -63.0, -40.86666667 ] } },
{ "type": "Feature", "properties": { "gid": 94, "nombre": "Metán", "latitud": -25.51666667, "longitud": -64.96666667, "altura": 855.0, "nro": 87050.0, "nro_oaci": "SASM", "fuente": "SMN", "Aerop": null }, "geometry": { "type": "Point", "coordinates": [ -64.96666667, -25.51666667 ] } },
{ "type": "Feature", "properties": { "gid": 95, "nombre": "Orán Aéro", "latitud": -23.15, "longitud": -64.33333333, "altura": 357.0, "nro": 87016.0, "nro_oaci": "SASO", "fuente": "SMN", "Aerop": "Si" }, "geometry": { "type": "Point", "coordinates": [ -64.33333333, -23.15 ] } },
{ "type": "Feature", "properties": { "gid": 96, "nombre": "Rivadavia", "latitud": -24.18333333, "longitud": -62.88333333, "altura": 205.0, "nro": 87065.0, "nro_oaci": "SASR", "fuente": "SMN", "Aerop": null }, "geometry": { "type": "Point", "coordinates": [ -62.88333333, -24.18333333 ] } },
{ "type": "Feature", "properties": { "gid": 97, "nombre": "Salta Aéro", "latitud": -24.85, "longitud": -65.48333333, "altura": 1221.0, "nro": 87047.0, "nro_oaci": "SASA", "fuente": "SMN", "Aerop": "SNA" }, "geometry": { "type": "Point", "coordinates": [ -65.48333333, -24.85 ] } },
{ "type": "Feature", "properties": { "gid": 98, "nombre": "Tartagal Aéro", "latitud": -22.61666667, "longitud": -63.8, "altura": 450.0, "nro": 87022.0, "nro_oaci": "SAST", "fuente": "SMN", "Aerop": "SNA" }, "geometry": { "type": "Point", "coordinates": [ -63.8, -22.61666667 ] } },
{ "type": "Feature", "properties": { "gid": 99, "nombre": "Jachal", "latitud": -30.23333333, "longitud": -68.73333333, "altura": 1175.0, "nro": 87305.0, "nro_oaci": "SAMJ", "fuente": "SMN", "Aerop": null }, "geometry": { "type": "Point", "coordinates": [ -68.73333333, -30.23333333 ] } },
{ "type": "Feature", "properties": { "gid": 100, "nombre": "San Juan Aéro", "latitud": -31.56666667, "longitud": -68.41666667, "altura": 598.0, "nro": 87311.0, "nro_oaci": "SANU", "fuente": "SMN", "Aerop": "SNA" }, "geometry": { "type": "Point", "coordinates": [ -68.41666667, -31.56666667 ] } },
{ "type": "Feature", "properties": { "gid": 101, "nombre": "San Luis Aéro", "latitud": -33.26666667, "longitud": -66.35, "altura": 713.0, "nro": 87436.0, "nro_oaci": "SAOU", "fuente": "SMN", "Aerop": "SNA" }, "geometry": { "type": "Point", "coordinates": [ -66.35, -33.26666667 ] } },
{ "type": "Feature", "properties": { "gid": 102, "nombre": "Santa Rosa De Conlara Aéro", "latitud": -32.38333333, "longitud": -65.18333333, "altura": 620.0, "nro": 87444.0, "nro_oaci": "SAOS", "fuente": "SMN", "Aerop": "SNA" }, "geometry": { "type": "Point", "coordinates": [ -65.18333333, -32.38333333 ] } },
{ "type": "Feature", "properties": { "gid": 103, "nombre": "Villa Reynolds Aéro", "latitud": -33.71666667, "longitud": -65.36666667, "altura": 486.0, "nro": 87448.0, "nro_oaci": "SAOR", "fuente": "SMN", "Aerop": "SNA" }, "geometry": { "type": "Point", "coordinates": [ -65.36666667, -33.71666667 ] } },
{ "type": "Feature", "properties": { "gid": 104, "nombre": "El Calafate Aéro", "latitud": -50.28333333, "longitud": -72.05, "altura": 204.0, "nro": 87904.0, "nro_oaci": "SAWC", "fuente": "SMN", "Aerop": "SNA" }, "geometry": { "type": "Point", "coordinates": [ -72.05, -50.28333333 ] } },
{ "type": "Feature", "properties": { "gid": 105, "nombre": "Gobernador Gregores Aéro", "latitud": -48.78333333, "longitud": -70.16666667, "altura": 358.0, "nro": 87880.0, "nro_oaci": "SAWR", "fuente": "SMN", "Aerop": "Si" }, "geometry": { "type": "Point", "coordinates": [ -70.16666667, -48.78333333 ] } },
{ "type": "Feature", "properties": { "gid": 106, "nombre": "Perito Moreno Aéro", "latitud": -46.53333333, "longitud": -70.98333333, "altura": 429.0, "nro": 87852.0, "nro_oaci": "SAWP", "fuente": "SMN", "Aerop": "SNA" }, "geometry": { "type": "Point", "coordinates": [ -70.98333333, -46.53333333 ] } },
{ "type": "Feature", "properties": { "gid": 107, "nombre": "Puerto Deseado Aéro", "latitud": -47.73333333, "longitud": -65.9, "altura": 80.0, "nro": 87896.0, "nro_oaci": "SAWD", "fuente": "SMN", "Aerop": "Si" }, "geometry": { "type": "Point", "coordinates": [ -65.9, -47.73333333 ] } },
{ "type": "Feature", "properties": { "gid": 108, "nombre": "Rio Gallegos Aéro", "latitud": -51.61666667, "longitud": -69.3, "altura": 19.0, "nro": 87925.0, "nro_oaci": "SAWG", "fuente": "SMN", "Aerop": "SNA" }, "geometry": { "type": "Point", "coordinates": [ -69.3, -51.61666667 ] } },
{ "type": "Feature", "properties": { "gid": 109, "nombre": "San Julian Aéro", "latitud": -49.3, "longitud": -67.8, "altura": 62.0, "nro": 87909.0, "nro_oaci": "SAWJ", "fuente": "SMN", "Aerop": "Si" }, "geometry": { "type": "Point", "coordinates": [ -67.8, -49.3 ] } },
{ "type": "Feature", "properties": { "gid": 110, "nombre": "Santa Cruz Aéro", "latitud": -50.01666667, "longitud": -68.58333333, "altura": 111.0, "nro": 87912.0, "nro_oaci": "SAWU", "fuente": "SMN", "Aerop": "Si" }, "geometry": { "type": "Point", "coordinates": [ -68.58333333, -50.01666667 ] } },
{ "type": "Feature", "properties": { "gid": 111, "nombre": "Ceres Aéro", "latitud": -29.88333333, "longitud": -61.93333333, "altura": 88.0, "nro": 87257.0, "nro_oaci": "SANW", "fuente": "SMN", "Aerop": "Si" }, "geometry": { "type": "Point", "coordinates": [ -61.93333333, -29.88333333 ] } },
{ "type": "Feature", "properties": { "gid": 112, "nombre": "El Trebol", "latitud": -32.2, "longitud": -61.71666667, "altura": 96.0, "nro": 87470.0, "nro_oaci": "SAFT", "fuente": "SMN", "Aerop": null }, "geometry": { "type": "Point", "coordinates": [ -61.71666667, -32.2 ] } },
{ "type": "Feature", "properties": { "gid": 113, "nombre": "Rafaela Aéro", "latitud": -31.28333333, "longitud": -61.51666667, "altura": 99.0, "nro": 87360.0, "nro_oaci": "SAFR", "fuente": "SMN", "Aerop": "Si" }, "geometry": { "type": "Point", "coordinates": [ -61.51666667, -31.28333333 ] } },
{ "type": "Feature", "properties": { "gid": 114, "nombre": "Reconquista Aéro", "latitud": -29.2, "longitud": -59.7, "altura": 53.0, "nro": 87270.0, "nro_oaci": "SATR", "fuente": "SMN", "Aerop": "SNA" }, "geometry": { "type": "Point", "coordinates": [ -59.7, -29.2 ] } },
{ "type": "Feature", "properties": { "gid": 115, "nombre": "Rosario Aéro", "latitud": -32.9, "longitud": -60.78333333, "altura": 25.0, "nro": 87480.0, "nro_oaci": "SAAR", "fuente": "SMN", "Aerop": "SNA" }, "geometry": { "type": "Point", "coordinates": [ -60.78333333, -32.9 ] } },
{ "type": "Feature", "properties": { "gid": 116, "nombre": "Sauce Viejo Aéro", "latitud": -31.7, "longitud": -60.8, "altura": 18.0, "nro": 87371.0, "nro_oaci": "SAAV", "fuente": "SMN", "Aerop": "SNA" }, "geometry": { "type": "Point", "coordinates": [ -60.8, -31.7 ] } },
{ "type": "Feature", "properties": { "gid": 117, "nombre": "Sunchales Aéro", "latitud": -30.95, "longitud": -61.53333333, "altura": 92.0, "nro": 87356.0, "nro_oaci": "SAFS", "fuente": "SMN", "Aerop": "Si" }, "geometry": { "type": "Point", "coordinates": [ -61.53333333, -30.95 ] } },
{ "type": "Feature", "properties": { "gid": 118, "nombre": "Venado Tuerto Aéro", "latitud": -33.68333333, "longitud": -61.96666667, "altura": 112.0, "nro": 87468.0, "nro_oaci": "SAFV", "fuente": "SMN", "Aerop": "Si" }, "geometry": { "type": "Point", "coordinates": [ -61.96666667, -33.68333333 ] } },
{ "type": "Feature", "properties": { "gid": 119, "nombre": "Santiago Del Estero Aéro", "latitud": -27.75, "longitud": -64.3, "altura": 199.0, "nro": 87129.0, "nro_oaci": "SANE", "fuente": "SMN", "Aerop": "SNA" }, "geometry": { "type": "Point", "coordinates": [ -64.3, -27.75 ] } },
{ "type": "Feature", "properties": { "gid": 120, "nombre": "Termas De Rio Hondo Aéro", "latitud": -27.5, "longitud": -64.93333333, "altura": 280.0, "nro": 87127.0, "nro_oaci": "SANR", "fuente": "SMN", "Aerop": "SNA" }, "geometry": { "type": "Point", "coordinates": [ -64.93333333, -27.5 ] } },
{ "type": "Feature", "properties": { "gid": 121, "nombre": "Rio Grande B.A.", "latitud": -53.78333333, "longitud": -67.76666667000001, "altura": 22.0, "nro": 87934.0, "nro_oaci": "SAWE", "fuente": "SMN", "Aerop": "SNA" }, "geometry": { "type": "Point", "coordinates": [ -67.76666667, -53.78333333 ] } },
{ "type": "Feature", "properties": { "gid": 122, "nombre": "Ushuaia Aéro", "latitud": -54.83333333, "longitud": -68.3, "altura": 57.0, "nro": 87938.0, "nro_oaci": "SAWH", "fuente": "SMN", "Aerop": "SNA" }, "geometry": { "type": "Point", "coordinates": [ -68.3, -54.83333333 ] } },
{ "type": "Feature", "properties": { "gid": 123, "nombre": "Tucumán Aéro", "latitud": -26.83333333, "longitud": -65.11666667, "altura": 450.0, "nro": 87121.0, "nro_oaci": "SANT", "fuente": "SMN", "Aerop": "SNA" }, "geometry": { "type": "Point", "coordinates": [ -65.11666667, -26.83333333 ] } }
]
}
