{
"type": "FeatureCollection",
"name": "Terminales2026",
"crs": { "type": "name", "properties": { "name": "urn:ogc:def:crs:OGC:1.3:CRS84" } },
"features": [
{ "type": "Feature", "properties": { "Id": 0, "Tipo": "Terminal de pasajeros", "IATA": "AEP", "Etiqueta": "AEP - Terminal de pasajeros", "Metros2": 31347.872512999998 }, "geometry": { "type": "MultiPolygon", "coordinates": [ [ [ [ -58.416206295516176, -34.556021016958645 ], [ -58.41621157303144, -34.555944312863055 ], [ -58.416195522534686, -34.555738174068232 ], [ -58.416050749723119, -34.555741679240228 ], [ -58.416054799606805, -34.555640647058652 ], [ -58.416023110098322, -34.555645989465368 ], [ -58.416028828642048, -34.555566270071743 ], [ -58.415882194117984, -34.555567093343569 ], [ -58.415877765380856, -34.555521166928941 ], [ -58.41548438020083, -34.555505144317131 ], [ -58.415484752531981, -34.555570827932591 ], [ -58.415180678864694, -34.555734385679266 ], [ -58.415092155234873, -34.555608866263299 ], [ -58.413688974175002, -34.556274804139193 ], [ -58.413710400733777, -34.556308403696484 ], [ -58.412508622374588, -34.557029549383785 ], [ -58.41113268766545, -34.557880800782549 ], [ -58.411158292261007, -34.557902738163335 ], [ -58.411108616192642, -34.557952202327471 ], [ -58.411006875979645, -34.558034895687221 ], [ -58.411322626921198, -34.558294329478741 ], [ -58.411366628744439, -34.558255897191017 ], [ -58.411402620986586, -34.558285699853215 ], [ -58.412732454766669, -34.557431599087387 ], [ -58.412746200925419, -34.557451003557325 ], [ -58.414678690814505, -34.556539380477382 ], [ -58.414661631428956, -34.556505224481178 ], [ -58.415267336665636, -34.556220549071917 ], [ -58.415439586914964, -34.556122382279511 ], [ -58.415549858400247, -34.556087676562626 ], [ -58.415894595396097, -34.556108698070176 ], [ -58.415898371601564, -34.556013188599593 ], [ -58.416134158761913, -34.556017936080885 ], [ -58.416206295516176, -34.556021016958645 ] ] ] ] } },
{ "type": "Feature", "properties": { "Id": 0, "Tipo": "Terminal militar", "IATA": "AEP", "Etiqueta": "AEP - Terminal militar", "Metros2": 481.69740183900001 }, "geometry": { "type": "MultiPolygon", "coordinates": [ [ [ [ -58.407959593987343, -34.56647167147014 ], [ -58.407804959318824, -34.566251614441676 ], [ -58.407712259557123, -34.566303510562605 ], [ -58.407588164535355, -34.566375792614835 ], [ -58.407666714391027, -34.566440840567395 ], [ -58.407761110865742, -34.566477179311953 ], [ -58.407850099251974, -34.566484648743447 ], [ -58.407959593987343, -34.56647167147014 ] ] ] ] } },
{ "type": "Feature", "properties": { "Id": 0, "Tipo": "Terminal de aviación general", "IATA": "AEP", "Etiqueta": "AEP - Terminal de aviación general", "Metros2": 653.95239339099999 }, "geometry": { "type": "MultiPolygon", "coordinates": [ [ [ [ -58.407553929834563, -34.566624006854205 ], [ -58.407626458704001, -34.566497869729744 ], [ -58.407272624352608, -34.566289061084007 ], [ -58.40715603076206, -34.566388998425978 ], [ -58.407553929834563, -34.566624006854205 ] ] ] ] } },
{ "type": "Feature", "properties": { "Id": 0, "Tipo": "Terminal de aviación general", "IATA": "EZE", "Etiqueta": "EZE - Terminal de aviación general", "Metros2": 5906.9084411699996 }, "geometry": { "type": "MultiPolygon", "coordinates": [ [ [ [ -58.524561020506837, -34.801019751645072 ], [ -58.524915511225572, -34.800523946676606 ], [ -58.524221709367453, -34.79997136112587 ], [ -58.523811490290086, -34.800395143131027 ], [ -58.524168409440961, -34.800741354707384 ], [ -58.524561020506837, -34.801019751645072 ] ] ] ] } },
{ "type": "Feature", "properties": { "Id": 0, "Tipo": "Terminal de cargas", "IATA": "EZE", "Etiqueta": "EZE - Terminal de cargas", "Metros2": 202105.02787200001 }, "geometry": { "type": "MultiPolygon", "coordinates": [ [ [ [ -58.537307150821164, -34.811294646139224 ], [ -58.538398775986259, -34.811604783929461 ], [ -58.538460784776461, -34.811489624747587 ], [ -58.53853500012891, -34.811427315796088 ], [ -58.53868052560415, -34.811395872817911 ], [ -58.539521881581031, -34.811614301773481 ], [ -58.539912113186013, -34.811690444525652 ], [ -58.540215494464256, -34.811855618777066 ], [ -58.54096502468105, -34.811724748421852 ], [ -58.54092040978724, -34.81143029012231 ], [ -58.541282682725338, -34.810871909939671 ], [ -58.541577735890023, -34.810595892462963 ], [ -58.541649119720304, -34.809717078198162 ], [ -58.541408199293421, -34.809681386283025 ], [ -58.540988819291151, -34.809621899757929 ], [ -58.541176201845353, -34.809030008832664 ], [ -58.54106317744759, -34.808994316917541 ], [ -58.541208919434141, -34.808571962589092 ], [ -58.541059936621636, -34.808522312755763 ], [ -58.540991793617366, -34.808708781596899 ], [ -58.540947178723563, -34.808696884291905 ], [ -58.540917435460905, -34.808735550533221 ], [ -58.540727078580446, -34.808676064008132 ], [ -58.540667592055328, -34.808622526135487 ], [ -58.540655694750342, -34.808509501737696 ], [ -58.540966993735033, -34.807525052142374 ], [ -58.541300979633689, -34.806555670219922 ], [ -58.541463521761834, -34.806607915817217 ], [ -58.541529473999894, -34.806361593999952 ], [ -58.54150159313793, -34.806027327331705 ], [ -58.541473039605876, -34.80546577453439 ], [ -58.541225575661194, -34.805189757057683 ], [ -58.540479908999927, -34.804557414999977 ], [ -58.539788381213661, -34.804104722839057 ], [ -58.538664740240179, -34.807275116683286 ], [ -58.537307150821164, -34.811294646139224 ] ] ] ] } },
{ "type": "Feature", "properties": { "Id": 0, "Tipo": "Terminal de pasajeros", "IATA": "EZE", "Etiqueta": "EZE - Terminal de pasajeros", "Metros2": 105099.449647 }, "geometry": { "type": "MultiPolygon", "coordinates": [ [ [ [ -58.538186976665493, -34.8144599298084 ], [ -58.538787599989007, -34.81414930755426 ], [ -58.539331452148808, -34.814610567510066 ], [ -58.539100542045475, -34.81479575306188 ], [ -58.539105886118278, -34.814800285357933 ], [ -58.539102518790507, -34.814802985997652 ], [ -58.539095012292229, -34.814796619784644 ], [ -58.539068372708961, -34.814817984876996 ], [ -58.539186022942353, -34.814917764028927 ], [ -58.539212662507822, -34.814896399022253 ], [ -58.539151663283612, -34.814844665842934 ], [ -58.539155030824752, -34.814841965044323 ], [ -58.539160368631833, -34.814846491853878 ], [ -58.53939127335466, -34.814661303499342 ], [ -58.539941757194121, -34.815128179560091 ], [ -58.539710858842412, -34.815313356697906 ], [ -58.539716202984152, -34.815317888970235 ], [ -58.539712835751061, -34.815320589535325 ], [ -58.539705329186212, -34.815314223349695 ], [ -58.53967868945616, -34.815335588676348 ], [ -58.539796341392808, -34.815435367080092 ], [ -58.53982298074483, -34.815414002128023 ], [ -58.539761980757959, -34.815362269240033 ], [ -58.539765348301486, -34.815359568424789 ], [ -58.539770686075165, -34.815364095289148 ], [ -58.540001580312875, -34.81517891433348 ], [ -58.540255372686993, -34.815394159550245 ], [ -58.540024481588908, -34.815579338408021 ], [ -58.54002966356655, -34.815583733110891 ], [ -58.540026298570297, -34.815586431887581 ], [ -58.539977406429195, -34.815544967683202 ], [ -58.539950766477929, -34.815566333314337 ], [ -58.539996790210651, -34.815605364905998 ], [ -58.539979591672939, -34.815619158381658 ], [ -58.540018603730729, -34.815652243509177 ], [ -58.54003580226923, -34.815638450028082 ], [ -58.540081788408358, -34.815677449639018 ], [ -58.540108428363673, -34.815656083979611 ], [ -58.540059546348154, -34.815614628463642 ], [ -58.540062911343341, -34.815611929684998 ], [ -58.54006809265924, -34.815616323780972 ], [ -58.540298983590525, -34.815431146134458 ], [ -58.540628263740892, -34.815710410345446 ], [ -58.540397379766439, -34.815895577089321 ], [ -58.54040272402473, -34.815900109539811 ], [ -58.540399356792406, -34.81590281013429 ], [ -58.540391850113849, -34.815896443982083 ], [ -58.540365210471386, -34.81591780936963 ], [ -58.540482863830377, -34.816017587327579 ], [ -58.540509503435892, -34.815996222041086 ], [ -58.540448502591126, -34.815944489480835 ], [ -58.540451870137332, -34.815941788646846 ], [ -58.540457207986087, -34.815946315482535 ], [ -58.540688087846888, -34.815761144920927 ], [ -58.541162575491676, -34.816163552041033 ], [ -58.540931700381385, -34.816348712560476 ], [ -58.540936860391476, -34.816353088515257 ], [ -58.540933493056542, -34.81635578920492 ], [ -58.540926999916692, -34.816350282464541 ], [ -58.540900360117199, -34.816371648070849 ], [ -58.541014655702213, -34.816468576501919 ], [ -58.541041295091844, -34.81644721128697 ], [ -58.540982639393036, -34.816397468346025 ], [ -58.540986006941324, -34.816394767497464 ], [ -58.540991154472415, -34.816399132697008 ], [ -58.541231694174051, -34.816206206480139 ], [ -58.541336460869829, -34.816295053526375 ], [ -58.541804681798475, -34.81621078706376 ], [ -58.54187622178501, -34.816481154100423 ], [ -58.541883425317231, -34.816479857670139 ], [ -58.54188442677323, -34.816483642094802 ], [ -58.541875354878741, -34.81648527490988 ], [ -58.541883278264834, -34.816515216489073 ], [ -58.541961816955457, -34.816501080590783 ], [ -58.541966120749414, -34.816517344073624 ], [ -58.541989593607553, -34.816513119226919 ], [ -58.541985289775241, -34.816496855616755 ], [ -58.542043449396914, -34.816486387526531 ], [ -58.542035526023952, -34.816456446217337 ], [ -58.541953332139634, -34.816471240201302 ], [ -58.541952330606399, -34.816467455532624 ], [ -58.541959533405361, -34.816466158993563 ], [ -58.541887992617134, -34.816195793275398 ], [ -58.54267646542332, -34.816053885488458 ], [ -58.542661457923131, -34.815997171241783 ], [ -58.542772092823256, -34.81597725936485 ], [ -58.542858631290677, -34.816304336688916 ], [ -58.542865812295041, -34.816303044249032 ], [ -58.542866813807933, -34.816306828639924 ], [ -58.542857736141286, -34.81630846260817 ], [ -58.542865660035289, -34.816338404426659 ], [ -58.54294419791978, -34.816324267681196 ], [ -58.542948501983474, -34.81634053126642 ], [ -58.542971974735877, -34.816336306182265 ], [ -58.542967670662762, -34.816320042598655 ], [ -58.543025829843394, -34.816309573952346 ], [ -58.543017905893478, -34.816279632143022 ], [ -58.542935686703167, -34.816294431414128 ], [ -58.542934685279441, -34.816290647330163 ], [ -58.542941918910969, -34.816289345176664 ], [ -58.542855334126848, -34.815962195486499 ], [ -58.542848108034228, -34.815963496283445 ], [ -58.542836476401533, -34.815919543427754 ], [ -58.542813391000792, -34.815923052932504 ], [ -58.54280849057465, -34.815904532395635 ], [ -58.54280857626631, -34.815904516970207 ], [ -58.542808445139904, -34.81590402159393 ], [ -58.543455513630718, -34.81578754359434 ], [ -58.543456734948414, -34.815792159752128 ], [ -58.543456164927505, -34.815792262322439 ], [ -58.543456365982109, -34.815793022630231 ], [ -58.543399269396453, -34.815803292112015 ], [ -58.543408091639478, -34.81583665066136 ], [ -58.543487531954611, -34.815822356449075 ], [ -58.543477284699442, -34.815783621612539 ], [ -58.543723427296868, -34.815739318385461 ], [ -58.543726966825261, -34.815752692787065 ], [ -58.543719773074088, -34.815753987492428 ], [ -58.543819622605177, -34.816131336786135 ], [ -58.543826831833236, -34.816130039296006 ], [ -58.543827833381776, -34.816133823962574 ], [ -58.543818755827743, -34.816135457986931 ], [ -58.543826680392222, -34.816165401066257 ], [ -58.543986849585941, -34.816136569630288 ], [ -58.543978925464749, -34.816106628168299 ], [ -58.543896706386199, -34.816121427306392 ], [ -58.543895704766889, -34.816117642650532 ], [ -58.543902935619755, -34.81611634102677 ], [ -58.54380306839132, -34.815738994910895 ], [ -58.54379583945564, -34.815740296190178 ], [ -58.543792303864393, -34.815726936707662 ], [ -58.543815116469744, -34.815722830588939 ], [ -58.543804167408965, -34.815681437253751 ], [ -58.542633656284444, -34.815892107274529 ], [ -58.542595020719652, -34.815746101478467 ], [ -58.542023356418397, -34.815848981064732 ], [ -58.542018535557112, -34.815830760716125 ], [ -58.541993976281347, -34.815835180460788 ], [ -58.541998799438609, -34.815853409507561 ], [ -58.541957580836446, -34.815860827947205 ], [ -58.541952757783413, -34.815842599259781 ], [ -58.54192819850109, -34.815847018990979 ], [ -58.541933021643935, -34.815865248038456 ], [ -58.541903304655172, -34.8158705964074 ], [ -58.541629445376941, -34.815638353231023 ], [ -58.541668222138107, -34.815607252500165 ], [ -58.541372889344551, -34.815356794006725 ], [ -58.541334112314551, -34.815387894700791 ], [ -58.541327123333275, -34.8153819676673 ], [ -58.541339768889287, -34.815371824006782 ], [ -58.541361851313511, -34.815297162334481 ], [ -58.541377778003287, -34.815300388897569 ], [ -58.541514666597728, -34.815327816122164 ], [ -58.541844227607868, -34.814209033563039 ], [ -58.541856652290399, -34.814178217727829 ], [ -58.541875059450028, -34.814149509651962 ], [ -58.541898946641332, -34.814123692947774 ], [ -58.541927661838244, -34.814101472304429 ], [ -58.54196042123214, -34.814083454253051 ], [ -58.541996330626432, -34.814070130611192 ], [ -58.542131152782282, -34.814038489079358 ], [ -58.542063081897702, -34.813847536176695 ], [ -58.542063082766539, -34.813847538613999 ], [ -58.542014290685088, -34.813855955058621 ], [ -58.541964471291173, -34.813857344091645 ], [ -58.541915101413004, -34.813851664537388 ], [ -58.541867644552994, -34.813839084758776 ], [ -58.541823507503253, -34.81381997766632 ], [ -58.541783998642273, -34.813794909663336 ], [ -58.541585411498211, -34.813626575363926 ], [ -58.541722739906938, -34.813516376782367 ], [ -58.541391712181763, -34.813235776157875 ], [ -58.541254448611326, -34.813345922384187 ], [ -58.541049910754182, -34.8131725411627 ], [ -58.540793868379495, -34.813377999036888 ], [ -58.541110026523128, -34.813645998053005 ], [ -58.541041390659458, -34.813701073893654 ], [ -58.540670847538408, -34.813386952509653 ], [ -58.540656471227337, -34.813398527291213 ], [ -58.540592701923316, -34.813345819665344 ], [ -58.54043604215645, -34.813470624452364 ], [ -58.53975130506516, -34.813686029412175 ], [ -58.539670257169973, -34.813609070640311 ], [ -58.541074648475423, -34.813140802902417 ], [ -58.541034005101011, -34.813057810740062 ], [ -58.539604002259551, -34.813533694825374 ], [ -58.539547547935655, -34.813466990325082 ], [ -58.539505848578287, -34.813390641046489 ], [ -58.539463890061164, -34.813262793989679 ], [ -58.539661673745449, -34.813277283581172 ], [ -58.539829284512798, -34.811720988417896 ], [ -58.539540175398706, -34.811699808368971 ], [ -58.539549105224118, -34.811616894125962 ], [ -58.539547458177275, -34.811616773461488 ], [ -58.539553020212168, -34.811565133497552 ], [ -58.539067193173288, -34.811529537551564 ], [ -58.539074344307295, -34.811463147308061 ], [ -58.5390794018438, -34.811416193688707 ], [ -58.538706624328931, -34.811388884377855 ], [ -58.538540768674878, -34.812928470123481 ], [ -58.538536773720445, -34.812965553190601 ], [ -58.538080903617811, -34.81293457801285 ], [ -58.53808671005546, -34.81283256508501 ], [ -58.538105527415695, -34.81282103185012 ], [ -58.538108695711117, -34.812785833630379 ], [ -58.538105846159475, -34.812785680490158 ], [ -58.538092758705275, -34.812784977145128 ], [ -58.538085995082056, -34.812784613654429 ], [ -58.538086472858623, -34.812777835292145 ], [ -58.538071198195055, -34.812777102941936 ], [ -58.538070726634686, -34.81278379309596 ], [ -58.538061637962159, -34.812783304650694 ], [ -58.538048330793288, -34.812932364651161 ], [ -58.537713782458802, -34.812909631188212 ], [ -58.537723823134435, -34.812811160964365 ], [ -58.537737404226206, -34.812801674493763 ], [ -58.537740907884732, -34.812766522509612 ], [ -58.537719275552035, -34.812764954984189 ], [ -58.537719782650626, -34.812758170730433 ], [ -58.537704511195329, -34.812757394272552 ], [ -58.537704028639901, -34.812763850157765 ], [ -58.537694081406066, -34.812763129357201 ], [ -58.537681008013976, -34.812907404026127 ], [ -58.537627984375064, -34.812903800826767 ], [ -58.537596584196578, -34.813213431664643 ], [ -58.537450074742438, -34.813205449523089 ], [ -58.537437494327065, -34.813193338103396 ], [ -58.537395432848669, -34.813191226811604 ], [ -58.537393900783258, -34.813209327592169 ], [ -58.537385767810846, -34.81320883301602 ], [ -58.53738464270787, -34.813221417924126 ], [ -58.537392835278723, -34.813221916124554 ], [ -58.537392170148955, -34.813229774378236 ], [ -58.537593783837316, -34.813241045821719 ], [ -58.537589907472039, -34.813279269482976 ], [ -58.537639933924638, -34.813447809709842 ], [ -58.537497481702701, -34.813477153059701 ], [ -58.537481013858567, -34.813468793843079 ], [ -58.537429862450168, -34.813479441259645 ], [ -58.537435324932595, -34.81349745551065 ], [ -58.53742725727502, -34.813499308073581 ], [ -58.537431440466001, -34.813511446550145 ], [ -58.537439038405118, -34.813509701847899 ], [ -58.537441294970229, -34.813517143575503 ], [ -58.53749275534296, -34.813506529401288 ], [ -58.537500654527847, -34.813531878806906 ], [ -58.537563417965359, -34.813518575474646 ], [ -58.537556213731506, -34.813495456305226 ], [ -58.537555623513391, -34.813493562230583 ], [ -58.537647866914341, -34.8134745360666 ], [ -58.537852548674103, -34.814164106071111 ], [ -58.537770676402246, -34.814181461702823 ], [ -58.537770572588691, -34.814181128656728 ], [ -58.537763433723327, -34.814157979557862 ], [ -58.537700629668656, -34.81417115344334 ], [ -58.53770791168418, -34.814194766791594 ], [ -58.537690606509067, -34.814185989191799 ], [ -58.537649770960641, -34.814194593182314 ], [ -58.537655731067645, -34.814213722369644 ], [ -58.537647958897203, -34.81421526217386 ], [ -58.53765153275279, -34.814227532187125 ], [ -58.537659575241307, -34.81422593882813 ], [ -58.537661806028176, -34.814232976567524 ], [ -58.537863281724483, -34.814190277984437 ], [ -58.538009745138758, -34.814384003313542 ], [ -58.537913718354865, -34.814490486503765 ], [ -58.53789498240976, -34.814492787651595 ], [ -58.537869535937766, -34.814520537289518 ], [ -58.537886967248404, -34.814531052645343 ], [ -58.537882174869203, -34.814537214494614 ], [ -58.537895053866897, -34.814544027675574 ], [ -58.537899340153537, -34.814538516538839 ], [ -58.537907640811227, -34.814543523867854 ], [ -58.538028839722955, -34.814409259403575 ], [ -58.538100831058038, -34.814504480987409 ], [ -58.538154613718433, -34.814476666686936 ], [ -58.538166643272305, -34.814654501951338 ], [ -58.53815384515994, -34.814666277450009 ], [ -58.538158404661374, -34.814701373910808 ], [ -58.538178321637297, -34.814700404803183 ], [ -58.538179014077642, -34.814706869608038 ], [ -58.5381942922346, -34.814705617627908 ], [ -58.538193533052798, -34.814699030800554 ], [ -58.538203107047536, -34.814698386934076 ], [ -58.538186976665493, -34.8144599298084 ] ] ], [ [ [ -58.540674166611524, -34.812941983527857 ], [ -58.540980355684376, -34.813021125061113 ], [ -58.54130800105078, -34.812158860166093 ], [ -58.541001814795173, -34.812079719518408 ], [ -58.540674166611524, -34.812941983527857 ] ] ] ] } },
{ "type": "Feature", "properties": { "Id": 0, "Tipo": "Terminal de pasajeros", "IATA": "SLA", "Etiqueta": "SLA - Terminal de pasajeros", "Metros2": 6062.1057583299998 }, "geometry": { "type": "MultiPolygon", "coordinates": [ [ [ [ -65.479530743708793, -24.844197201824937 ], [ -65.479417564630253, -24.843938972123784 ], [ -65.479139398277525, -24.844043481807876 ], [ -65.479100593052024, -24.84395748205635 ], [ -65.478964254850453, -24.8440087053269 ], [ -65.479003059996288, -24.844094705111946 ], [ -65.478861016243798, -24.844145142336856 ], [ -65.478873664167182, -24.844175544303326 ], [ -65.478831573088627, -24.844191358146375 ], [ -65.478817445028426, -24.844160047530917 ], [ -65.478776268971941, -24.844175517579401 ], [ -65.478781920191679, -24.844188041827223 ], [ -65.478554933310051, -24.844273321649425 ], [ -65.478512360960977, -24.844178972249281 ], [ -65.478355434218358, -24.844237929937886 ], [ -65.478402150671428, -24.844341463838713 ], [ -65.477791208585842, -24.844564646689321 ], [ -65.47788698716721, -24.84477913183682 ], [ -65.477870492014034, -24.844785264938572 ], [ -65.477889196573244, -24.844831937355824 ], [ -65.479540079106968, -24.844218106709491 ], [ -65.479530743708793, -24.844197201824937 ] ] ] ] } },
{ "type": "Feature", "properties": { "Id": 0, "Tipo": "Terminal de cargas", "IATA": "AEP", "Etiqueta": "AEP - Terminal de cargas", "Metros2": 36040.618348700002 }, "geometry": { "type": "MultiPolygon", "coordinates": [ [ [ [ -58.418807049183542, -34.554894787134899 ], [ -58.418987006755486, -34.555107832590579 ], [ -58.419120371184981, -34.55526415595984 ], [ -58.420907638992944, -34.554835891314553 ], [ -58.421102945152327, -34.554731195030286 ], [ -58.421184323409022, -34.55468678377504 ], [ -58.421244976090286, -34.55465193505097 ], [ -58.421355565995, -34.554581568426528 ], [ -58.421512251544478, -34.554478415879757 ], [ -58.421705664804634, -34.554327032310916 ], [ -58.422145678280138, -34.554011149443809 ], [ -58.422425659759952, -34.553810150231378 ], [ -58.422801640982883, -34.553613820643541 ], [ -58.423275463332828, -34.553420499030224 ], [ -58.423269186652071, -34.553351811330486 ], [ -58.422438613243131, -34.553562493365924 ], [ -58.422029403905071, -34.553663782806034 ], [ -58.419833448843384, -34.554116208971877 ], [ -58.418726017631471, -34.554232354196543 ], [ -58.418296550405387, -34.554294478386481 ], [ -58.418807049183542, -34.554894787134899 ] ] ] ] } },
{ "type": "Feature", "properties": { "Id": 0, "Tipo": "Terminal de cargas", "IATA": "TUC", "Etiqueta": "TUC - Terminal de cargas", "Metros2": 5997.4945606499996 }, "geometry": { "type": "MultiPolygon", "coordinates": [ [ [ [ -65.10848732288602, -26.832076364765047 ], [ -65.108385321866876, -26.831545182668425 ], [ -65.107388798549394, -26.831700810485017 ], [ -65.107490492707129, -26.832230418467493 ], [ -65.10848732288602, -26.832076364765047 ] ] ] ] } },
{ "type": "Feature", "properties": { "Id": 0, "Tipo": "Terminal de pasajeros", "IATA": "TUC", "Etiqueta": "TUC - Terminal de pasajeros", "Metros2": 6247.8012900800004 }, "geometry": { "type": "MultiPolygon", "coordinates": [ [ [ [ -65.1080587, -26.8351304 ], [ -65.1080714, -26.835199499999987 ], [ -65.107946299999981, -26.8352178 ], [ -65.1079742, -26.835369700000015 ], [ -65.1079437, -26.8353742 ], [ -65.1079595, -26.8354603 ], [ -65.1079909, -26.8354557 ], [ -65.108010099999987, -26.835560700000013 ], [ -65.1079794, -26.8355652 ], [ -65.1079963, -26.8356569 ], [ -65.1080379, -26.8356509 ], [ -65.1081122, -26.8360559 ], [ -65.1081759, -26.836403 ], [ -65.108364499999965, -26.8363754 ], [ -65.1084382, -26.836364599999989 ], [ -65.1084319, -26.836330299999986 ], [ -65.108423299999984, -26.8362834 ], [ -65.1084556, -26.836278699999983 ], [ -65.108480799999981, -26.836275 ], [ -65.108540099999985, -26.8362663 ], [ -65.108601299999989, -26.8362574 ], [ -65.108596499999976, -26.836231499999982 ], [ -65.108627299999981, -26.836227 ], [ -65.1086583, -26.8362224 ], [ -65.108652299999989, -26.8361861 ], [ -65.1086398, -26.8361215 ], [ -65.108610499999983, -26.8361258 ], [ -65.108579, -26.836130399999988 ], [ -65.1085484, -26.8359637 ], [ -65.1085807, -26.8359589 ], [ -65.1086059, -26.8359553 ], [ -65.1085975, -26.8359163 ], [ -65.108572899999984, -26.8357756 ], [ -65.1085481, -26.8356405 ], [ -65.1085389, -26.8355901 ], [ -65.1085112, -26.835594099999987 ], [ -65.108472699999965, -26.8355998 ], [ -65.108441699999986, -26.835430899999981 ], [ -65.108478799999986, -26.835425499999989 ], [ -65.1085035, -26.835421899999982 ], [ -65.1084867, -26.835330399999989 ], [ -65.1084608, -26.835334099999976 ], [ -65.108412099999967, -26.8353413 ], [ -65.1084085, -26.835322 ], [ -65.108359956140362, -26.835329105699088 ], [ -65.108322516174567, -26.835132331022042 ], [ -65.108198025926626, -26.835151569854641 ], [ -65.10818679999997, -26.8350904 ], [ -65.108100899999982, -26.8351029 ], [ -65.1081048, -26.8351237 ], [ -65.1080587, -26.8351304 ] ] ] ] } },
{ "type": "Feature", "properties": { "Id": 0, "Tipo": "Terminal de pasajeros", "IATA": "REL", "Etiqueta": "REL - Terminal de pasajeros", "Metros2": 3314.2857192199999 }, "geometry": { "type": "MultiPolygon", "coordinates": [ [ [ [ -65.282646979460708, -43.209593740481139 ], [ -65.282796531998258, -43.209635072398527 ], [ -65.282759275674479, -43.209707198890008 ], [ -65.283171351533866, -43.209821083246801 ], [ -65.283195257907977, -43.209774801051843 ], [ -65.28359473124668, -43.209885200645779 ], [ -65.28357082495404, -43.209931483264384 ], [ -65.284022446593823, -43.210056292577704 ], [ -65.284073936927697, -43.20995660570275 ], [ -65.283910445664191, -43.209911423838363 ], [ -65.283953240916347, -43.209828571066183 ], [ -65.284013882848171, -43.2098453298862 ], [ -65.284041123868974, -43.209792590300928 ], [ -65.284028641466264, -43.209770831006459 ], [ -65.2839961364365, -43.209761848014388 ], [ -65.283966866899306, -43.209771914680609 ], [ -65.283928994563681, -43.209761448371758 ], [ -65.283937139879413, -43.209745678787044 ], [ -65.283757520313571, -43.209696039332762 ], [ -65.283749266190569, -43.209711997682589 ], [ -65.283705374197709, -43.209699867686972 ], [ -65.283730841163134, -43.209650563166953 ], [ -65.283715680744962, -43.209646373427766 ], [ -65.283731492350384, -43.209615761835607 ], [ -65.283679612630422, -43.209601424317263 ], [ -65.283663801002859, -43.209632035902168 ], [ -65.283648640593967, -43.209627846154149 ], [ -65.283623164678303, -43.209677100593886 ], [ -65.28357857850645, -43.209664778691668 ], [ -65.283587167186255, -43.209648150923421 ], [ -65.283441253493805, -43.209607825839548 ], [ -65.283454669477393, -43.209581852463273 ], [ -65.283394049450791, -43.209565099287538 ], [ -65.283380633445361, -43.209591072656579 ], [ -65.283298428075071, -43.2095683540077 ], [ -65.283315285061249, -43.209535718984903 ], [ -65.283193022291115, -43.209501929754083 ], [ -65.283208834100066, -43.209471318227159 ], [ -65.283043338680045, -43.209425580720833 ], [ -65.283027526786526, -43.209456192213182 ], [ -65.28290526653528, -43.209422398593333 ], [ -65.282879752056587, -43.20947179381735 ], [ -65.282765674986749, -43.209440266309585 ], [ -65.28270726197438, -43.209553351321233 ], [ -65.282672766655693, -43.209543817809987 ], [ -65.282646979460708, -43.209593740481139 ] ] ] ] } },
{ "type": "Feature", "properties": { "Id": 0, "Tipo": "Terminal de pasajeros", "IATA": "NQN", "Etiqueta": "NQN - Terminal de pasajeros", "Metros2": 5162.8617057700003 }, "geometry": { "type": "MultiPolygon", "coordinates": [ [ [ [ -68.141099577398293, -38.951904516309625 ], [ -68.140542117752219, -38.951905163790904 ], [ -68.140540342696042, -38.951962690342853 ], [ -68.140298468728034, -38.951964390275485 ], [ -68.14029240709128, -38.951995986284714 ], [ -68.139981890497495, -38.952003792105735 ], [ -68.139979236996595, -38.951900432429859 ], [ -68.139809364411178, -38.95190628618036 ], [ -68.139810017007179, -38.9520445335625 ], [ -68.139705070553163, -38.952048694499624 ], [ -68.139693231124184, -38.951891989395271 ], [ -68.139391620869148, -38.951889307438279 ], [ -68.139396822889793, -38.952120556909563 ], [ -68.13970507055113, -38.952116269533448 ], [ -68.139705070553191, -38.952209308117624 ], [ -68.139580148850257, -38.952209308117631 ], [ -68.139577293497155, -38.952273553564687 ], [ -68.141107233412683, -38.952275348837752 ], [ -68.141099577398293, -38.951904516309625 ] ] ] ] } },
{ "type": "Feature", "properties": { "Id": 0, "Tipo": "Terminal de pasajeros", "IATA": "COR", "Etiqueta": "COR - Terminal de pasajeros", "Metros2": 13467.4320525 }, "geometry": { "type": "MultiPolygon", "coordinates": [ [ [ [ -64.212463657714466, -31.314858582054853 ], [ -64.212397129640408, -31.314857731264112 ], [ -64.212398018184672, -31.31477623855136 ], [ -64.212181640403799, -31.314773020098926 ], [ -64.212180243589842, -31.314853513918536 ], [ -64.212119174449811, -31.314852732805605 ], [ -64.212117148222887, -31.314969492688419 ], [ -64.21230412040569, -31.314973192243201 ], [ -64.212303746303178, -31.314995471038117 ], [ -64.212327293931821, -31.314995772197733 ], [ -64.212327118008716, -31.315005910891728 ], [ -64.212183435506461, -31.315004073214254 ], [ -64.212181040738415, -31.315142074467531 ], [ -64.212148060703896, -31.315143239135068 ], [ -64.212147622434941, -31.315168494265606 ], [ -64.212200343906034, -31.315168778332406 ], [ -64.212200254840923, -31.315173288195297 ], [ -64.212152977601477, -31.315172683495518 ], [ -64.21214670680763, -31.315534033779272 ], [ -64.212099429389468, -31.315533429052948 ], [ -64.212095842506415, -31.315740111738137 ], [ -64.212142069416359, -31.315740703031395 ], [ -64.212133380301339, -31.316218574857942 ], [ -64.212258433741283, -31.316220174403952 ], [ -64.212257414743419, -31.316353763273696 ], [ -64.212303773811016, -31.316354356206489 ], [ -64.212304118149632, -31.316334512891615 ], [ -64.212329320514641, -31.316334835222847 ], [ -64.212328757059993, -31.316367306102052 ], [ -64.212393907892647, -31.316368139340796 ], [ -64.212394777855707, -31.316230347958822 ], [ -64.212582517328997, -31.316226064928912 ], [ -64.212598858302158, -31.315582714332095 ], [ -64.212660281782519, -31.315582883473098 ], [ -64.212663362497665, -31.315405305734771 ], [ -64.213325908544391, -31.315409348180992 ], [ -64.213320146198441, -31.315876291321672 ], [ -64.214069609780381, -31.315889689264338 ], [ -64.214083149790554, -31.315116431496506 ], [ -64.213330694176932, -31.31510599006856 ], [ -64.21332339599013, -31.315331999318232 ], [ -64.212664810697106, -31.315321829016113 ], [ -64.212580832965557, -31.31532071853087 ], [ -64.212585790019375, -31.315034994055225 ], [ -64.212408461852817, -31.315032641262974 ], [ -64.212410622110042, -31.315005039158905 ], [ -64.212421337260139, -31.314996974910173 ], [ -64.212461260193891, -31.314997485460594 ], [ -64.212463657714466, -31.314858582054853 ] ] ] ] } },
{ "type": "Feature", "properties": { "Id": 0, "Tipo": "Terminal de cargas", "IATA": "COR", "Etiqueta": "COR - Terminal de cargas", "Metros2": 3662.3323690399998 }, "geometry": { "type": "MultiPolygon", "coordinates": [ [ [ [ -64.212742298135709, -31.312220123352688 ], [ -64.212261647012554, -31.312217743891665 ], [ -64.212252129168519, -31.312926823271425 ], [ -64.21274943651872, -31.312929202732334 ], [ -64.212742298135709, -31.312220123352688 ] ] ] ] } },
{ "type": "Feature", "properties": { "Id": 0, "Tipo": "Terminal de pasajeros", "IATA": "IGR", "Etiqueta": "IGR - Terminal de pasajeros", "Metros2": 8546.0240365999998 }, "geometry": { "type": "MultiPolygon", "coordinates": [ [ [ [ -54.475626754107033, -25.732200705969696 ], [ -54.476962678105451, -25.731638101322059 ], [ -54.476774820880706, -25.731269303059378 ], [ -54.476286506091178, -25.731470684248968 ], [ -54.476169558038329, -25.731282080749768 ], [ -54.475663913697424, -25.731500935510024 ], [ -54.475725401332738, -25.731670942242083 ], [ -54.475399856713388, -25.731805193419479 ], [ -54.475626754107033, -25.732200705969696 ] ] ] ] } },
{ "type": "Feature", "properties": { "Id": 0, "Tipo": "Terminal de pasajeros", "IATA": "FDO", "Etiqueta": "FDO - Terminal de pasajeros", "Metros2": 1309.92083172 }, "geometry": { "type": "MultiPolygon", "coordinates": [ [ [ [ -58.583578399999986, -34.455572399999987 ], [ -58.5834199, -34.4558221 ], [ -58.583540300000017, -34.455874099999981 ], [ -58.5836234, -34.4557431 ], [ -58.583748099999987, -34.455796899999989 ], [ -58.583738799999971, -34.455811399999988 ], [ -58.583767243123802, -34.455823676161927 ], [ -58.583752052727192, -34.455847102654928 ], [ -58.583952117223525, -34.455930887135224 ], [ -58.58419679999998, -34.4560365 ], [ -58.584275799999972, -34.455912099999985 ], [ -58.583865, -34.4557348 ], [ -58.583691799999976, -34.45566 ], [ -58.583711099999981, -34.4556297 ], [ -58.583578399999986, -34.455572399999987 ] ] ] ] } },
{ "type": "Feature", "properties": { "Id": 0, "Tipo": "Terminal de cargas", "IATA": "MDZ", "Etiqueta": "MDZ - Terminal de cargas", "Metros2": 2794.9756094600002 }, "geometry": { "type": "MultiPolygon", "coordinates": [ [ [ [ -68.799517417019317, -32.829919846401737 ], [ -68.798832211372527, -32.829943470058105 ], [ -68.798841559230013, -32.830334549272592 ], [ -68.799522930818696, -32.830314758240668 ], [ -68.799517417019317, -32.829919846401737 ] ] ] ] } },
{ "type": "Feature", "properties": { "Id": 0, "Tipo": "Terminal de pasajeros", "IATA": "USH", "Etiqueta": "USH - Terminal de pasajeros", "Metros2": 6164.8032238300002 }, "geometry": { "type": "MultiPolygon", "coordinates": [ [ [ [ -68.311781799999977, -54.839321799999986 ], [ -68.311774899999989, -54.839400400000017 ], [ -68.311756501661833, -54.839399795200904 ], [ -68.311759199397954, -54.839375602824354 ], [ -68.311365701173969, -54.83936098537616 ], [ -68.311361593995784, -54.839386812926755 ], [ -68.3113247, -54.839385599999986 ], [ -68.311314099999962, -54.839495799999987 ], [ -68.311194699999959, -54.8394919 ], [ -68.3111844, -54.8395992 ], [ -68.3111757, -54.839688499999987 ], [ -68.311242321635632, -54.839690639011337 ], [ -68.311237483539472, -54.839732022811837 ], [ -68.311952460200644, -54.839759319797558 ], [ -68.311957710322289, -54.839713509672478 ], [ -68.3120827, -54.8397175 ], [ -68.3125485, -54.83973240000001 ], [ -68.312558500798445, -54.839732720546174 ], [ -68.312551760930901, -54.839782244307351 ], [ -68.313312440609835, -54.839811277718056 ], [ -68.313319506195668, -54.839757109900276 ], [ -68.3133348, -54.839757599999984 ], [ -68.313444099999984, -54.8397611 ], [ -68.3134629, -54.8395666 ], [ -68.313352300000034, -54.8395631 ], [ -68.313363099999989, -54.839451199999985 ], [ -68.313279958792421, -54.8394484444783 ], [ -68.313281593479573, -54.839434176777551 ], [ -68.312924052400902, -54.83942016148206 ], [ -68.312929199999985, -54.8393619 ], [ -68.31293380000001, -54.839308099999982 ], [ -68.312940499999968, -54.839244899999983 ], [ -68.312805700000013, -54.839241 ], [ -68.312725199999974, -54.839238699999989 ], [ -68.312718799999985, -54.8392997 ], [ -68.312714, -54.8393543 ], [ -68.312707399999979, -54.8394304 ], [ -68.312697002983896, -54.839430056602943 ], [ -68.312700061204382, -54.839402625750921 ], [ -68.311992370511362, -54.839378579796467 ], [ -68.3119967, -54.8393293 ], [ -68.312001699999982, -54.8392716 ], [ -68.312007, -54.839211499999983 ], [ -68.311898099999979, -54.8392084 ], [ -68.311792, -54.839205299999989 ], [ -68.311787, -54.839263199999984 ], [ -68.311781799999977, -54.839321799999986 ] ] ] ] } },
{ "type": "Feature", "properties": { "Id": 0, "Tipo": "Terminal de pasajeros", "IATA": "SFN", "Etiqueta": "SFN - Terminal de pasajeros", "Metros2": 4746.1519870100001 }, "geometry": { "type": "MultiPolygon", "coordinates": [ [ [ [ -60.805631802186092, -31.708530216527659 ], [ -60.80578649756287, -31.7088116053806 ], [ -60.805761021156634, -31.708826753880732 ], [ -60.805817810604402, -31.708934406175263 ], [ -60.805707220674201, -31.708974876703049 ], [ -60.80569552115351, -31.708953297866447 ], [ -60.805562500166346, -31.70900914991736 ], [ -60.805664716241459, -31.709196426444255 ], [ -60.805797426609608, -31.709147965852949 ], [ -60.805875300015117, -31.709321482003908 ], [ -60.805742880784102, -31.709365961527226 ], [ -60.805821685933559, -31.709536024856412 ], [ -60.805968765287631, -31.709475267692032 ], [ -60.805942190404522, -31.709421300341955 ], [ -60.805972262224032, -31.709413749270592 ], [ -60.806004998202503, -31.709474729507772 ], [ -60.806056558582917, -31.709565027748503 ], [ -60.806463560533366, -31.709423116883546 ], [ -60.806357926958178, -31.709206839159254 ], [ -60.806258877860678, -31.709243672505618 ], [ -60.806216515190087, -31.709149230258177 ], [ -60.806313453551866, -31.709115782539111 ], [ -60.806285825157993, -31.709049232840886 ], [ -60.806175129438458, -31.709077467007834 ], [ -60.806131099237902, -31.708981721329565 ], [ -60.806194830724571, -31.708952824991396 ], [ -60.806101563194019, -31.708759778469741 ], [ -60.806017195320671, -31.708790830984761 ], [ -60.805875060407573, -31.708519501229645 ], [ -60.805793006365093, -31.708549083715475 ], [ -60.805754990069751, -31.708484767353429 ], [ -60.805631802186092, -31.708530216527659 ] ] ] ] } },
{ "type": "Feature", "properties": { "Id": 0, "Tipo": "Terminal de pasajeros", "IATA": "PRA", "Etiqueta": "PRA - Terminal de pasajeros", "Metros2": 2238.1052070400001 }, "geometry": { "type": "MultiPolygon", "coordinates": [ [ [ [ -60.483587389781952, -31.789651640243228 ], [ -60.483675059906822, -31.789640411128353 ], [ -60.483663834907482, -31.789576476493888 ], [ -60.48375263422588, -31.789565117768909 ], [ -60.483783861985188, -31.789743421808222 ], [ -60.483832901854626, -31.78975912162278 ], [ -60.483923361529932, -31.789748756195223 ], [ -60.48400034488666, -31.789725556921358 ], [ -60.484159481688131, -31.789706340257808 ], [ -60.484074597731876, -31.789178377673064 ], [ -60.484004244798044, -31.789187235112795 ], [ -60.483980300552155, -31.78907763608477 ], [ -60.483876231719883, -31.789090933025062 ], [ -60.48392352879894, -31.789360988680983 ], [ -60.483689574853237, -31.789389797970554 ], [ -60.483703605339201, -31.789469909712682 ], [ -60.483719755700555, -31.789468932343954 ], [ -60.483726192834297, -31.789505596488663 ], [ -60.483653035666251, -31.789514966777247 ], [ -60.483643175502429, -31.789458805730305 ], [ -60.483555523742574, -31.789470004776504 ], [ -60.483564703953959, -31.789522331782493 ], [ -60.483533325733461, -31.789525466109218 ], [ -60.483535381927737, -31.789598473345261 ], [ -60.48357773629936, -31.789596615761944 ], [ -60.483587389781952, -31.789651640243228 ] ] ] ] } },
{ "type": "Feature", "properties": { "Id": 0, "Tipo": "Terminal de pasajeros", "IATA": "FTE", "Etiqueta": "FTE - Terminal de pasajeros", "Metros2": 5626.7461228499997 }, "geometry": { "type": "MultiPolygon", "coordinates": [ [ [ [ -72.054889600577084, -50.283856726437406 ], [ -72.052718579267562, -50.283735324203221 ], [ -72.052717220914658, -50.283769649438206 ], [ -72.052629665653612, -50.283771778553735 ], [ -72.052654222436473, -50.283979690719718 ], [ -72.052699083161912, -50.283987133119723 ], [ -72.05268916971076, -50.284029245659909 ], [ -72.053189108182551, -50.284056944673914 ], [ -72.053197124533341, -50.284014931238907 ], [ -72.053302987816821, -50.284021631709543 ], [ -72.053328177611533, -50.284114514282763 ], [ -72.053208481890479, -50.284254117373202 ], [ -72.053452612926435, -50.284207102893923 ], [ -72.053470541835836, -50.284122976866179 ], [ -72.0534398165087, -50.284031607022257 ], [ -72.053518353040133, -50.284033618803008 ], [ -72.053506423659854, -50.284119877980054 ], [ -72.053895119134836, -50.284143601586216 ], [ -72.053907666734844, -50.284062203506551 ], [ -72.053992202745619, -50.28406634808708 ], [ -72.053942048807897, -50.284140093199163 ], [ -72.053929484011533, -50.284233557707473 ], [ -72.054158277203712, -50.284306010023428 ], [ -72.054078396491477, -50.284158488331656 ], [ -72.054126980247204, -50.284075206445038 ], [ -72.054236172814413, -50.284078061924831 ], [ -72.054230054040573, -50.284119976249833 ], [ -72.054668991258694, -50.284148411011955 ], [ -72.054679561598448, -50.284096476997256 ], [ -72.054792857020999, -50.284101564187949 ], [ -72.054953309236666, -50.283907223765709 ], [ -72.054887894710404, -50.283903303560216 ], [ -72.054889600577084, -50.283856726437406 ] ] ] ] } },
{ "type": "Feature", "properties": { "Id": 0, "Tipo": "Terminal de pasajeros", "IATA": "RGA", "Etiqueta": "RGA - Terminal de pasajeros", "Metros2": 3082.3462515699998 }, "geometry": { "type": "MultiPolygon", "coordinates": [ [ [ [ -67.753092208038112, -53.781718487398201 ], [ -67.753645501746959, -53.781733021456972 ], [ -67.753649954092708, -53.781673563170642 ], [ -67.75376423675624, -53.781675921637998 ], [ -67.753891487951876, -53.781670719217956 ], [ -67.754026490602399, -53.781654143010158 ], [ -67.75409337458423, -53.781641425678899 ], [ -67.754094382154108, -53.781627968298714 ], [ -67.754321670510706, -53.781633937193881 ], [ -67.754337996958384, -53.781415854271735 ], [ -67.753991617613025, -53.781403497874528 ], [ -67.753987654378832, -53.781456430070655 ], [ -67.753759250278108, -53.781450431173013 ], [ -67.753758971977604, -53.78141155166297 ], [ -67.752900712408248, -53.781387221555725 ], [ -67.752894485962216, -53.781423601884875 ], [ -67.75248749612615, -53.781426812507796 ], [ -67.752478076375183, -53.781533812189032 ], [ -67.752879489530017, -53.781536733837164 ], [ -67.752877472204062, -53.781563667297362 ], [ -67.752990137628927, -53.781566627259664 ], [ -67.752988334484343, -53.781590702027032 ], [ -67.752987945545613, -53.781595894958421 ], [ -67.753100832069549, -53.781598132587298 ], [ -67.753100212297781, -53.781605231125013 ], [ -67.753111505227807, -53.781605527797502 ], [ -67.753107476987353, -53.781659313126369 ], [ -67.753096661183818, -53.781659028968058 ], [ -67.753092208038112, -53.781718487398201 ] ] ] ] } },
{ "type": "Feature", "properties": { "Id": 0, "Tipo": "Terminal de pasajeros", "IATA": "RGL", "Etiqueta": "RGL - Terminal de pasajeros", "Metros2": 3783.1750815199998 }, "geometry": { "type": "MultiPolygon", "coordinates": [ [ [ [ -69.306298909772693, -51.612137223389453 ], [ -69.306876530249824, -51.611816293493249 ], [ -69.306664389726691, -51.611665207644883 ], [ -69.306801462020942, -51.61158979319584 ], [ -69.306761829238098, -51.611561845658954 ], [ -69.306793852749664, -51.611544241996967 ], [ -69.306763101993425, -51.611514981424605 ], [ -69.306845942589675, -51.611470743973761 ], [ -69.306840973298222, -51.611450822706175 ], [ -69.306901888746737, -51.611419233774185 ], [ -69.306950509844043, -51.611452539189933 ], [ -69.30707659985687, -51.611396124013616 ], [ -69.30694608668297, -51.611301175867617 ], [ -69.306691313567427, -51.611443620430094 ], [ -69.306655499318509, -51.611428272326691 ], [ -69.306599817825713, -51.611457922689645 ], [ -69.306616831336257, -51.611471582470919 ], [ -69.306437253899446, -51.611560474238267 ], [ -69.306387754289645, -51.611527144310948 ], [ -69.305539461674456, -51.611999503305796 ], [ -69.305771457169669, -51.612169573383696 ], [ -69.306097646033052, -51.611992931940541 ], [ -69.306298909772693, -51.612137223389453 ] ] ] ] } },
{ "type": "Feature", "properties": { "Id": 0, "Tipo": "Terminal de pasajeros Dirección Asuntos Antárticos", "IATA": "RGL", "Etiqueta": "RGL - Terminal de Pasajeros Dirección Asuntos Antárticos", "Metros2": 469.1603877 }, "geometry": { "type": "MultiPolygon", "coordinates": [ [ [ [ -69.299169944485413, -51.610908723562538 ], [ -69.29883563107029, -51.61088244470173 ], [ -69.29880301373997, -51.61107668154979 ], [ -69.299125153927648, -51.611081263142594 ], [ -69.299169944485413, -51.610908723562538 ] ] ] ] } },
{ "type": "Feature", "properties": { "Id": 0, "Tipo": "Terminal de pasajeros", "IATA": "BHI", "Etiqueta": "BHI - Terminal de pasajeros", "Metros2": 2885.3267153400002 }, "geometry": { "type": "MultiPolygon", "coordinates": [ [ [ [ -62.163647060138594, -38.715965705450188 ], [ -62.16374310886075, -38.71678495874685 ], [ -62.164111950729122, -38.71675746348739 ], [ -62.163992462289194, -38.715927554221302 ], [ -62.163647060138594, -38.715965705450188 ] ] ] ] } },
{ "type": "Feature", "properties": { "Id": 0, "Tipo": "Terminal de pasajeros", "IATA": "PSS", "Etiqueta": "PSS - Terminal de pasajeros", "Metros2": 2794.81130919 }, "geometry": { "type": "MultiPolygon", "coordinates": [ [ [ [ -55.966570020380402, -27.391958432612739 ], [ -55.966909068417692, -27.39196514044977 ], [ -55.966908159908712, -27.391420856305274 ], [ -55.966855111421239, -27.391423161866726 ], [ -55.966855711871176, -27.391390983847145 ], [ -55.966573780167039, -27.391390182725956 ], [ -55.966573526696038, -27.391425641978572 ], [ -55.966541401025552, -27.391425765476185 ], [ -55.966541216914948, -27.391446767713376 ], [ -55.966401813843163, -27.391459547547129 ], [ -55.966399624438907, -27.391613642727748 ], [ -55.966539551143683, -27.391614106680152 ], [ -55.966538417203651, -27.391737890509035 ], [ -55.96640105228721, -27.391736779450412 ], [ -55.966398060869892, -27.391895265097787 ], [ -55.966482093248999, -27.391887896108699 ], [ -55.966482542912843, -27.391858114726745 ], [ -55.966538522764608, -27.391855202204681 ], [ -55.966537050096747, -27.391924649463192 ], [ -55.96657063481166, -27.391925505334598 ], [ -55.966570020380402, -27.391958432612739 ] ] ] ] } },
{ "type": "Feature", "properties": { "Id": 0, "Tipo": "Terminal de pasajeros", "IATA": "ROS", "Etiqueta": "ROS - Terminal de pasajeros", "Metros2": 13580.4235309 }, "geometry": { "type": "MultiPolygon", "coordinates": [ [ [ [ -60.779505261098301, -32.915585483531871 ], [ -60.780486788847838, -32.917739137292763 ], [ -60.78091663889721, -32.917569458287801 ], [ -60.780260693904381, -32.916148139257309 ], [ -60.780546868734419, -32.91602206459816 ], [ -60.780221697697762, -32.915358272909131 ], [ -60.779505261098301, -32.915585483531871 ] ] ] ] } },
{ "type": "Feature", "properties": { "Id": 0, "Tipo": "Terminal de pasajeros", "IATA": "RES", "Etiqueta": "RES - Terminal de pasajeros", "Metros2": 5195.0212840900003 }, "geometry": { "type": "MultiPolygon", "coordinates": [ [ [ [ -59.048111365307328, -27.445137379527832 ], [ -59.048670106439815, -27.445044503120648 ], [ -59.048934980734209, -27.445543663333421 ], [ -59.049037117211249, -27.445508663335815 ], [ -59.048866210364125, -27.444969608972251 ], [ -59.049400217345656, -27.444626903388858 ], [ -59.049205509138211, -27.444396377116153 ], [ -59.048604115300911, -27.444782623963455 ], [ -59.048067934857364, -27.444871631571953 ], [ -59.048111365307328, -27.445137379527832 ] ] ] ] } },
{ "type": "Feature", "properties": { "Id": 0, "Tipo": "Terminal de pasajeros", "IATA": "JNI", "Etiqueta": "JNI - Terminal de pasajeros", "Metros2": 406.68255696300002 }, "geometry": { "type": "MultiPolygon", "coordinates": [ [ [ [ -60.931601289422247, -34.552351940625499 ], [ -60.931844470329395, -34.552136951700504 ], [ -60.931862470075146, -34.552151463243092 ], [ -60.931910174541315, -34.552111850724202 ], [ -60.931832177562228, -34.552044584117596 ], [ -60.931732926220775, -34.552127725987532 ], [ -60.931710620641866, -34.552109729391589 ], [ -60.93151655427863, -34.552284584523022 ], [ -60.931601289422247, -34.552351940625499 ] ] ] ] } },
{ "type": "Feature", "properties": { "Id": 0, "Tipo": "Terminal de pasajeros", "IATA": "RCQ", "Etiqueta": "RCQ - Terminal de pasajeros", "Metros2": 387.26998291899997 }, "geometry": { "type": "MultiPolygon", "coordinates": [ [ [ [ -59.693442358740981, -29.204208158251618 ], [ -59.69330301524252, -29.204223085203466 ], [ -59.693334663159362, -29.20445051366255 ], [ -59.693420443702109, -29.204441857630059 ], [ -59.693430449371306, -29.204506255617275 ], [ -59.693482547775034, -29.204496961962434 ], [ -59.693442358740981, -29.204208158251618 ] ] ] ] } },
{ "type": "Feature", "properties": { "Id": 0, "Tipo": "Terminal de pasajeros", "IATA": "MDQ", "Etiqueta": "MDQ - Terminal de pasajeros", "Metros2": 5820.5976051099997 }, "geometry": { "type": "MultiPolygon", "coordinates": [ [ [ [ -57.581009208169007, -37.933712083254086 ], [ -57.581441700267305, -37.933793477591628 ], [ -57.581530921528824, -37.933753452607156 ], [ -57.581541330732719, -37.933705585940736 ], [ -57.581667291331399, -37.93372049720687 ], [ -57.58178598617851, -37.933307056828468 ], [ -57.581911762949773, -37.932896071304128 ], [ -57.581814064589921, -37.932876070712794 ], [ -57.581831413136314, -37.932804715612171 ], [ -57.581547841070844, -37.932751221171337 ], [ -57.581534335330943, -37.932811049226061 ], [ -57.581467038660598, -37.932770678923156 ], [ -57.581417014063341, -37.932714567765906 ], [ -57.581346999943335, -37.932723520763261 ], [ -57.581282386990694, -37.932775404390703 ], [ -57.5812868352537, -37.932843258005789 ], [ -57.581335397272824, -37.932916248007245 ], [ -57.581427179077366, -37.932903933460317 ], [ -57.58150427498456, -37.932913991534313 ], [ -57.581489133328482, -37.932959518266287 ], [ -57.581421706847898, -37.932946394893342 ], [ -57.581366818816193, -37.933123304940928 ], [ -57.581202247097906, -37.933088024627416 ], [ -57.581009208169007, -37.933712083254086 ] ] ] ] } },
{ "type": "Feature", "properties": { "Id": 0, "Tipo": "Terminal de cargas", "IATA": "MDQ", "Etiqueta": "MDQ - Terminal de cargas", "Metros2": 1614.63921215 }, "geometry": { "type": "MultiPolygon", "coordinates": [ [ [ [ -57.583655679964522, -37.935112716699848 ], [ -57.584016939894241, -37.934874077205393 ], [ -57.58373530306153, -37.934603578699807 ], [ -57.58337834015714, -37.934856963547702 ], [ -57.583655679964522, -37.935112716699848 ] ] ] ] } },
{ "type": "Feature", "properties": { "Id": 0, "Tipo": "Terminal de pasajeros", "IATA": "VLG", "Etiqueta": "VLG - Terminal de pasajeros", "Metros2": 590.87108513500004 }, "geometry": { "type": "MultiPolygon", "coordinates": [ [ [ [ -57.021243848831041, -37.234522421631432 ], [ -57.02120974196982, -37.234378457954968 ], [ -57.020813391860891, -37.234445232657102 ], [ -57.020851166762505, -37.23458857833419 ], [ -57.021243848831041, -37.234522421631432 ] ] ] ] } },
{ "type": "Feature", "properties": { "Id": 0, "Tipo": "Terminal de pasajeros", "IATA": "COC", "Etiqueta": "COC - Terminal de pasajeros", "Metros2": 452.229712689 }, "geometry": { "type": "MultiPolygon", "coordinates": [ [ [ [ -58.002201601390595, -31.302722067748842 ], [ -58.002375456220065, -31.30269212794018 ], [ -58.002307449209297, -31.302459151693689 ], [ -58.002134688736284, -31.302492193296771 ], [ -58.002201601390595, -31.302722067748842 ] ] ] ] } },
{ "type": "Feature", "properties": { "Id": 0, "Tipo": "Terminal de pasajeros", "IATA": "CNQ", "Etiqueta": "CNQ - Terminal de pasajeros", "Metros2": 2206.9448474199999 }, "geometry": { "type": "MultiPolygon", "coordinates": [ [ [ [ -58.758716128501248, -27.449261859018595 ], [ -58.758751746150523, -27.449114890857437 ], [ -58.758940265884313, -27.449097909181063 ], [ -58.75891543761778, -27.448883114246954 ], [ -58.75806992893984, -27.449016393202644 ], [ -58.758108986014705, -27.449191687798518 ], [ -58.758429293496199, -27.449165719737827 ], [ -58.758421811077952, -27.449210666276066 ], [ -58.758716128501248, -27.449261859018595 ] ] ] ] } },
{ "type": "Feature", "properties": { "Id": 0, "Tipo": "Terminal de pasajeros", "IATA": "LPG", "Etiqueta": "LPG - Terminal de pasajeros", "Metros2": 691.18081982499996 }, "geometry": { "type": "MultiPolygon", "coordinates": [ [ [ [ -57.8954248983596, -34.965734295458823 ], [ -57.895503795138303, -34.965688022375922 ], [ -57.89545950249952, -34.96560966789567 ], [ -57.895555535066158, -34.965604526905786 ], [ -57.8955407827644, -34.965534851570034 ], [ -57.895492714314784, -34.96553946291769 ], [ -57.895422570916473, -34.965308209397314 ], [ -57.89531279475522, -34.965333529530497 ], [ -57.895327741866105, -34.965409751992397 ], [ -57.895256132049781, -34.965424434261784 ], [ -57.895303084575708, -34.965583816158244 ], [ -57.895252699300457, -34.965595552923027 ], [ -57.895257277276222, -34.965629301665672 ], [ -57.895352040021521, -34.965609165968992 ], [ -57.895378570159721, -34.965670878511837 ], [ -57.895395984484615, -34.965701126133823 ], [ -57.8954248983596, -34.965734295458823 ] ] ] ] } },
{ "type": "Feature", "properties": { "Id": 0, "Tipo": "Terminal de pasajeros", "IATA": "FMA", "Etiqueta": "FMA - Terminal de pasajeros", "Metros2": 1919.1674298550934 }, "geometry": { "type": "MultiPolygon", "coordinates": [ [ [ [ -58.230803921520021, -26.214690520825311 ], [ -58.23099471991501, -26.214590100617421 ], [ -58.230563392226543, -26.213859748925714 ], [ -58.230397347963162, -26.213929708085491 ], [ -58.23068054746976, -26.214465290861874 ], [ -58.230723585353715, -26.214600142638211 ], [ -58.230803921520021, -26.214690520825311 ] ] ] ] } },
{ "type": "Feature", "properties": { "Id": 0, "Tipo": "Terminal de pasajeros", "IATA": "GPO", "Etiqueta": "GPO - Terminal de pasajeros", "Metros2": 333.23293081100002 }, "geometry": { "type": "MultiPolygon", "coordinates": [ [ [ [ -63.758348337771402, -35.689458465869926 ], [ -63.7584306751395, -35.68925736026916 ], [ -63.758296843988283, -35.68921016706377 ], [ -63.758196168639444, -35.689413910896754 ], [ -63.758348337771402, -35.689458465869926 ] ] ] ] } },
{ "type": "Feature", "properties": { "Id": 0, "Tipo": "Terminal de pasajeros", "IATA": "GNR", "Etiqueta": "GNR - Terminal de pasajeros", "Metros2": 455.198043 }, "geometry": { "type": "MultiPolygon", "coordinates": [ [ [ [ -67.610527125631918, -39.003565034526474 ], [ -67.610520403744687, -39.003484103956097 ], [ -67.610423946993023, -39.003486388961782 ], [ -67.610413604720662, -39.003407414801423 ], [ -67.610174392161014, -39.003417389783444 ], [ -67.61018661390176, -39.003579267839925 ], [ -67.610527125631918, -39.003565034526474 ] ] ] ] } },
{ "type": "Feature", "properties": { "Id": 0, "Tipo": "Terminal de pasajeros", "IATA": "IRJ", "Etiqueta": "IRJ - Terminal de pasajeros", "Metros2": 920.803312828 }, "geometry": { "type": "MultiPolygon", "coordinates": [ [ [ [ -66.794329311657037, -29.383803908306863 ], [ -66.794369238695836, -29.383768459947866 ], [ -66.794224647142073, -29.383637241629152 ], [ -66.794186260175124, -29.383673829566099 ], [ -66.794144515080859, -29.383638778612394 ], [ -66.794004626477587, -29.383758154648604 ], [ -66.794299524143028, -29.384030757413722 ], [ -66.794447675917581, -29.383907222831645 ], [ -66.794329311657037, -29.383803908306863 ] ] ] ] } },
{ "type": "Feature", "properties": { "Id": 0, "Tipo": "Terminal de pasajeros", "IATA": "SDE", "Etiqueta": "SDE - Terminal de pasajeros", "Metros2": 1503.48827231 }, "geometry": { "type": "MultiPolygon", "coordinates": [ [ [ [ -64.298678558423006, -27.756172692584048 ], [ -64.298737401400587, -27.7562144048349 ], [ -64.298813830270646, -27.756259228687668 ], [ -64.298846175211835, -27.756228081854154 ], [ -64.298872816141781, -27.756241466380253 ], [ -64.299010267153164, -27.756082080223543 ], [ -64.298988536947405, -27.756068145691906 ], [ -64.299016465955845, -27.756036273845371 ], [ -64.299057762450971, -27.756062163820403 ], [ -64.299235453035365, -27.75585543738574 ], [ -64.299182270207481, -27.75581768651724 ], [ -64.299208035178552, -27.755783835551359 ], [ -64.299078812027375, -27.755696337844121 ], [ -64.299008448772213, -27.755775522725951 ], [ -64.298955235717685, -27.75573972385455 ], [ -64.298815575652952, -27.755900059019307 ], [ -64.298875250119522, -27.755943747261188 ], [ -64.298742172455704, -27.756104163328494 ], [ -64.298678558423006, -27.756172692584048 ] ] ] ] } },
{ "type": "Feature", "properties": { "Id": 0, "Tipo": "Terminal de pasajeros", "IATA": "CTC", "Etiqueta": "CTC - Terminal de pasajeros", "Metros2": 1562.060338 }, "geometry": { "type": "MultiPolygon", "coordinates": [ [ [ [ -65.754973662012304, -28.592289690360541 ], [ -65.754880001658819, -28.592304742917349 ], [ -65.754869966620944, -28.592259585246914 ], [ -65.754913451785058, -28.592251222715355 ], [ -65.754906761759813, -28.592212755070172 ], [ -65.754794703836893, -28.592232825145921 ], [ -65.754813101406327, -28.592314777955224 ], [ -65.754667593357155, -28.592346555575155 ], [ -65.754687663432904, -28.592431853397084 ], [ -65.754739511128577, -28.592420145852898 ], [ -65.75476459872327, -28.592545583826322 ], [ -65.754717768546513, -28.592555618864196 ], [ -65.754739511128577, -28.592642589192437 ], [ -65.754886691684064, -28.592612484078813 ], [ -65.754911779278743, -28.592722869495425 ], [ -65.754869966620944, -28.592727887014362 ], [ -65.754886691684064, -28.592803149798417 ], [ -65.754936866873436, -28.592794787266858 ], [ -65.754943556898681, -28.592824892380477 ], [ -65.755065649859489, -28.592808167317351 ], [ -65.755063977353174, -28.592809839823666 ], [ -65.755119170061477, -28.592803149798417 ], [ -65.755119170061477, -28.592796459773169 ], [ -65.7551492751751, -28.592786424735294 ], [ -65.755125860086721, -28.59268105683762 ], [ -65.755072339884734, -28.592687746862868 ], [ -65.75506732236579, -28.592687746862868 ], [ -65.755025509707991, -28.59250878868745 ], [ -65.755043907277425, -28.592507116181139 ], [ -65.755015474670117, -28.592363280638278 ], [ -65.754993732088053, -28.592364953144592 ], [ -65.754993732088053, -28.592364953144592 ], [ -65.754973662012304, -28.592289690360541 ] ] ] ] } },
{ "type": "Feature", "properties": { "Id": 0, "Tipo": "Terminal de pasajeros", "IATA": "LUQ", "Etiqueta": "LUQ - Terminal de pasajeros", "Metros2": 2172.3768684900001 }, "geometry": { "type": "MultiPolygon", "coordinates": [ [ [ [ -66.350711499138242, -33.27538114942913 ], [ -66.351150673016789, -33.274986777343493 ], [ -66.351080000175216, -33.274925907839759 ], [ -66.3511705317067, -33.274839773710163 ], [ -66.350988246717165, -33.274706699812775 ], [ -66.35050831677205, -33.275135537628636 ], [ -66.350571168400933, -33.275190346466772 ], [ -66.350524608915251, -33.27523282058042 ], [ -66.350711499138242, -33.27538114942913 ] ] ] ] } },
{ "type": "Feature", "properties": { "Id": 0, "Tipo": "Terminal de pasajeros", "IATA": "LGS", "Etiqueta": "LGS - Terminal de pasajeros", "Metros2": 1508.2911887099999 }, "geometry": { "type": "MultiPolygon", "coordinates": [ [ [ [ -69.584727872741965, -35.483600431105053 ], [ -69.584732769558315, -35.483536861271915 ], [ -69.584774732156163, -35.483535252839282 ], [ -69.584772472630931, -35.483510719938039 ], [ -69.584802393579693, -35.483511319119039 ], [ -69.584809476607361, -35.483474729479028 ], [ -69.584811088232556, -35.483420888914779 ], [ -69.584736212687758, -35.483421838255289 ], [ -69.584730386505157, -35.483316424672054 ], [ -69.584871380896587, -35.483307004301381 ], [ -69.584876057809197, -35.483250776350147 ], [ -69.584858105296831, -35.483250416855682 ], [ -69.584863221733372, -35.483179505113256 ], [ -69.584767328577158, -35.483182482368512 ], [ -69.584768647188682, -35.483138430997023 ], [ -69.584684795664757, -35.48313920056161 ], [ -69.584684282853914, -35.483156331649504 ], [ -69.584510449085627, -35.483162645348507 ], [ -69.58451422358209, -35.483336583274287 ], [ -69.584430298593119, -35.483339799951352 ], [ -69.58444091257374, -35.483685288410904 ], [ -69.584482875248838, -35.483683680083196 ], [ -69.584485293030369, -35.483602919258871 ], [ -69.584727872741965, -35.483600431105053 ] ] ] ] } },
{ "type": "Feature", "properties": { "Id": 0, "Tipo": "Terminal de pasajeros", "IATA": "NEC", "Etiqueta": "NEC - Terminal de pasajeros", "Metros2": 554.60474949299999 }, "geometry": { "type": "MultiPolygon", "coordinates": [ [ [ [ -58.811580948723218, -38.487433407186451 ], [ -58.811620462835599, -38.48740467995173 ], [ -58.811619266507385, -38.487385494913532 ], [ -58.81157474318811, -38.487387210087576 ], [ -58.811573114869347, -38.487361097118438 ], [ -58.811681146028548, -38.48735693539863 ], [ -58.811673668887614, -38.487237028910137 ], [ -58.811710946712189, -38.487235592819992 ], [ -58.811711171965875, -38.487179048191308 ], [ -58.811669855845452, -38.487175881285459 ], [ -58.811662674756725, -38.487060721957725 ], [ -58.811503290890258, -38.48706686193038 ], [ -58.811508557533287, -38.487186853570869 ], [ -58.811451735706719, -38.487189288706112 ], [ -58.811455418453718, -38.48724834971739 ], [ -58.811512074426126, -38.487243254033864 ], [ -58.811519551299341, -38.487363160528247 ], [ -58.811539891895819, -38.48736237695779 ], [ -58.811542162664047, -38.487398793003507 ], [ -58.811580948723218, -38.487433407186451 ] ] ] ] } },
{ "type": "Feature", "properties": { "Id": 0, "Tipo": "Terminal de pasajeros", "IATA": "AOL", "Etiqueta": "AOL - Terminal de pasajeros", "Metros2": 726.13921222600004 }, "geometry": { "type": "MultiPolygon", "coordinates": [ [ [ [ -57.148921473490809, -29.689125865590253 ], [ -57.148954279686649, -29.689096287392648 ], [ -57.148850055138368, -29.6890060784051 ], [ -57.148972785338003, -29.688899435743313 ], [ -57.148864612045571, -29.688802416386388 ], [ -57.148548142145025, -29.689081184332476 ], [ -57.148657418115015, -29.689175765881625 ], [ -57.148815653304347, -29.689036381889885 ], [ -57.148921473490809, -29.689125865590253 ] ] ] ] } },
{ "type": "Feature", "properties": { "Id": 0, "Tipo": "Terminal de pasajeros", "IATA": "RCU", "Etiqueta": "RCU - Terminal de pasajeros", "Metros2": 744.56190392300005 }, "geometry": { "type": "MultiPolygon", "coordinates": [ [ [ [ -64.277762808447022, -33.096223974099757 ], [ -64.277944723328147, -33.096228008381487 ], [ -64.277947423216176, -33.096030473184165 ], [ -64.277998114621724, -33.096031180210055 ], [ -64.278001640764032, -33.095924856789317 ], [ -64.277948926897722, -33.095920456467688 ], [ -64.277949662221374, -33.09586665631582 ], [ -64.277762773474464, -33.095866669428915 ], [ -64.277762808447022, -33.096223974099757 ] ] ] ] } },
{ "type": "Feature", "properties": { "Id": 0, "Tipo": "Terminal de pasajeros", "IATA": "AFA", "Etiqueta": "AFA - Terminal de pasajeros", "Metros2": 984.10919928299995 }, "geometry": { "type": "MultiPolygon", "coordinates": [ [ [ [ -68.400503249513278, -34.591446001147361 ], [ -68.400932557263943, -34.591285069621975 ], [ -68.400843444865089, -34.591103576236904 ], [ -68.400407177905578, -34.591246115945758 ], [ -68.400503249513278, -34.591446001147361 ] ] ] ] } },
{ "type": "Feature", "properties": { "Id": 0, "Tipo": "Terminal de pasajeros", "IATA": "TTG", "Etiqueta": "TTG - Terminal de pasajeros", "Metros2": 131.78402900899999 }, "geometry": { "type": "MultiPolygon", "coordinates": [ [ [ [ -63.795492460021691, -22.615310075732161 ], [ -63.795603224118949, -22.615299658145542 ], [ -63.795589389301945, -22.615196408701472 ], [ -63.7954786679555, -22.615207203522775 ], [ -63.795492460021691, -22.615310075732161 ] ] ] ] } },
{ "type": "Feature", "properties": { "Id": 0, "Tipo": "Terminal de pasajeros", "IATA": "VME", "Etiqueta": "VME - Terminal de pasajeros", "Metros2": 1008.89099314 }, "geometry": { "type": "MultiPolygon", "coordinates": [ [ [ [ -65.373509341358883, -33.718751579445545 ], [ -65.373645747136337, -33.718570609642832 ], [ -65.373255565398736, -33.718361910226506 ], [ -65.373124446685566, -33.718543435172528 ], [ -65.373509341358883, -33.718751579445545 ] ] ] ] } },
{ "type": "Feature", "properties": { "Id": 0, "Tipo": "Terminal de pasajeros", "IATA": "TDL", "Etiqueta": "TDL - Terminal de pasajeros", "Metros2": 920.43020870099997 }, "geometry": { "type": "MultiPolygon", "coordinates": [ [ [ [ -59.233920133029763, -37.241421216465874 ], [ -59.234275047233005, -37.241109512566666 ], [ -59.234106758127744, -37.240990772476877 ], [ -59.233760223683589, -37.241304174973457 ], [ -59.233920133029763, -37.241421216465874 ] ] ] ] } },
{ "type": "Feature", "properties": { "Id": 0, "Tipo": "Terminal de pasajeros", "IATA": "SST", "Etiqueta": "SST - Terminal de pasajeros", "Metros2": 386.94669302800003 }, "geometry": { "type": "MultiPolygon", "coordinates": [ [ [ [ -56.7199410066791, -36.540649384459421 ], [ -56.719791309016387, -36.54062813237514 ], [ -56.719735173325837, -36.540885608328665 ], [ -56.719873913634189, -36.540905304865284 ], [ -56.7199410066791, -36.540649384459421 ] ] ] ] } },
{ "type": "Feature", "properties": { "Id": 0, "Tipo": "Terminal de pasajeros", "IATA": "RHD", "Etiqueta": "RHD - Terminal de pasajeros", "Metros2": 2167.28741451 }, "geometry": { "type": "MultiPolygon", "coordinates": [ [ [ [ -64.933300771466349, -27.506555415174329 ], [ -64.933510265357612, -27.506355701367809 ], [ -64.932964567907177, -27.505922899908136 ], [ -64.932765903713388, -27.5061324372756 ], [ -64.933300771466349, -27.506555415174329 ] ] ] ] } },
{ "type": "Feature", "properties": { "Id": 0, "Tipo": "Terminal de pasajeros", "IATA": "RYO", "Etiqueta": "RYO - Terminal de pasajeros", "Metros2": 951.88161564500001 }, "geometry": { "type": "MultiPolygon", "coordinates": [ [ [ [ -72.227774017549123, -51.60427456607448 ], [ -72.228044125495316, -51.604241174085622 ], [ -72.227864193678087, -51.603792234336829 ], [ -72.227610533721361, -51.603834253049413 ], [ -72.227774017549123, -51.60427456607448 ] ] ] ] } },
{ "type": "Feature", "properties": { "Id": 0, "Tipo": "Terminal de pasajeros", "IATA": "CPC", "Etiqueta": "CPC - Terminal de pasajeros", "Metros2": 2080.4686316500001 }, "geometry": { "type": "MultiPolygon", "coordinates": [ [ [ [ -71.143102829817934, -40.080850744713935 ], [ -71.143077945431472, -40.080837784664794 ], [ -71.142598975628729, -40.081380438011216 ], [ -71.142852031757741, -40.081512232291878 ], [ -71.142937036510446, -40.081414434254185 ], [ -71.143014884972871, -40.081454978309239 ], [ -71.143070303741396, -40.08139425871169 ], [ -71.142991205062657, -40.081353063553216 ], [ -71.143115961543273, -40.081211719161558 ], [ -71.143215451711853, -40.081263534286286 ], [ -71.143287227535026, -40.081181417849244 ], [ -71.143188219157082, -40.081129853673374 ], [ -71.143329563753596, -40.080968829626869 ], [ -71.143247519227486, -40.080926100260768 ], [ -71.143102829817934, -40.080850744713935 ] ] ] ] } },
{ "type": "Feature", "properties": { "Id": 0, "Tipo": "Terminal de pasajeros", "IATA": "EPA", "Etiqueta": "EPA - Terminal de pasajeros", "Metros2": 3274.0298796799998 }, "geometry": { "type": "MultiPolygon", "coordinates": [ [ [ [ -58.599961593392287, -34.605429780176884 ], [ -58.599677014766257, -34.605498678153062 ], [ -58.599699857591865, -34.605585480890618 ], [ -58.600133099892901, -34.605493072113887 ], [ -58.600175333130572, -34.605527602057371 ], [ -58.6001997, -34.6056158 ], [ -58.600294499999976, -34.6060698 ], [ -58.6005506, -34.6060259 ], [ -58.600484722239834, -34.60568975536976 ], [ -58.600441469790702, -34.605685226131484 ], [ -58.600373478441369, -34.605383855010125 ], [ -58.600341467216843, -34.605179321156676 ], [ -58.600076734958591, -34.605209148338623 ], [ -58.600073213229741, -34.605185340135627 ], [ -58.599801955645916, -34.60520615111421 ], [ -58.59983650042583, -34.605382270380098 ], [ -58.599940599999982, -34.605363 ], [ -58.599958699999988, -34.6054211 ], [ -58.599961593392287, -34.605429780176884 ] ] ] ] } },
{ "type": "Feature", "properties": { "Id": 0, "Tipo": "Terminal de pasajeros", "IATA": "UAQ", "Etiqueta": "UAQ - Terminal de pasajeros", "Metros2": 1649.10363996 }, "geometry": { "type": "MultiPolygon", "coordinates": [ [ [ [ -68.422732886000432, -31.57115890001176 ], [ -68.422493820959815, -31.571152226511487 ], [ -68.422490736536815, -31.571096248283745 ], [ -68.422333733719043, -31.571099225575157 ], [ -68.422331036923481, -31.571184732716883 ], [ -68.422373594783878, -31.571185326616249 ], [ -68.422372756236385, -31.571216162714894 ], [ -68.422421966136213, -31.571210568437998 ], [ -68.422418416116784, -31.571586715805644 ], [ -68.422662621760566, -31.571589365951592 ], [ -68.42275782004026, -31.57159498312101 ], [ -68.422765567595647, -31.571313621097843 ], [ -68.422729042943843, -31.571312475817187 ], [ -68.422732886000432, -31.57115890001176 ] ] ] ] } },
{ "type": "Feature", "properties": { "Id": 0, "Tipo": "Terminal de pasajeros", "IATA": "BRC", "Etiqueta": "BRC - Terminal de pasajeros", "Metros2": 7544.1528237100001 }, "geometry": { "type": "MultiPolygon", "coordinates": [ [ [ [ -71.1623149, -41.1459033 ], [ -71.1623045, -41.1457092 ], [ -71.1621603, -41.1456339 ], [ -71.162129, -41.1455818 ], [ -71.1621021, -41.1455903 ], [ -71.162075, -41.1455988 ], [ -71.162027, -41.1456139 ], [ -71.1614934, -41.1457767 ], [ -71.1614683, -41.1457305 ], [ -71.1614457, -41.1456889 ], [ -71.1614225, -41.1456464 ], [ -71.161411, -41.1456252 ], [ -71.1613374, -41.1456483 ], [ -71.1611869, -41.1456965 ], [ -71.1609546, -41.1457751 ], [ -71.160962, -41.1458102 ], [ -71.1609647, -41.1458273 ], [ -71.1609754, -41.1458478 ], [ -71.161006, -41.1458906 ], [ -71.1610428, -41.1459366 ], [ -71.1606064, -41.1460989 ], [ -71.1606387, -41.1461566 ], [ -71.1604042, -41.1462398 ], [ -71.1604965, -41.146411 ], [ -71.1607092, -41.1463627 ], [ -71.1609061, -41.1463539 ], [ -71.1610034, -41.1463463 ], [ -71.1610638, -41.1464473 ], [ -71.161399, -41.1463352 ], [ -71.1613619, -41.1462553 ], [ -71.1613894, -41.1462465 ], [ -71.1619234, -41.1460524 ], [ -71.1623149, -41.1459033 ] ] ] ] } },
{ "type": "Feature", "properties": { "Id": 0, "Tipo": "Terminal de pasajeros en construcción", "IATA": "COC", "Etiqueta": "COC - Terminal de pasajeros en construcción", "Metros2": 5109.21720766 }, "geometry": { "type": "MultiPolygon", "coordinates": [ [ [ [ -58.001922026016359, -31.300311741376788 ], [ -58.002240683356362, -31.300208185941162 ], [ -58.002345617647642, -31.300015214835867 ], [ -58.00225804111988, -31.299743660646392 ], [ -58.002144432425453, -31.299517986260732 ], [ -58.002063604544894, -31.299427398966849 ], [ -58.00187647804681, -31.299415669203952 ], [ -58.001636482659258, -31.299505150383332 ], [ -58.001475146207056, -31.299580557421582 ], [ -58.001922026016359, -31.300311741376788 ] ] ] ] } },
{ "type": "Feature", "properties": { "Id": 0, "Tipo": "Terminal de pasajeros", "IATA": "CRD", "Etiqueta": "CRD - Terminal de pasajeros", "Metros2": 3986.9114201500001 }, "geometry": { "type": "MultiPolygon", "coordinates": [ [ [ [ -67.4687215, -45.7900935 ], [ -67.4687174, -45.7900318 ], [ -67.468704, -45.78997660000001 ], [ -67.4686785, -45.7898966 ], [ -67.4685377, -45.7898803 ], [ -67.4683651, -45.7898674 ], [ -67.4682219, -45.7898556 ], [ -67.4678118, -45.7898412 ], [ -67.4677615, -45.7898432 ], [ -67.4676934, -45.7898438 ], [ -67.4676231, -45.7898485 ], [ -67.4675654, -45.7898606 ], [ -67.4675373, -45.7899214 ], [ -67.4675171, -45.7899757 ], [ -67.4675104, -45.7900383 ], [ -67.4675144, -45.7901343 ], [ -67.467538, -45.7901798 ], [ -67.4675587, -45.7902275 ], [ -67.4677869, -45.7902484 ], [ -67.4679919, -45.7902553 ], [ -67.4682346, -45.7902623 ], [ -67.468464, -45.7902599 ], [ -67.4686732, -45.7902431 ], [ -67.468708, -45.7901655 ], [ -67.4687165, -45.7901376 ], [ -67.4687215, -45.7900935 ] ] ] ] } },
{ "type": "Feature", "properties": { "Id": 0, "Tipo": "Terminal de pasajeros", "IATA": "EQS", "Etiqueta": "EQS - Terminal de pasajeros", "Metros2": 1120.1622717299999 }, "geometry": { "type": "MultiPolygon", "coordinates": [ [ [ [ -71.147009899999986, -42.9061192 ], [ -71.1469635, -42.9060938 ], [ -71.1469805, -42.9060751 ], [ -71.146920299999977, -42.9060456 ], [ -71.1469069, -42.9060602 ], [ -71.146806, -42.906010799999976 ], [ -71.146818299999978, -42.90599730000001 ], [ -71.146750499999982, -42.9059641 ], [ -71.146735099999987, -42.905980900000017 ], [ -71.1466127, -42.905921 ], [ -71.1465705, -42.9059673 ], [ -71.1464456, -42.905906199999983 ], [ -71.146512, -42.9058335 ], [ -71.1464421, -42.9057992 ], [ -71.146416499999987, -42.9058272 ], [ -71.146444099999982, -42.9058407 ], [ -71.14639889999998, -42.9058902 ], [ -71.1462929, -42.905838399999986 ], [ -71.146215, -42.905923799999989 ], [ -71.146270899999976, -42.9059511 ], [ -71.146889283308099, -42.906253366187279 ], [ -71.147009899999986, -42.9061192 ] ] ] ] } },
{ "type": "Feature", "properties": { "Id": 0, "Tipo": "Terminal de pasajeros en construcción", "IATA": "IRJ", "Etiqueta": "IRJ - Terminal de pasajeros en construcción", "Metros2": 3921.0025358500002 }, "geometry": { "type": "MultiPolygon", "coordinates": [ [ [ [ -66.793402407815364, -29.383189740260235 ], [ -66.793785241251385, -29.383006059817742 ], [ -66.79379206329142, -29.383007212631867 ], [ -66.793342213976416, -29.382280703288735 ], [ -66.792952551148858, -29.382462036207897 ], [ -66.793402407815364, -29.383189740260235 ] ] ] ] } },
{ "type": "Feature", "properties": { "Id": 0, "Tipo": "Terminal de pasajeros", "IATA": "JUJ", "Etiqueta": "JUJ - Terminal de pasajeros", "Metros2": 6864.4086959099996 }, "geometry": { "type": "MultiPolygon", "coordinates": [ [ [ [ -65.0936357, -24.386882 ], [ -65.093842599999988, -24.3869908 ], [ -65.094073, -24.3866277 ], [ -65.093820899999983, -24.386495 ], [ -65.093799, -24.386483499999986 ], [ -65.09356870000002, -24.386846699999982 ], [ -65.0936357, -24.386882 ] ] ], [ [ [ -65.094288099999986, -24.3856835 ], [ -65.094242799999989, -24.385758099999975 ], [ -65.0941801, -24.3857265 ], [ -65.0939654, -24.386071199999986 ], [ -65.0940233, -24.386100399999982 ], [ -65.0939752, -24.3861796 ], [ -65.0939204, -24.3861519 ], [ -65.093752899999984, -24.386425399999986 ], [ -65.0938227, -24.3864607 ], [ -65.0941086, -24.3866047 ], [ -65.0942626, -24.3863513 ], [ -65.0942806, -24.3863604 ], [ -65.0943316, -24.3862764 ], [ -65.094314899999986, -24.386268 ], [ -65.0945263, -24.3859199 ], [ -65.0945455, -24.385929599999979 ], [ -65.0945944, -24.3858492 ], [ -65.0945761, -24.38584 ], [ -65.094746, -24.3855602 ], [ -65.0945947, -24.3854822 ], [ -65.094392, -24.3853818 ], [ -65.094227399999966, -24.3856529 ], [ -65.094288099999986, -24.3856835 ] ] ] ] } },
{ "type": "Feature", "properties": { "Id": 0, "Tipo": "Terminal de pasajeros", "IATA": "MDZ", "Etiqueta": "MDZ - Terminal de pasajeros", "Metros2": 8039.8368760100002 }, "geometry": { "type": "MultiPolygon", "coordinates": [ [ [ [ -68.7987993, -32.828321 ], [ -68.7987802, -32.8278699 ], [ -68.7987788, -32.8274075 ], [ -68.7985977, -32.8274081 ], [ -68.7985975, -32.8273809 ], [ -68.7986324, -32.8273807 ], [ -68.7986323, -32.8273475 ], [ -68.7986539, -32.8273474 ], [ -68.7986538, -32.827321800000014 ], [ -68.798653, -32.8271729 ], [ -68.7986682, -32.8271729 ], [ -68.7986679, -32.8271009 ], [ -68.798606, -32.8271012 ], [ -68.7986064, -32.827174199999988 ], [ -68.7985883, -32.827174199999988 ], [ -68.7985884, -32.827192500000017 ], [ -68.7985886, -32.8272303 ], [ -68.7985477, -32.8272305 ], [ -68.7985474, -32.82718280000001 ], [ -68.7985525, -32.82718280000001 ], [ -68.7985521, -32.8270934 ], [ -68.7985055, -32.827093499999989 ], [ -68.7985057, -32.8271321 ], [ -68.7984496, -32.8271323 ], [ -68.7984496, -32.827149799999987 ], [ -68.7984147, -32.827151500000014 ], [ -68.7984154, -32.8271 ], [ -68.7983691, -32.8271004 ], [ -68.7983022, -32.8271009 ], [ -68.7983008, -32.8271539 ], [ -68.7982427, -32.8271548 ], [ -68.7982425, -32.827119499999988 ], [ -68.7982279, -32.827119499999988 ], [ -68.7982281, -32.8271508 ], [ -68.7982014, -32.8271508 ], [ -68.7982013, -32.827116500000017 ], [ -68.7981778, -32.8271166 ], [ -68.798178, -32.8271691 ], [ -68.798187, -32.8271691 ], [ -68.7981872, -32.8272057 ], [ -68.7981316, -32.8272058 ], [ -68.7981326, -32.827403 ], [ -68.798189, -32.8274029 ], [ -68.7981906, -32.8277167 ], [ -68.7981364, -32.8277169 ], [ -68.7981372, -32.8278676 ], [ -68.798192, -32.8278674 ], [ -68.7981923, -32.8279314 ], [ -68.7981405, -32.8279315 ], [ -68.7981412, -32.8280764 ], [ -68.7981994, -32.8280762 ], [ -68.7981965, -32.828335399999986 ], [ -68.7982388, -32.8283353 ], [ -68.7982397, -32.8285038 ], [ -68.7986222, -32.828496499999986 ], [ -68.7986549, -32.828494800000016 ], [ -68.7986572, -32.8284197 ], [ -68.7986753, -32.8284191 ], [ -68.7986744, -32.8283543 ], [ -68.7986744, -32.8283534 ], [ -68.7986974, -32.828353300000011 ], [ -68.7986973, -32.828323 ], [ -68.7987993, -32.828321 ] ] ] ] } },
{ "type": "Feature", "properties": { "Id": 0, "Tipo": "Terminal de pasajeros", "IATA": "PMQ", "Etiqueta": "PMQ - Terminal de pasajeros", "Metros2": 353.44984832300003 }, "geometry": { "type": "MultiPolygon", "coordinates": [ [ [ [ -70.984493, -46.538159899999989 ], [ -70.9844471, -46.538101 ], [ -70.9843616, -46.5381326 ], [ -70.9843514, -46.5381196 ], [ -70.9843013, -46.5381381 ], [ -70.9843112, -46.5381507 ], [ -70.9842158, -46.5381859 ], [ -70.984201, -46.538167 ], [ -70.9841475, -46.5381867 ], [ -70.9841609, -46.5382038 ], [ -70.9839987, -46.5382576 ], [ -70.9840063, -46.5382671 ], [ -70.9840399, -46.5383099 ], [ -70.9841432, -46.5382718 ], [ -70.9841835, -46.5383233 ], [ -70.9842757, -46.5382893 ], [ -70.9842582, -46.538267 ], [ -70.9843085, -46.5382484 ], [ -70.9842951, -46.5382311 ], [ -70.9844293, -46.5381815 ], [ -70.984444, -46.5382003 ], [ -70.9844911, -46.5381829 ], [ -70.9844776, -46.5381656 ], [ -70.984493, -46.538159899999989 ] ] ] ] } },
{ "type": "Feature", "properties": { "Id": 0, "Tipo": "Terminal de pasajeros", "IATA": "PMY", "Etiqueta": "PMY - Terminal de pasajeros", "Metros2": 1488.0739972900001 }, "geometry": { "type": "MultiPolygon", "coordinates": [ [ [ [ -65.101139, -42.7553374 ], [ -65.1008659, -42.7552143 ], [ -65.1009047, -42.755168 ], [ -65.1008327, -42.7551356 ], [ -65.1008105, -42.7551621 ], [ -65.1006789, -42.7551027 ], [ -65.1007152, -42.7550592 ], [ -65.1006348, -42.755023 ], [ -65.1006586, -42.7549945 ], [ -65.1006006, -42.7549684 ], [ -65.1005601, -42.7549501 ], [ -65.1005348, -42.7549804 ], [ -65.100291, -42.7548705 ], [ -65.1002584, -42.7549095 ], [ -65.1001644, -42.7548671 ], [ -65.1000702, -42.7549797 ], [ -65.1001042, -42.754995 ], [ -65.1000912, -42.7550106 ], [ -65.1005722, -42.7552275 ], [ -65.1005892, -42.7552072 ], [ -65.1007113, -42.7552623 ], [ -65.1007282, -42.7552421 ], [ -65.1007697, -42.7552609 ], [ -65.1007856, -42.7552419 ], [ -65.1011002, -42.75538370000001 ], [ -65.101139, -42.7553374 ] ] ] ] } },
{ "type": "Feature", "properties": { "Id": 0, "Tipo": "Terminal de pasajeros", "IATA": "RSA", "Etiqueta": "RSA - Terminal de pasajeros", "Metros2": 1340.5187214600001 }, "geometry": { "type": "MultiPolygon", "coordinates": [ [ [ [ -64.2795742, -36.5918155 ], [ -64.2795161, -36.591815 ], [ -64.2795174, -36.5917201 ], [ -64.2795655, -36.5917206 ], [ -64.2795664, -36.5916572 ], [ -64.2795486, -36.591657 ], [ -64.2795504, -36.5915237 ], [ -64.2794884, -36.5915232 ], [ -64.2793307, -36.5915218 ], [ -64.2793302, -36.5915531 ], [ -64.2792374, -36.591552299999989 ], [ -64.2792327, -36.5918905 ], [ -64.279377, -36.5918918 ], [ -64.279375, -36.592039 ], [ -64.2795331, -36.5920404 ], [ -64.2795345, -36.5919419 ], [ -64.2795187, -36.5919418 ], [ -64.2795196, -36.5918808 ], [ -64.2795733, -36.5918813 ], [ -64.2795742, -36.5918155 ] ] ] ] } },
{ "type": "Feature", "properties": { "Id": 0, "Tipo": "Terminal de pasajeros", "IATA": "VDM", "Etiqueta": "VDM - Terminal de pasajeros", "Metros2": 1227.82899868 }, "geometry": { "type": "MultiPolygon", "coordinates": [ [ [ [ -63.0058833, -40.8631806 ], [ -63.0056426, -40.8630025 ], [ -63.0056449, -40.8629834 ], [ -63.005616, -40.8629623 ], [ -63.0055853, -40.8629408 ], [ -63.0055624, -40.8629456 ], [ -63.0053819, -40.8628079 ], [ -63.0053173, -40.8628576 ], [ -63.0053049, -40.8628484 ], [ -63.0052432, -40.8628025 ], [ -63.0051867, -40.8628459 ], [ -63.0052537, -40.8628987 ], [ -63.0052127, -40.8629352 ], [ -63.0053157, -40.8630138 ], [ -63.0053912, -40.8630711 ], [ -63.0053819, -40.86312 ], [ -63.0054374, -40.8631619 ], [ -63.0054836, -40.8631479 ], [ -63.0056406, -40.8632646 ], [ -63.0056752, -40.863238 ], [ -63.0056985, -40.863220099999985 ], [ -63.0057485, -40.8631817 ], [ -63.0058164, -40.8632321 ], [ -63.0058833, -40.8631806 ] ] ] ] } },
{ "type": "Feature", "properties": { "Id": 0, "Tipo": "Terminal de pasajeros", "IATA": "RLO", "Etiqueta": "RLO - Terminal de pasajeros", "Metros2": 3042.4178064600001 }, "geometry": { "type": "MultiPolygon", "coordinates": [ [ [ [ -65.1803721, -32.380883900000015 ], [ -65.1798837, -32.379560799999986 ], [ -65.1797449, -32.3795811 ], [ -65.1799317, -32.3801311 ], [ -65.1797689, -32.3801852 ], [ -65.1800305, -32.38071260000001 ], [ -65.1801346, -32.3806878 ], [ -65.1802346, -32.3809068 ], [ -65.1803721, -32.380883900000015 ] ] ] ] } },
{ "type": "Feature", "properties": { "Id": 0, "Tipo": "Terminal de cargas", "IATA": null, "Etiqueta": "ROS - Terminal de cargas", "Metros2": 3095.4074215300002 }, "geometry": { "type": "MultiPolygon", "coordinates": [ [ [ [ -60.783601319121395, -32.92043748604523 ], [ -60.783202602499479, -32.920495224362853 ], [ -60.783332674283031, -32.92122407957109 ], [ -60.783723653409169, -32.921177925223269 ], [ -60.783601319121395, -32.92043748604523 ] ] ] ] } }
]
}
