{"type":"FeatureCollection","features":[{"type":"Feature","id":"segemar_riesgo_volcanico_2025.1","geometry":{"type":"Point","coordinates":[-70.432,-36.637]},"geometry_name":"geom","properties":{"id":1,"gid":3,"nombre":"Volcán Domuyo","provincia":"Neuquén","elevacion":4702,"tipo":"complejo de domos","riesgo":"Riesgo relativo clase 3","fuente":"SEGEMAR"},"bbox":[-70.432,-36.637,-70.432,-36.637]},{"type":"Feature","id":"segemar_riesgo_volcanico_2025.2","geometry":{"type":"Point","coordinates":[-71.565,-39.864]},"geometry_name":"geom","properties":{"id":2,"gid":14,"nombre":"Cerro Huanquihué","provincia":"Neuquén","elevacion":1585,"tipo":"grupo volcánico","riesgo":"Riesgo relativo clase 3","fuente":"SEGEMAR"},"bbox":[-71.565,-39.864,-71.565,-39.864]},{"type":"Feature","id":"segemar_riesgo_volcanico_2025.3","geometry":{"type":"Point","coordinates":[-70.373,-39.021]},"geometry_name":"geom","properties":{"id":3,"gid":21,"nombre":"Cerro de la Laguna","provincia":"Neuquén","elevacion":1459,"tipo":"campo volcánico","riesgo":"Riesgo relativo clase 2","fuente":"SEGEMAR"},"bbox":[-70.373,-39.021,-70.373,-39.021]},{"type":"Feature","id":"segemar_riesgo_volcanico_2025.4","geometry":{"type":"Point","coordinates":[-71.502,-39.638]},"geometry_name":"geom","properties":{"id":4,"gid":30,"nombre":"Volcán Lanín","provincia":"Neuquén","elevacion":3728,"tipo":"estrato-volcán","riesgo":"Riesgo relativo clase 5","fuente":"SEGEMAR"},"bbox":[-71.502,-39.638,-71.502,-39.638]},{"type":"Feature","id":"segemar_riesgo_volcanico_2025.5","geometry":{"type":"Point","coordinates":[-70.049,-37.14]},"geometry_name":"geom","properties":{"id":5,"gid":33,"nombre":"Volcán Tromen","provincia":"Neuquén","elevacion":3980,"tipo":"estrato-volcán","riesgo":"Riesgo relativo clase 4","fuente":"SEGEMAR"},"bbox":[-70.049,-37.14,-70.049,-37.14]},{"type":"Feature","id":"segemar_riesgo_volcanico_2025.6","geometry":{"type":"Point","coordinates":[-68.521,-25.336]},"geometry_name":"geom","properties":{"id":6,"gid":6,"nombre":"Cordón del Azufre","provincia":"Catamarca","elevacion":5463,"tipo":"complejo volcánico","riesgo":"Riesgo relativo clase 2","fuente":"SEGEMAR"},"bbox":[-68.521,-25.336,-68.521,-25.336]},{"type":"Feature","id":"segemar_riesgo_volcanico_2025.7","geometry":{"type":"Point","coordinates":[-68.361,-26.632]},"geometry_name":"geom","properties":{"id":7,"gid":7,"nombre":"Cerro El Cóndor","provincia":"Catamarca","elevacion":6373,"tipo":"complejo volcánico","riesgo":"Riesgo relativo clase 2","fuente":"SEGEMAR"},"bbox":[-68.361,-26.632,-68.361,-26.632]},{"type":"Feature","id":"segemar_riesgo_volcanico_2025.8","geometry":{"type":"Point","coordinates":[-68.36036186,-26.80333705]},"geometry_name":"geom","properties":{"id":8,"gid":8,"nombre":"Volcán Falso Azufre","provincia":"Catamarca","elevacion":5745,"tipo":"complejo volcánico","riesgo":"Riesgo relativo clase 2","fuente":"SEGEMAR"},"bbox":[-68.36036186,-26.80333705,-68.36036186,-26.80333705]},{"type":"Feature","id":"segemar_riesgo_volcanico_2025.9","geometry":{"type":"Point","coordinates":[-68.586,-26.493]},"geometry_name":"geom","properties":{"id":9,"gid":10,"nombre":"Cerro Sierra Nevada","provincia":"Catamarca","elevacion":6173,"tipo":"complejo volcánico","riesgo":"Riesgo relativo clase 1","fuente":"SEGEMAR"},"bbox":[-68.586,-26.493,-68.586,-26.493]},{"type":"Feature","id":"segemar_riesgo_volcanico_2025.10","geometry":{"type":"Point","coordinates":[-68.559,-27.193]},"geometry_name":"geom","properties":{"id":10,"gid":11,"nombre":"Volcán Tipas","provincia":"Catamarca","elevacion":6658,"tipo":"complejo volcánico","riesgo":"Riesgo relativo clase 1","fuente":"SEGEMAR"},"bbox":[-68.559,-27.193,-68.559,-27.193]},{"type":"Feature","id":"segemar_riesgo_volcanico_2025.11","geometry":{"type":"Point","coordinates":[-68.507,-25.169]},"geometry_name":"geom","properties":{"id":11,"gid":16,"nombre":"Volcán Azufre o Lastarría","provincia":"Catamarca","elevacion":5706,"tipo":"estrato-volcán","riesgo":"Riesgo relativo clase 3","fuente":"SEGEMAR"},"bbox":[-68.507,-25.169,-68.507,-25.169]},{"type":"Feature","id":"segemar_riesgo_volcanico_2025.12","geometry":{"type":"Point","coordinates":[-68.379,-27.049]},"geometry_name":"geom","properties":{"id":12,"gid":18,"nombre":"Cerro El Fraile","provincia":"Catamarca","elevacion":6068,"tipo":"complejo de domos","riesgo":"Riesgo relativo clase 2","fuente":"SEGEMAR"},"bbox":[-68.379,-27.049,-68.379,-27.049]},{"type":"Feature","id":"segemar_riesgo_volcanico_2025.13","geometry":{"type":"Point","coordinates":[-67.821,-26.553]},"geometry_name":"geom","properties":{"id":13,"gid":19,"nombre":"Cerro Cueros de Purulla","provincia":"Catamarca","elevacion":4912,"tipo":"complejo de domos","riesgo":"Riesgo relativo clase 2","fuente":"SEGEMAR"},"bbox":[-67.821,-26.553,-67.821,-26.553]},{"type":"Feature","id":"segemar_riesgo_volcanico_2025.14","geometry":{"type":"Point","coordinates":[-68.778,-27.099]},"geometry_name":"geom","properties":{"id":14,"gid":20,"nombre":"Cerro Tres Cruces","provincia":"Catamarca","elevacion":6749,"tipo":"complejo volcánico","riesgo":"Riesgo relativo clase 2","fuente":"SEGEMAR"},"bbox":[-68.778,-27.099,-68.778,-27.099]},{"type":"Feature","id":"segemar_riesgo_volcanico_2025.15","geometry":{"type":"Point","coordinates":[-67.41,-26.1297]},"geometry_name":"geom","properties":{"id":15,"gid":24,"nombre":"Volcán Antofagasta","provincia":"Catamarca","elevacion":3495,"tipo":"campo volcánico","riesgo":"Riesgo relativo clase 1","fuente":"SEGEMAR"},"bbox":[-67.41,-26.1297,-67.41,-26.1297]},{"type":"Feature","id":"segemar_riesgo_volcanico_2025.16","geometry":{"type":"Point","coordinates":[-67.758,-26.782]},"geometry_name":"geom","properties":{"id":16,"gid":26,"nombre":"Cerro Blanco","provincia":"Catamarca","elevacion":4670,"tipo":"complejo volcánico","riesgo":"Riesgo relativo clase 5","fuente":"SEGEMAR"},"bbox":[-67.758,-26.782,-67.758,-26.782]},{"type":"Feature","id":"segemar_riesgo_volcanico_2025.17","geometry":{"type":"Point","coordinates":[-68.115,-26.623]},"geometry_name":"geom","properties":{"id":17,"gid":32,"nombre":"Cerro Peinado","provincia":"Catamarca","elevacion":5741,"tipo":"estrato-volcán","riesgo":"Riesgo relativo clase 1","fuente":"SEGEMAR"},"bbox":[-68.115,-26.623,-68.115,-26.623]},{"type":"Feature","id":"segemar_riesgo_volcanico_2025.18","geometry":{"type":"Point","coordinates":[-73.316,-49.366]},"geometry_name":"geom","properties":{"id":18,"gid":35,"nombre":"Nunatak Viedma","provincia":"Santa Cruz","elevacion":1100,"tipo":"volcán sub-glacial","riesgo":"Riesgo relativo clase 2","fuente":"SEGEMAR"},"bbox":[-73.316,-49.366,-73.316,-49.366]},{"type":"Feature","id":"segemar_riesgo_volcanico_2025.19","geometry":{"type":"Point","coordinates":[-69.696,-52.082]},"geometry_name":"geom","properties":{"id":19,"gid":37,"nombre":"Campo Volcánico Pali Aike","provincia":"Santa Cruz","elevacion":292,"tipo":"campo volcánico","riesgo":"Riesgo relativo clase 3","fuente":"SEGEMAR"},"bbox":[-69.696,-52.082,-69.696,-52.082]},{"type":"Feature","id":"segemar_riesgo_volcanico_2025.20","geometry":{"type":"Point","coordinates":[-69.238,-36.423]},"geometry_name":"geom","properties":{"id":20,"gid":2,"nombre":"Volcán Payún Matrú","provincia":"Mendoza","elevacion":3715,"tipo":"campo volcánico","riesgo":"Riesgo relativo clase 3","fuente":"SEGEMAR"},"bbox":[-69.238,-36.423,-69.238,-36.423]},{"type":"Feature","id":"segemar_riesgo_volcanico_2025.21","geometry":{"type":"Point","coordinates":[-69.83,-35.142]},"geometry_name":"geom","properties":{"id":21,"gid":15,"nombre":"Volcán Infiernillo","provincia":"Mendoza","elevacion":2225,"tipo":"grupo volcánico","riesgo":"Riesgo relativo clase 2","fuente":"SEGEMAR"},"bbox":[-69.83,-35.142,-69.83,-35.142]},{"type":"Feature","id":"segemar_riesgo_volcanico_2025.22","geometry":{"type":"Point","coordinates":[-69.831,-34.162]},"geometry_name":"geom","properties":{"id":22,"gid":31,"nombre":"Volcán Maipo","provincia":"Mendoza","elevacion":5318,"tipo":"estrato-volcán","riesgo":"Riesgo relativo clase 4","fuente":"SEGEMAR"},"bbox":[-69.831,-34.162,-69.831,-34.162]},{"type":"Feature","id":"segemar_riesgo_volcanico_2025.23","geometry":{"type":"Point","coordinates":[-70.019,-34.567]},"geometry_name":"geom","properties":{"id":23,"gid":36,"nombre":"Cerro Volcán Overo","provincia":"Mendoza","elevacion":4619,"tipo":"estrato-volcán","riesgo":"Riesgo relativo clase 3","fuente":"SEGEMAR"},"bbox":[-70.019,-34.567,-70.019,-34.567]},{"type":"Feature","id":"segemar_riesgo_volcanico_2025.24","geometry":{"type":"Point","coordinates":[-69.894,-33.789]},"geometry_name":"geom","properties":{"id":24,"gid":38,"nombre":"Complejo Volcánico San José","provincia":"Mendoza","elevacion":5852,"tipo":"complejo volcánico","riesgo":"Riesgo relativo clase 4","fuente":"SEGEMAR"},"bbox":[-69.894,-33.789,-69.894,-33.789]},{"type":"Feature","id":"segemar_riesgo_volcanico_2025.25","geometry":{"type":"Point","coordinates":[-66.479,-24.056]},"geometry_name":"geom","properties":{"id":25,"gid":34,"nombre":"Cerro Tuzgle","provincia":"Jujuy","elevacion":5486,"tipo":"estrato-volcán","riesgo":"Riesgo relativo clase 3","fuente":"SEGEMAR"},"bbox":[-66.479,-24.056,-66.479,-24.056]},{"type":"Feature","id":"segemar_riesgo_volcanico_2025.26","geometry":{"type":"Point","coordinates":[-68.093,-24.872]},"geometry_name":"geom","properties":{"id":26,"gid":13,"nombre":"Salar de Arizaro","provincia":"Salta","elevacion":4100,"tipo":"grupo volcánico","riesgo":"Riesgo relativo clase 1","fuente":"SEGEMAR"},"bbox":[-68.093,-24.872,-68.093,-24.872]},{"type":"Feature","id":"segemar_riesgo_volcanico_2025.27","geometry":{"type":"Point","coordinates":[-68.245,-24.396]},"geometry_name":"geom","properties":{"id":27,"gid":22,"nombre":"Volcán Socompa","provincia":"Salta","elevacion":6031,"tipo":"estrato-volcán","riesgo":"Riesgo relativo clase 4","fuente":"SEGEMAR"},"bbox":[-68.245,-24.396,-68.245,-24.396]},{"type":"Feature","id":"segemar_riesgo_volcanico_2025.28","geometry":{"type":"Point","coordinates":[-67.784,-24.289]},"geometry_name":"geom","properties":{"id":28,"gid":28,"nombre":"Volcán Aracar","provincia":"Salta","elevacion":6095,"tipo":"estrato-volcán","riesgo":"Riesgo relativo clase 1","fuente":"SEGEMAR"},"bbox":[-67.784,-24.289,-67.784,-24.289]},{"type":"Feature","id":"segemar_riesgo_volcanico_2025.29","geometry":{"type":"Point","coordinates":[-68.367,-25.082]},"geometry_name":"geom","properties":{"id":29,"gid":29,"nombre":"Cerro Escorial","provincia":"Salta","elevacion":5451,"tipo":"estrato-volcán","riesgo":"Riesgo relativo clase 1","fuente":"SEGEMAR"},"bbox":[-68.367,-25.082,-68.367,-25.082]},{"type":"Feature","id":"segemar_riesgo_volcanico_2025.30","geometry":{"type":"Point","coordinates":[-68.53696211,-24.71899441]},"geometry_name":"geom","properties":{"id":30,"gid":1,"nombre":"Cerro de Llullaillaco","provincia":"Salta","elevacion":6723,"tipo":"estrato-volcán","riesgo":"Riesgo relativo clase 3","fuente":"SEGEMAR"},"bbox":[-68.53696211,-24.71899441,-68.53696211,-24.71899441]},{"type":"Feature","id":"segemar_riesgo_volcanico_2025.31","geometry":{"type":"Point","coordinates":[-68.71294821,-27.10426553]},"geometry_name":"geom","properties":{"id":31,"gid":4,"nombre":"Cerro Solo o Cenizo","provincia":"Catamarca","elevacion":6205,"tipo":"complejo de domos","riesgo":"Riesgo relativo clase 1","fuente":"SEGEMAR"},"bbox":[-68.71294821,-27.10426553,-68.71294821,-27.10426553]},{"type":"Feature","id":"segemar_riesgo_volcanico_2025.32","geometry":{"type":"Point","coordinates":[-68.58901189,-25.4143048]},"geometry_name":"geom","properties":{"id":32,"gid":5,"nombre":"Cerro Bayo Gorbea","provincia":"Catamarca","elevacion":5413,"tipo":"complejo volcánico","riesgo":"Riesgo relativo clase 2","fuente":"SEGEMAR"},"bbox":[-68.58901189,-25.4143048,-68.58901189,-25.4143048]},{"type":"Feature","id":"segemar_riesgo_volcanico_2025.33","geometry":{"type":"Point","coordinates":[-68.54097596,-27.11000933]},"geometry_name":"geom","properties":{"id":33,"gid":9,"nombre":"Cerro Ojos del Salado","provincia":"Catamarca","elevacion":6879,"tipo":"complejo volcánico","riesgo":"Riesgo relativo clase 2","fuente":"SEGEMAR"},"bbox":[-68.54097596,-27.11000933,-68.54097596,-27.11000933]},{"type":"Feature","id":"segemar_riesgo_volcanico_2025.34","geometry":{"type":"Point","coordinates":[-70.56438514,-35.24071513]},"geometry_name":"geom","properties":{"id":34,"gid":12,"nombre":"Volcán Planchón-Peteroa","provincia":"Mendoza","elevacion":3512,"tipo":"complejo volcánico","riesgo":"Riesgo relativo clase 5","fuente":"SEGEMAR"},"bbox":[-70.56438514,-35.24071513,-70.56438514,-35.24071513]},{"type":"Feature","id":"segemar_riesgo_volcanico_2025.35","geometry":{"type":"Point","coordinates":[-68.29562652,-27.03380899]},"geometry_name":"geom","properties":{"id":35,"gid":17,"nombre":"Cerro De Incahuasi","provincia":"Catamarca","elevacion":6635,"tipo":"estrato-volcán","riesgo":"Riesgo relativo clase 1","fuente":"SEGEMAR"},"bbox":[-68.29562652,-27.03380899,-68.29562652,-27.03380899]},{"type":"Feature","id":"segemar_riesgo_volcanico_2025.36","geometry":{"type":"Point","coordinates":[-69.815,-33.39]},"geometry_name":"geom","properties":{"id":36,"gid":23,"nombre":"Cerro Tupungatito o Bravard","provincia":"Mendoza","elevacion":5569,"tipo":"estrato-volcán","riesgo":"Riesgo relativo clase 5","fuente":"SEGEMAR"},"bbox":[-69.815,-33.39,-69.815,-33.39]},{"type":"Feature","id":"segemar_riesgo_volcanico_2025.37","geometry":{"type":"Point","coordinates":[-71.18268978,-37.85882967]},"geometry_name":"geom","properties":{"id":37,"gid":25,"nombre":"Volcán Copahue","provincia":"Neuquén","elevacion":2958,"tipo":"estrato-volcán","riesgo":"Riesgo relativo clase 5","fuente":"SEGEMAR"},"bbox":[-71.18268978,-37.85882967,-71.18268978,-37.85882967]},{"type":"Feature","id":"segemar_riesgo_volcanico_2025.38","geometry":{"type":"Point","coordinates":[-70.41266855,-36.06203414]},"geometry_name":"geom","properties":{"id":38,"gid":27,"nombre":"Complejo Volcánico Laguna del Maule","provincia":"Mendoza","elevacion":3092,"tipo":"complejo volcánico","riesgo":"Riesgo relativo clase 5","fuente":"SEGEMAR"},"bbox":[-70.41266855,-36.06203414,-70.41266855,-36.06203414]}],"totalFeatures":38,"numberMatched":38,"numberReturned":38,"timeStamp":"2026-06-25T13:46:44.622Z","crs":{"type":"name","properties":{"name":"urn:ogc:def:crs:EPSG::4326"}},"bbox":[-73.316,-52.082,-66.479,-24.056]}