{
"type": "FeatureCollection",
"name": "4movxaeropuerto2021a2025SinSIIAC",
"features": [
{ "type": "Feature", "properties": { "Año": 2015, "Mes": "ene", "AOL": null, "COC": 234, "GNR": 12, "JNI": 2, "LPG": 335, "NEC": 37, "PMQ": 9, "RLO": 25, "RYO": 16, "SST": 132, "TDL": 116, "TTG": 37, "VLG": 397 }, "geometry": null },
{ "type": "Feature", "properties": { "Año": 2015, "Mes": "feb", "AOL": null, "COC": 318, "GNR": 26, "JNI": 6, "LPG": 353, "NEC": 35, "PMQ": 6, "RLO": 19, "RYO": 13, "SST": 137, "TDL": 286, "TTG": 35, "VLG": 218 }, "geometry": null },
{ "type": "Feature", "properties": { "Año": 2015, "Mes": "mar", "AOL": 1, "COC": 317, "GNR": 34, "JNI": 2, "LPG": 380, "NEC": 31, "PMQ": 24, "RLO": 26, "RYO": 12, "SST": 35, "TDL": 298, "TTG": 43, "VLG": 17 }, "geometry": null },
{ "type": "Feature", "properties": { "Año": 2015, "Mes": "abr", "AOL": null, "COC": 346, "GNR": 14, "JNI": 6, "LPG": 423, "NEC": 8, "PMQ": 17, "RLO": 31, "RYO": 9, "SST": 68, "TDL": 222, "TTG": 62, "VLG": 12 }, "geometry": null },
{ "type": "Feature", "properties": { "Año": 2015, "Mes": "may", "AOL": 5, "COC": 356, "GNR": 17, "JNI": 4, "LPG": 428, "NEC": 35, "PMQ": 17, "RLO": 30, "RYO": 8, "SST": 55, "TDL": 372, "TTG": 41, "VLG": 9 }, "geometry": null },
{ "type": "Feature", "properties": { "Año": 2015, "Mes": "jun", "AOL": null, "COC": 280, "GNR": 55, "JNI": 1, "LPG": 393, "NEC": 17, "PMQ": 21, "RLO": 22, "RYO": 5, "SST": 45, "TDL": 328, "TTG": 53, "VLG": 9 }, "geometry": null },
{ "type": "Feature", "properties": { "Año": 2015, "Mes": "jul", "AOL": null, "COC": 317, "GNR": 18, "JNI": 6, "LPG": 383, "NEC": 30, "PMQ": 22, "RLO": 31, "RYO": 3, "SST": 37, "TDL": 306, "TTG": 51, "VLG": 14 }, "geometry": null },
{ "type": "Feature", "properties": { "Año": 2015, "Mes": "ago", "AOL": 1, "COC": 317, "GNR": 23, "JNI": null, "LPG": 212, "NEC": 26, "PMQ": 16, "RLO": 32, "RYO": 4, "SST": 23, "TDL": 321, "TTG": 45, "VLG": 9 }, "geometry": null },
{ "type": "Feature", "properties": { "Año": 2015, "Mes": "sep", "AOL": null, "COC": 348, "GNR": 28, "JNI": 1, "LPG": 208, "NEC": 17, "PMQ": 20, "RLO": 30, "RYO": 20, "SST": 31, "TDL": 402, "TTG": 29, "VLG": 4 }, "geometry": null },
{ "type": "Feature", "properties": { "Año": 2015, "Mes": "oct", "AOL": 1, "COC": 296, "GNR": 17, "JNI": 1, "LPG": 645, "NEC": 20, "PMQ": 25, "RLO": 3, "RYO": 6, "SST": 26, "TDL": 423, "TTG": 35, "VLG": 15 }, "geometry": null },
{ "type": "Feature", "properties": { "Año": 2015, "Mes": "nov", "AOL": 2, "COC": 330, "GNR": 23, "JNI": 3, "LPG": 504, "NEC": 24, "PMQ": 20, "RLO": 4, "RYO": 9, "SST": 18, "TDL": 637, "TTG": 25, "VLG": 13 }, "geometry": null },
{ "type": "Feature", "properties": { "Año": 2015, "Mes": "dic", "AOL": null, "COC": 296, "GNR": 26, "JNI": 5, "LPG": 471, "NEC": 34, "PMQ": 23, "RLO": 3, "RYO": 8, "SST": 45, "TDL": 199, "TTG": 21, "VLG": 92 }, "geometry": null },
{ "type": "Feature", "properties": { "Año": 2016, "Mes": "ene", "AOL": null, "COC": 247, "GNR": 28, "JNI": 1, "LPG": 320, "NEC": 44, "PMQ": 19, "RLO": 2, "RYO": 1, "SST": 96, "TDL": 289, "TTG": 36, "VLG": 245 }, "geometry": null },
{ "type": "Feature", "properties": { "Año": 2016, "Mes": "feb", "AOL": null, "COC": 311, "GNR": 39, "JNI": null, "LPG": 338, "NEC": 23, "PMQ": 21, "RLO": 1, "RYO": 11, "SST": 26, "TDL": 250, "TTG": 13, "VLG": 73 }, "geometry": null },
{ "type": "Feature", "properties": { "Año": 2016, "Mes": "mar", "AOL": null, "COC": 234, "GNR": 35, "JNI": null, "LPG": 347, "NEC": 27, "PMQ": 23, "RLO": 11, "RYO": 5, "SST": 9, "TDL": 294, "TTG": 40, "VLG": 14 }, "geometry": null },
{ "type": "Feature", "properties": { "Año": 2016, "Mes": "abr", "AOL": null, "COC": 120, "GNR": 39, "JNI": null, "LPG": 286, "NEC": 28, "PMQ": 29, "RLO": 5, "RYO": 8, "SST": 17, "TDL": 259, "TTG": 39, "VLG": 4 }, "geometry": null },
{ "type": "Feature", "properties": { "Año": 2016, "Mes": "may", "AOL": null, "COC": 335, "GNR": 12, "JNI": 3, "LPG": 261, "NEC": 19, "PMQ": 22, "RLO": 13, "RYO": 2, "SST": 15, "TDL": 254, "TTG": 38, "VLG": 1 }, "geometry": null },
{ "type": "Feature", "properties": { "Año": 2016, "Mes": "jun", "AOL": 2, "COC": 303, "GNR": 20, "JNI": 2, "LPG": 228, "NEC": 16, "PMQ": 25, "RLO": 21, "RYO": 5, "SST": 22, "TDL": 244, "TTG": 35, "VLG": 2 }, "geometry": null },
{ "type": "Feature", "properties": { "Año": 2016, "Mes": "jul", "AOL": 1, "COC": 357, "GNR": 15, "JNI": 5, "LPG": 243, "NEC": 26, "PMQ": 27, "RLO": 16, "RYO": null, "SST": 22, "TDL": 217, "TTG": 27, "VLG": 7 }, "geometry": null },
{ "type": "Feature", "properties": { "Año": 2016, "Mes": "ago", "AOL": null, "COC": 295, "GNR": 32, "JNI": 4, "LPG": 504, "NEC": 25, "PMQ": 27, "RLO": 20, "RYO": 2, "SST": 26, "TDL": 275, "TTG": 17, "VLG": 11 }, "geometry": null },
{ "type": "Feature", "properties": { "Año": 2016, "Mes": "sep", "AOL": 5, "COC": 342, "GNR": 10, "JNI": 4, "LPG": 356, "NEC": 23, "PMQ": 30, "RLO": 12, "RYO": 4, "SST": 4, "TDL": 277, "TTG": 44, "VLG": 2 }, "geometry": null },
{ "type": "Feature", "properties": { "Año": 2016, "Mes": "oct", "AOL": 5, "COC": 278, "GNR": 35, "JNI": 2, "LPG": 324, "NEC": 23, "PMQ": 32, "RLO": 16, "RYO": 2, "SST": 17, "TDL": 281, "TTG": 47, "VLG": 18 }, "geometry": null },
{ "type": "Feature", "properties": { "Año": 2016, "Mes": "nov", "AOL": null, "COC": 182, "GNR": 23, "JNI": 12, "LPG": 445, "NEC": 28, "PMQ": 36, "RLO": 17, "RYO": null, "SST": 13, "TDL": 381, "TTG": 24, "VLG": 21 }, "geometry": null },
{ "type": "Feature", "properties": { "Año": 2016, "Mes": "dic", "AOL": 1, "COC": 99, "GNR": 17, "JNI": 3, "LPG": 376, "NEC": 23, "PMQ": 28, "RLO": 15, "RYO": 2, "SST": 8, "TDL": 143, "TTG": 29, "VLG": 29 }, "geometry": null },
{ "type": "Feature", "properties": { "Año": 2017, "Mes": "ene", "AOL": null, "COC": 132, "GNR": 12, "JNI": null, "LPG": 186, "NEC": 30, "PMQ": 38, "RLO": 20, "RYO": 3, "SST": 246, "TDL": 209, "TTG": 21, "VLG": 110 }, "geometry": null },
{ "type": "Feature", "properties": { "Año": 2017, "Mes": "feb", "AOL": null, "COC": 234, "GNR": 14, "JNI": null, "LPG": 410, "NEC": 33, "PMQ": 29, "RLO": 8, "RYO": 5, "SST": 121, "TDL": 197, "TTG": 13, "VLG": 38 }, "geometry": null },
{ "type": "Feature", "properties": { "Año": 2017, "Mes": "mar", "AOL": null, "COC": 278, "GNR": 28, "JNI": 3, "LPG": 496, "NEC": 29, "PMQ": 35, "RLO": 21, "RYO": null, "SST": 21, "TDL": 375, "TTG": 34, "VLG": 14 }, "geometry": null },
{ "type": "Feature", "properties": { "Año": 2017, "Mes": "abr", "AOL": 1, "COC": 289, "GNR": 31, "JNI": 10, "LPG": 508, "NEC": 25, "PMQ": 29, "RLO": 14, "RYO": 6, "SST": 24, "TDL": 195, "TTG": 47, "VLG": 26 }, "geometry": null },
{ "type": "Feature", "properties": { "Año": 2017, "Mes": "may", "AOL": null, "COC": 242, "GNR": 28, "JNI": 32, "LPG": 386, "NEC": 26, "PMQ": 21, "RLO": 8, "RYO": 3, "SST": 9, "TDL": 400, "TTG": 31, "VLG": 15 }, "geometry": null },
{ "type": "Feature", "properties": { "Año": 2017, "Mes": "jun", "AOL": null, "COC": 257, "GNR": 21, "JNI": null, "LPG": 518, "NEC": 25, "PMQ": 18, "RLO": 17, "RYO": 2, "SST": 14, "TDL": 460, "TTG": 52, "VLG": 3 }, "geometry": null },
{ "type": "Feature", "properties": { "Año": 2017, "Mes": "jul", "AOL": 1, "COC": 294, "GNR": 18, "JNI": 4, "LPG": 428, "NEC": 10, "PMQ": 24, "RLO": 26, "RYO": 2, "SST": 13, "TDL": 230, "TTG": 44, "VLG": null }, "geometry": null },
{ "type": "Feature", "properties": { "Año": 2017, "Mes": "ago", "AOL": null, "COC": 301, "GNR": 21, "JNI": null, "LPG": 429, "NEC": 8, "PMQ": 32, "RLO": 22, "RYO": 3, "SST": 19, "TDL": 223, "TTG": 36, "VLG": null }, "geometry": null },
{ "type": "Feature", "properties": { "Año": 2017, "Mes": "sep", "AOL": null, "COC": 285, "GNR": 13, "JNI": 7, "LPG": 361, "NEC": 11, "PMQ": 32, "RLO": 1, "RYO": 1, "SST": 20, "TDL": 358, "TTG": 29, "VLG": 8 }, "geometry": null },
{ "type": "Feature", "properties": { "Año": 2017, "Mes": "oct", "AOL": 2, "COC": 351, "GNR": 32, "JNI": 4, "LPG": 756, "NEC": 7, "PMQ": 33, "RLO": 10, "RYO": 7, "SST": 11, "TDL": 360, "TTG": 67, "VLG": 10 }, "geometry": null },
{ "type": "Feature", "properties": { "Año": 2017, "Mes": "nov", "AOL": null, "COC": 248, "GNR": 60, "JNI": 1, "LPG": 537, "NEC": 8, "PMQ": 30, "RLO": 2, "RYO": 2, "SST": 14, "TDL": 223, "TTG": 44, "VLG": 8 }, "geometry": null },
{ "type": "Feature", "properties": { "Año": 2017, "Mes": "dic", "AOL": 2, "COC": 177, "GNR": 35, "JNI": 4, "LPG": 431, "NEC": 13, "PMQ": 28, "RLO": 3, "RYO": 3, "SST": 9, "TDL": 163, "TTG": 33, "VLG": 57 }, "geometry": null },
{ "type": "Feature", "properties": { "Año": 2018, "Mes": "ene", "AOL": 4, "COC": 169, "GNR": 40, "JNI": 5, "LPG": 246, "NEC": 18, "PMQ": 26, "RLO": 2, "RYO": 7, "SST": 197, "TDL": 239, "TTG": 35, "VLG": 81 }, "geometry": null },
{ "type": "Feature", "properties": { "Año": 2018, "Mes": "feb", "AOL": null, "COC": 208, "GNR": 35, "JNI": 3, "LPG": 171, "NEC": 18, "PMQ": 28, "RLO": 5, "RYO": 5, "SST": 105, "TDL": 295, "TTG": 41, "VLG": 75 }, "geometry": null },
{ "type": "Feature", "properties": { "Año": 2018, "Mes": "mar", "AOL": 3, "COC": 204, "GNR": 42, "JNI": 4, "LPG": 205, "NEC": 10, "PMQ": 22, "RLO": 9, "RYO": 1, "SST": 19, "TDL": 357, "TTG": 37, "VLG": 27 }, "geometry": null },
{ "type": "Feature", "properties": { "Año": 2018, "Mes": "abr", "AOL": 2, "COC": 206, "GNR": 70, "JNI": 1, "LPG": 144, "NEC": 10, "PMQ": 19, "RLO": 7, "RYO": 7, "SST": 13, "TDL": 142, "TTG": 27, "VLG": 27 }, "geometry": null },
{ "type": "Feature", "properties": { "Año": 2018, "Mes": "may", "AOL": null, "COC": 191, "GNR": 32, "JNI": 8, "LPG": 134, "NEC": 19, "PMQ": 20, "RLO": 5, "RYO": 3, "SST": 7, "TDL": 170, "TTG": 35, "VLG": 8 }, "geometry": null },
{ "type": "Feature", "properties": { "Año": 2018, "Mes": "jun", "AOL": 1, "COC": 207, "GNR": 43, "JNI": 4, "LPG": 130, "NEC": 5, "PMQ": 18, "RLO": 5, "RYO": null, "SST": 18, "TDL": 207, "TTG": 44, "VLG": 9 }, "geometry": null },
{ "type": "Feature", "properties": { "Año": 2018, "Mes": "jul", "AOL": null, "COC": 116, "GNR": 21, "JNI": 1, "LPG": 109, "NEC": 8, "PMQ": 17, "RLO": 4, "RYO": null, "SST": 6, "TDL": 154, "TTG": 34, "VLG": 20 }, "geometry": null },
{ "type": "Feature", "properties": { "Año": 2018, "Mes": "ago", "AOL": 2, "COC": 154, "GNR": 32, "JNI": 3, "LPG": 165, "NEC": 12, "PMQ": 17, "RLO": 3, "RYO": null, "SST": 22, "TDL": 366, "TTG": 27, "VLG": 11 }, "geometry": null },
{ "type": "Feature", "properties": { "Año": 2018, "Mes": "sep", "AOL": 1, "COC": 143, "GNR": 22, "JNI": 3, "LPG": 136, "NEC": null, "PMQ": 16, "RLO": 3, "RYO": null, "SST": 22, "TDL": 333, "TTG": 33, "VLG": 16 }, "geometry": null },
{ "type": "Feature", "properties": { "Año": 2018, "Mes": "oct", "AOL": null, "COC": 128, "GNR": 44, "JNI": 2, "LPG": 181, "NEC": 28, "PMQ": 26, "RLO": 3, "RYO": 4, "SST": 4, "TDL": 419, "TTG": 34, "VLG": 13 }, "geometry": null },
{ "type": "Feature", "properties": { "Año": 2018, "Mes": "nov", "AOL": null, "COC": 99, "GNR": 33, "JNI": null, "LPG": 158, "NEC": 9, "PMQ": 22, "RLO": 2, "RYO": 3, "SST": 6, "TDL": 357, "TTG": 38, "VLG": 17 }, "geometry": null },
{ "type": "Feature", "properties": { "Año": 2018, "Mes": "dic", "AOL": null, "COC": 43, "GNR": 22, "JNI": 3, "LPG": 126, "NEC": 3, "PMQ": 19, "RLO": 7, "RYO": 4, "SST": 12, "TDL": 100, "TTG": 30, "VLG": 22 }, "geometry": null },
{ "type": "Feature", "properties": { "Año": 2019, "Mes": "ene", "AOL": null, "COC": 41, "GNR": 29, "JNI": null, "LPG": 124, "NEC": 8, "PMQ": 31, "RLO": 2, "RYO": 5, "SST": 240, "TDL": 176, "TTG": 34, "VLG": 99 }, "geometry": null },
{ "type": "Feature", "properties": { "Año": 2019, "Mes": "feb", "AOL": null, "COC": 116, "GNR": 43, "JNI": 4, "LPG": 138, "NEC": 10, "PMQ": 22, "RLO": null, "RYO": 3, "SST": 162, "TDL": 264, "TTG": 27, "VLG": 71 }, "geometry": null },
{ "type": "Feature", "properties": { "Año": 2019, "Mes": "mar", "AOL": 3, "COC": 109, "GNR": 49, "JNI": null, "LPG": 137, "NEC": 5, "PMQ": 26, "RLO": 9, "RYO": 1, "SST": 12, "TDL": 234, "TTG": 17, "VLG": 37 }, "geometry": null },
{ "type": "Feature", "properties": { "Año": 2019, "Mes": "abr", "AOL": 1, "COC": 117, "GNR": 33, "JNI": 1, "LPG": 158, "NEC": null, "PMQ": 30, "RLO": 9, "RYO": null, "SST": 15, "TDL": 466, "TTG": 16, "VLG": 27 }, "geometry": null },
{ "type": "Feature", "properties": { "Año": 2019, "Mes": "may", "AOL": 1, "COC": 121, "GNR": 8, "JNI": null, "LPG": 124, "NEC": 6, "PMQ": 36, "RLO": 6, "RYO": 2, "SST": 20, "TDL": 352, "TTG": 39, "VLG": 14 }, "geometry": null },
{ "type": "Feature", "properties": { "Año": 2019, "Mes": "jun", "AOL": 4, "COC": 113, "GNR": 12, "JNI": 2, "LPG": 139, "NEC": 2, "PMQ": 34, "RLO": 7, "RYO": null, "SST": 14, "TDL": 250, "TTG": 37, "VLG": 15 }, "geometry": null },
{ "type": "Feature", "properties": { "Año": 2019, "Mes": "jul", "AOL": null, "COC": 152, "GNR": 31, "JNI": 5, "LPG": 148, "NEC": 23, "PMQ": 37, "RLO": 7, "RYO": null, "SST": 21, "TDL": 340, "TTG": 45, "VLG": 20 }, "geometry": null },
{ "type": "Feature", "properties": { "Año": 2019, "Mes": "ago", "AOL": null, "COC": 135, "GNR": 37, "JNI": null, "LPG": 170, "NEC": 14, "PMQ": 35, "RLO": 3, "RYO": null, "SST": 1, "TDL": 359, "TTG": 22, "VLG": 14 }, "geometry": null },
{ "type": "Feature", "properties": { "Año": 2019, "Mes": "sep", "AOL": 3, "COC": 223, "GNR": 29, "JNI": 3, "LPG": 181, "NEC": 6, "PMQ": 37, "RLO": 8, "RYO": 4, "SST": 4, "TDL": 277, "TTG": 39, "VLG": 8 }, "geometry": null },
{ "type": "Feature", "properties": { "Año": 2019, "Mes": "oct", "AOL": 2, "COC": 69, "GNR": 32, "JNI": 2, "LPG": 159, "NEC": 14, "PMQ": 39, "RLO": 6, "RYO": 3, "SST": 5, "TDL": 274, "TTG": 37, "VLG": 14 }, "geometry": null },
{ "type": "Feature", "properties": { "Año": 2019, "Mes": "nov", "AOL": null, "COC": 135, "GNR": 42, "JNI": 2, "LPG": 159, "NEC": 9, "PMQ": 34, "RLO": 3, "RYO": 5, "SST": 9, "TDL": 83, "TTG": 28, "VLG": 12 }, "geometry": null },
{ "type": "Feature", "properties": { "Año": 2019, "Mes": "dic", "AOL": 2, "COC": 77, "GNR": 33, "JNI": 1, "LPG": 157, "NEC": 5, "PMQ": 35, "RLO": 18, "RYO": 7, "SST": 13, "TDL": 108, "TTG": 26, "VLG": 20 }, "geometry": null },
{ "type": "Feature", "properties": { "Año": 2020, "Mes": "ene", "AOL": 1, "COC": 48, "GNR": 22, "JNI": 2, "LPG": 135, "NEC": 16, "PMQ": 33, "RLO": null, "RYO": null, "SST": 17, "TDL": 63, "TTG": 41, "VLG": 103 }, "geometry": null },
{ "type": "Feature", "properties": { "Año": 2020, "Mes": "feb", "AOL": null, "COC": 107, "GNR": 47, "JNI": null, "LPG": 139, "NEC": 14, "PMQ": 31, "RLO": 2, "RYO": 1, "SST": 24, "TDL": 177, "TTG": 38, "VLG": 42 }, "geometry": null },
{ "type": "Feature", "properties": { "Año": 2020, "Mes": "mar", "AOL": null, "COC": 54, "GNR": 18, "JNI": 1, "LPG": 74, "NEC": 11, "PMQ": 32, "RLO": 2, "RYO": null, "SST": 2, "TDL": 177, "TTG": 38, "VLG": 13 }, "geometry": null },
{ "type": "Feature", "properties": { "Año": 2020, "Mes": "abr", "AOL": null, "COC": 15, "GNR": 6, "JNI": null, "LPG": 6, "NEC": null, "PMQ": 30, "RLO": null, "RYO": null, "SST": null, "TDL": 148, "TTG": 17, "VLG": null }, "geometry": null },
{ "type": "Feature", "properties": { "Año": 2020, "Mes": "may", "AOL": null, "COC": 8, "GNR": 10, "JNI": null, "LPG": 17, "NEC": null, "PMQ": 10, "RLO": null, "RYO": null, "SST": null, "TDL": 244, "TTG": 17, "VLG": 2 }, "geometry": null },
{ "type": "Feature", "properties": { "Año": 2020, "Mes": "jun", "AOL": null, "COC": 18, "GNR": 12, "JNI": null, "LPG": 20, "NEC": null, "PMQ": 24, "RLO": null, "RYO": null, "SST": null, "TDL": 110, "TTG": 12, "VLG": null }, "geometry": null },
{ "type": "Feature", "properties": { "Año": 2020, "Mes": "jul", "AOL": null, "COC": 24, "GNR": 21, "JNI": null, "LPG": 19, "NEC": null, "PMQ": 32, "RLO": 3, "RYO": null, "SST": null, "TDL": 165, "TTG": 7, "VLG": 1 }, "geometry": null },
{ "type": "Feature", "properties": { "Año": 2020, "Mes": "ago", "AOL": null, "COC": 23, "GNR": 10, "JNI": null, "LPG": 28, "NEC": null, "PMQ": 30, "RLO": null, "RYO": null, "SST": null, "TDL": 267, "TTG": 17, "VLG": 1 }, "geometry": null },
{ "type": "Feature", "properties": { "Año": 2020, "Mes": "sep", "AOL": null, "COC": 56, "GNR": 13, "JNI": null, "LPG": 24, "NEC": 2, "PMQ": 44, "RLO": 2, "RYO": null, "SST": null, "TDL": 184, "TTG": 25, "VLG": null }, "geometry": null },
{ "type": "Feature", "properties": { "Año": 2020, "Mes": "oct", "AOL": null, "COC": 50, "GNR": 29, "JNI": 1, "LPG": 37, "NEC": null, "PMQ": 56, "RLO": 2, "RYO": null, "SST": null, "TDL": 244, "TTG": 17, "VLG": null }, "geometry": null },
{ "type": "Feature", "properties": { "Año": 2020, "Mes": "nov", "AOL": 3, "COC": 69, "GNR": 23, "JNI": 3, "LPG": 121, "NEC": null, "PMQ": 36, "RLO": null, "RYO": null, "SST": 11, "TDL": 271, "TTG": 15, "VLG": 25 }, "geometry": null },
{ "type": "Feature", "properties": { "Año": 2020, "Mes": "dic", "AOL": 3, "COC": 74, "GNR": 30, "JNI": 2, "LPG": 118, "NEC": 7, "PMQ": 78, "RLO": null, "RYO": 2, "SST": 11, "TDL": 271, "TTG": 30, "VLG": 38 }, "geometry": null },
{ "type": "Feature", "properties": { "Año": 2021, "Mes": "ene", "AOL": null, "COC": 55, "GNR": 28, "JNI": null, "LPG": 94, "NEC": 25, "PMQ": 148, "RLO": 13, "RYO": null, "SST": 21, "TDL": 91, "TTG": 10, "VLG": 39 }, "geometry": null },
{ "type": "Feature", "properties": { "Año": 2021, "Mes": "feb", "AOL": 4, "COC": 52, "GNR": 25, "JNI": 1, "LPG": 109, "NEC": 20, "PMQ": 110, "RLO": 10, "RYO": 3, "SST": 23, "TDL": 14, "TTG": 19, "VLG": 30 }, "geometry": null },
{ "type": "Feature", "properties": { "Año": 2021, "Mes": "mar", "AOL": 1, "COC": 85, "GNR": 22, "JNI": 1, "LPG": 106, "NEC": 4, "PMQ": 106, "RLO": 16, "RYO": 2, "SST": 14, "TDL": 10, "TTG": 15, "VLG": 25 }, "geometry": null },
{ "type": "Feature", "properties": { "Año": 2021, "Mes": "abr", "AOL": 2, "COC": 113, "GNR": 30, "JNI": 3, "LPG": 96, "NEC": 4, "PMQ": 106, "RLO": 15, "RYO": null, "SST": 7, "TDL": 1, "TTG": 16, "VLG": 1 }, "geometry": null },
{ "type": "Feature", "properties": { "Año": 2021, "Mes": "may", "AOL": null, "COC": 94, "GNR": 28, "JNI": null, "LPG": 92, "NEC": 8, "PMQ": 66, "RLO": 4, "RYO": null, "SST": 5, "TDL": 4, "TTG": 24, "VLG": 1 }, "geometry": null },
{ "type": "Feature", "properties": { "Año": 2021, "Mes": "jun", "AOL": null, "COC": 86, "GNR": 36, "JNI": null, "LPG": 87, "NEC": 14, "PMQ": 58, "RLO": 18, "RYO": 2, "SST": 4, "TDL": 13, "TTG": 19, "VLG": 5 }, "geometry": null },
{ "type": "Feature", "properties": { "Año": 2021, "Mes": "jul", "AOL": null, "COC": 142, "GNR": 41, "JNI": 1, "LPG": 135, "NEC": 6, "PMQ": 74, "RLO": 17, "RYO": 1, "SST": 3, "TDL": 2, "TTG": 40, "VLG": 14 }, "geometry": null },
{ "type": "Feature", "properties": { "Año": 2021, "Mes": "ago", "AOL": 2, "COC": 149, "GNR": 36, "JNI": 3, "LPG": 153, "NEC": 12, "PMQ": 40, "RLO": 15, "RYO": null, "SST": 2, "TDL": 2, "TTG": 42, "VLG": 2 }, "geometry": null },
{ "type": "Feature", "properties": { "Año": 2021, "Mes": "sep", "AOL": null, "COC": 88, "GNR": 46, "JNI": null, "LPG": 91, "NEC": null, "PMQ": 38, "RLO": 17, "RYO": 1, "SST": 6, "TDL": 1, "TTG": 40, "VLG": 3 }, "geometry": null },
{ "type": "Feature", "properties": { "Año": 2021, "Mes": "oct", "AOL": 2, "COC": 133, "GNR": 57, "JNI": 2, "LPG": 138, "NEC": 1, "PMQ": 36, "RLO": 42, "RYO": null, "SST": 4, "TDL": 2, "TTG": 44, "VLG": 17 }, "geometry": null },
{ "type": "Feature", "properties": { "Año": 2021, "Mes": "nov", "AOL": 3, "COC": 109, "GNR": 30, "JNI": 2, "LPG": 111, "NEC": 3, "PMQ": 68, "RLO": 21, "RYO": 3, "SST": null, "TDL": 27, "TTG": 31, "VLG": 5 }, "geometry": null },
{ "type": "Feature", "properties": { "Año": 2021, "Mes": "dic", "AOL": null, "COC": 112, "GNR": 45, "JNI": 1, "LPG": 137, "NEC": 3, "PMQ": 32, "RLO": 29, "RYO": null, "SST": 18, "TDL": 4, "TTG": 32, "VLG": null }, "geometry": null },
{ "type": "Feature", "properties": { "Año": 2022, "Mes": "ene", "AOL": null, "COC": 30, "GNR": 32, "JNI": null, "LPG": 91, "NEC": 1, "PMQ": 30, "RLO": 18, "RYO": 1, "SST": 21, "TDL": null, "TTG": 39, "VLG": 30 }, "geometry": null },
{ "type": "Feature", "properties": { "Año": 2022, "Mes": "feb", "AOL": null, "COC": 124, "GNR": 38, "JNI": null, "LPG": 83, "NEC": null, "PMQ": 36, "RLO": 27, "RYO": null, "SST": 16, "TDL": null, "TTG": 32, "VLG": 31 }, "geometry": null },
{ "type": "Feature", "properties": { "Año": 2022, "Mes": "mar", "AOL": null, "COC": 87, "GNR": 22, "JNI": 1, "LPG": 115, "NEC": 3, "PMQ": 15, "RLO": 30, "RYO": 4, "SST": 10, "TDL": 3, "TTG": 38, "VLG": 13 }, "geometry": null },
{ "type": "Feature", "properties": { "Año": 2022, "Mes": "abr", "AOL": 1, "COC": 114, "GNR": 21, "JNI": null, "LPG": 116, "NEC": null, "PMQ": 22, "RLO": 37, "RYO": 5, "SST": 14, "TDL": 102, "TTG": 44, "VLG": 26 }, "geometry": null },
{ "type": "Feature", "properties": { "Año": 2022, "Mes": "may", "AOL": null, "COC": 118, "GNR": 21, "JNI": null, "LPG": 148, "NEC": null, "PMQ": 16, "RLO": 30, "RYO": null, "SST": 29, "TDL": 302, "TTG": 70, "VLG": 5 }, "geometry": null },
{ "type": "Feature", "properties": { "Año": 2022, "Mes": "jun", "AOL": 2, "COC": 106, "GNR": 37, "JNI": 1, "LPG": 119, "NEC": null, "PMQ": 13, "RLO": 35, "RYO": 1, "SST": 8, "TDL": 333, "TTG": 54, "VLG": 15 }, "geometry": null },
{ "type": "Feature", "properties": { "Año": 2022, "Mes": "jul", "AOL": null, "COC": 53, "GNR": 16, "JNI": 3, "LPG": 116, "NEC": null, "PMQ": 3, "RLO": 31, "RYO": 2, "SST": 8, "TDL": 210, "TTG": 22, "VLG": 11 }, "geometry": null },
{ "type": "Feature", "properties": { "Año": 2022, "Mes": "ago", "AOL": 3, "COC": 108, "GNR": 26, "JNI": 1, "LPG": 172, "NEC": 3, "PMQ": 13, "RLO": 21, "RYO": null, "SST": 12, "TDL": 140, "TTG": 44, "VLG": 13 }, "geometry": null },
{ "type": "Feature", "properties": { "Año": 2022, "Mes": "sep", "AOL": null, "COC": 90, "GNR": 29, "JNI": null, "LPG": 150, "NEC": 2, "PMQ": 6, "RLO": 26, "RYO": 1, "SST": 8, "TDL": 102, "TTG": 29, "VLG": 14 }, "geometry": null },
{ "type": "Feature", "properties": { "Año": 2022, "Mes": "oct", "AOL": null, "COC": 122, "GNR": 29, "JNI": 2, "LPG": 99, "NEC": 1, "PMQ": 9, "RLO": 25, "RYO": 3, "SST": 6, "TDL": 116, "TTG": 49, "VLG": 12 }, "geometry": null },
{ "type": "Feature", "properties": { "Año": 2022, "Mes": "nov", "AOL": 1, "COC": 69, "GNR": 43, "JNI": 1, "LPG": 72, "NEC": 7, "PMQ": 16, "RLO": 21, "RYO": 1, "SST": 2, "TDL": 207, "TTG": 49, "VLG": 17 }, "geometry": null },
{ "type": "Feature", "properties": { "Año": 2022, "Mes": "dic", "AOL": null, "COC": 1, "GNR": 45, "JNI": null, "LPG": 86, "NEC": 11, "PMQ": 8, "RLO": 35, "RYO": 2, "SST": 2, "TDL": 135, "TTG": 45, "VLG": 38 }, "geometry": null },
{ "type": "Feature", "properties": { "Año": 2023, "Mes": "ene", "AOL": null, "COC": 2, "GNR": 8, "JNI": null, "LPG": 92, "NEC": 14, "PMQ": 14, "RLO": 26, "RYO": null, "SST": 11, "TDL": 67, "TTG": 29, "VLG": 123 }, "geometry": null },
{ "type": "Feature", "properties": { "Año": 2023, "Mes": "feb", "AOL": null, "COC": 4, "GNR": null, "JNI": null, "LPG": 134, "NEC": 14, "PMQ": 8, "RLO": 35, "RYO": 2, "SST": 18, "TDL": 56, "TTG": 34, "VLG": 77 }, "geometry": null },
{ "type": "Feature", "properties": { "Año": 2023, "Mes": "mar", "AOL": null, "COC": null, "GNR": null, "JNI": null, "LPG": 151, "NEC": 8, "PMQ": 8, "RLO": 34, "RYO": 2, "SST": 26, "TDL": 156, "TTG": 43, "VLG": 37 }, "geometry": null },
{ "type": "Feature", "properties": { "Año": 2023, "Mes": "abr", "AOL": 1, "COC": 2, "GNR": null, "JNI": null, "LPG": 137, "NEC": 3, "PMQ": 11, "RLO": 30, "RYO": 5, "SST": 7, "TDL": 132, "TTG": 29, "VLG": 33 }, "geometry": null },
{ "type": "Feature", "properties": { "Año": 2023, "Mes": "may", "AOL": null, "COC": null, "GNR": null, "JNI": 4, "LPG": 116, "NEC": 6, "PMQ": 18, "RLO": 39, "RYO": 5, "SST": 1, "TDL": 222, "TTG": 35, "VLG": 21 }, "geometry": null },
{ "type": "Feature", "properties": { "Año": 2023, "Mes": "jun", "AOL": 1, "COC": null, "GNR": 7, "JNI": 3, "LPG": 121, "NEC": 18, "PMQ": 21, "RLO": 36, "RYO": 2, "SST": 4, "TDL": 288, "TTG": 24, "VLG": 27 }, "geometry": null },
{ "type": "Feature", "properties": { "Año": 2023, "Mes": "jul", "AOL": null, "COC": null, "GNR": 16, "JNI": null, "LPG": 70, "NEC": 19, "PMQ": 10, "RLO": 25, "RYO": null, "SST": 6, "TDL": 239, "TTG": 23, "VLG": 16 }, "geometry": null },
{ "type": "Feature", "properties": { "Año": 2023, "Mes": "ago", "AOL": 1, "COC": 1, "GNR": 27, "JNI": 1, "LPG": 110, "NEC": 15, "PMQ": 12, "RLO": 41, "RYO": 3, "SST": 9, "TDL": 135, "TTG": 34, "VLG": 17 }, "geometry": null },
{ "type": "Feature", "properties": { "Año": 2023, "Mes": "sep", "AOL": null, "COC": null, "GNR": 22, "JNI": null, "LPG": 71, "NEC": 7, "PMQ": 17, "RLO": 30, "RYO": null, "SST": 5, "TDL": 162, "TTG": 21, "VLG": 4 }, "geometry": null },
{ "type": "Feature", "properties": { "Año": 2023, "Mes": "oct", "AOL": null, "COC": 2, "GNR": 25, "JNI": 1, "LPG": 73, "NEC": 11, "PMQ": 19, "RLO": 38, "RYO": 1, "SST": 4, "TDL": 216, "TTG": 18, "VLG": 19 }, "geometry": null },
{ "type": "Feature", "properties": { "Año": 2023, "Mes": "nov", "AOL": null, "COC": null, "GNR": 29, "JNI": null, "LPG": 52, "NEC": 7, "PMQ": 18, "RLO": 25, "RYO": null, "SST": 6, "TDL": 150, "TTG": 28, "VLG": 23 }, "geometry": null },
{ "type": "Feature", "properties": { "Año": 2023, "Mes": "dic", "AOL": 1, "COC": null, "GNR": 37, "JNI": 5, "LPG": 89, "NEC": 10, "PMQ": 16, "RLO": 21, "RYO": 4, "SST": 9, "TDL": 176, "TTG": 17, "VLG": 44 }, "geometry": null },
{ "type": "Feature", "properties": { "Año": 2024, "Mes": "ene", "AOL": null, "COC": null, "GNR": 9, "JNI": 1, "LPG": 103, "NEC": 20, "PMQ": 23, "RLO": 20, "RYO": 2, "SST": 50, "TDL": 120, "TTG": 18, "VLG": 130 }, "geometry": null },
{ "type": "Feature", "properties": { "Año": 2024, "Mes": "feb", "AOL": null, "COC": null, "GNR": 23, "JNI": 2, "LPG": 84, "NEC": 7, "PMQ": 30, "RLO": 30, "RYO": 4, "SST": 44, "TDL": 189, "TTG": 34, "VLG": 32 }, "geometry": null },
{ "type": "Feature", "properties": { "Año": 2024, "Mes": "mar", "AOL": null, "COC": 1, "GNR": 29, "JNI": 5, "LPG": 166, "NEC": 9, "PMQ": 29, "RLO": 25, "RYO": 1, "SST": 16, "TDL": 141, "TTG": 18, "VLG": 24 }, "geometry": null },
{ "type": "Feature", "properties": { "Año": 2024, "Mes": "abr", "AOL": null, "COC": null, "GNR": 22, "JNI": 30, "LPG": 101, "NEC": 11, "PMQ": 30, "RLO": 35, "RYO": 1, "SST": 8, "TDL": 119, "TTG": 29, "VLG": 28 }, "geometry": null },
{ "type": "Feature", "properties": { "Año": 2024, "Mes": "may", "AOL": null, "COC": null, "GNR": 8, "JNI": 20, "LPG": 137, "NEC": 5, "PMQ": 15, "RLO": 33, "RYO": null, "SST": 24, "TDL": 133, "TTG": 29, "VLG": 17 }, "geometry": null },
{ "type": "Feature", "properties": { "Año": 2024, "Mes": "jun", "AOL": null, "COC": 2, "GNR": 10, "JNI": 18, "LPG": 108, "NEC": 7, "PMQ": 21, "RLO": 43, "RYO": 1, "SST": 6, "TDL": 90, "TTG": 41, "VLG": 28 }, "geometry": null },
{ "type": "Feature", "properties": { "Año": 2024, "Mes": "jul", "AOL": null, "COC": 2, "GNR": 7, "JNI": 14, "LPG": 133, "NEC": 4, "PMQ": 55, "RLO": 29, "RYO": 9, "SST": 8, "TDL": 176, "TTG": 24, "VLG": 21 }, "geometry": null },
{ "type": "Feature", "properties": { "Año": 2024, "Mes": "ago", "AOL": null, "COC": null, "GNR": 20, "JNI": 21, "LPG": 99, "NEC": 3, "PMQ": 50, "RLO": 44, "RYO": 4, "SST": 7, "TDL": 94, "TTG": 36, "VLG": 12 }, "geometry": null },
{ "type": "Feature", "properties": { "Año": 2024, "Mes": "sep", "AOL": null, "COC": null, "GNR": 17, "JNI": 21, "LPG": 124, "NEC": 8, "PMQ": 48, "RLO": 39, "RYO": 1, "SST": 21, "TDL": 167, "TTG": 21, "VLG": 26 }, "geometry": null },
{ "type": "Feature", "properties": { "Año": 2024, "Mes": "oct", "AOL": null, "COC": null, "GNR": 26, "JNI": 21, "LPG": 110, "NEC": 3, "PMQ": 52, "RLO": 28, "RYO": 4, "SST": 1, "TDL": 244, "TTG": 22, "VLG": 27 }, "geometry": null },
{ "type": "Feature", "properties": { "Año": 2024, "Mes": "nov", "AOL": 2, "COC": 1, "GNR": 36, "JNI": 23, "LPG": 111, "NEC": 2, "PMQ": 48, "RLO": 25, "RYO": 3, "SST": 9, "TDL": 150, "TTG": 21, "VLG": 27 }, "geometry": null },
{ "type": "Feature", "properties": { "Año": 2024, "Mes": "dic", "AOL": null, "COC": 1, "GNR": 2, "JNI": 9, "LPG": 114, "NEC": 10, "PMQ": 41, "RLO": 28, "RYO": 3, "SST": 18, "TDL": 85, "TTG": 19, "VLG": 36 }, "geometry": null },
{ "type": "Feature", "properties": { "Año": 2025, "Mes": "ene", "AOL": null, "COC": null, "GNR": 2, "JNI": 10, "LPG": 129, "NEC": 11, "PMQ": 36, "RLO": 26, "RYO": null, "SST": 14, "TDL": 59, "TTG": 15, "VLG": 68 }, "geometry": null },
{ "type": "Feature", "properties": { "Año": 2025, "Mes": "feb", "AOL": 1, "COC": null, "GNR": 20, "JNI": null, "LPG": 93, "NEC": 5, "PMQ": 48, "RLO": 30, "RYO": 2, "SST": 2, "TDL": 65, "TTG": 18, "VLG": 28 }, "geometry": null },
{ "type": "Feature", "properties": { "Año": 2025, "Mes": "mar", "AOL": 1, "COC": null, "GNR": 31, "JNI": 17, "LPG": 151, "NEC": 7, "PMQ": 53, "RLO": 30, "RYO": 2, "SST": 3, "TDL": 46, "TTG": 13, "VLG": 7 }, "geometry": null },
{ "type": "Feature", "properties": { "Año": 2025, "Mes": "abr", "AOL": null, "COC": null, "GNR": 24, "JNI": 26, "LPG": 151, "NEC": 8, "PMQ": 48, "RLO": 32, "RYO": 5, "SST": 2, "TDL": 58, "TTG": 27, "VLG": 1 }, "geometry": null },
{ "type": "Feature", "properties": { "Año": 2025, "Mes": "may", "AOL": 1, "COC": null, "GNR": 22, "JNI": 33, "LPG": 125, "NEC": 4, "PMQ": 43, "RLO": 105, "RYO": 2, "SST": 9, "TDL": 29, "TTG": 16, "VLG": null }, "geometry": null },
{ "type": "Feature", "properties": { "Año": 2025, "Mes": "jun", "AOL": null, "COC": null, "GNR": 22, "JNI": 21, "LPG": 157, "NEC": 2, "PMQ": 46, "RLO": 119, "RYO": 1, "SST": 6, "TDL": 46, "TTG": 26, "VLG": null }, "geometry": null },
{ "type": "Feature", "properties": { "Año": 2025, "Mes": "jul", "AOL": null, "COC": null, "GNR": 15, "JNI": 22, "LPG": 109, "NEC": 6, "PMQ": 47, "RLO": 110, "RYO": 4, "SST": 6, "TDL": 21, "TTG": 27, "VLG": null }, "geometry": null },
{ "type": "Feature", "properties": { "Año": 2025, "Mes": "ago", "AOL": 1, "COC": null, "GNR": 21, "JNI": 26, "LPG": 117, "NEC": 7, "PMQ": 48, "RLO": 104, "RYO": 4, "SST": 2, "TDL": 32, "TTG": 27, "VLG": 2 }, "geometry": null },
{ "type": "Feature", "properties": { "Año": 2025, "Mes": "sep", "AOL": null, "COC": 34, "GNR": 23, "JNI": 24, "LPG": 129, "NEC": 4, "PMQ": 83, "RLO": 113, "RYO": 3, "SST": 10, "TDL": 24, "TTG": 31, "VLG": 9 }, "geometry": null },
{ "type": "Feature", "properties": { "Año": 2025, "Mes": "oct", "AOL": null, "COC": 40, "GNR": 22, "JNI": 22, "LPG": 177, "NEC": 4, "PMQ": 77, "RLO": 142, "RYO": 3, "SST": 4, "TDL": 16, "TTG": 36, "VLG": 27 }, "geometry": null },
{ "type": "Feature", "properties": { "Año": 2025, "Mes": "nov", "AOL": 1, "COC": 21, "GNR": 44, "JNI": 9, "LPG": 122, "NEC": 5, "PMQ": 72, "RLO": 83, "RYO": 4, "SST": 11, "TDL": 27, "TTG": 33, "VLG": 25 }, "geometry": null },
{ "type": "Feature", "properties": { "Año": 2025, "Mes": "dic", "AOL": null, "COC": 74, "GNR": 24, "JNI": 17, "LPG": 119, "NEC": 13, "PMQ": 58, "RLO": 104, "RYO": 5, "SST": 13, "TDL": 27, "TTG": 30, "VLG": 74 }, "geometry": null }
]
}
