{
"type": "FeatureCollection",
"name": "4paxxaeropuerto2021a2025SinSIIAC",
"features": [
{ "type": "Feature", "properties": { "Año": "2015", "Mes": "ene", "RLO": "171", "AOL": "", "COC": "147", "GNR": "15", "JNI": "0", "LPG": "224", "NEC": "91", "PMQ": "9", "RYO": "121", "SST": "47", "TDL": "63", "TTG": "77", "VLG": "2341" }, "geometry": null },
{ "type": "Feature", "properties": { "Año": "2015", "Mes": "feb", "RLO": "155", "AOL": "", "COC": "180", "GNR": "71", "JNI": "9", "LPG": "252", "NEC": "65", "PMQ": "8", "RYO": "93", "SST": "30", "TDL": "55", "TTG": "90", "VLG": "1014" }, "geometry": null },
{ "type": "Feature", "properties": { "Año": "2015", "Mes": "mar", "RLO": "187", "AOL": "0", "COC": "178", "GNR": "113", "JNI": "1", "LPG": "184", "NEC": "55", "PMQ": "50", "RYO": "137", "SST": "27", "TDL": "83", "TTG": "133", "VLG": "108" }, "geometry": null },
{ "type": "Feature", "properties": { "Año": "2015", "Mes": "abr", "RLO": "162", "AOL": "", "COC": "131", "GNR": "9", "JNI": "6", "LPG": "278", "NEC": "17", "PMQ": "67", "RYO": "6", "SST": "26", "TDL": "87", "TTG": "140", "VLG": "4" }, "geometry": null },
{ "type": "Feature", "properties": { "Año": "2015", "Mes": "may", "RLO": "239", "AOL": "2", "COC": "207", "GNR": "115", "JNI": "3", "LPG": "224", "NEC": "73", "PMQ": "99", "RYO": "2", "SST": "4", "TDL": "196", "TTG": "107", "VLG": "18" }, "geometry": null },
{ "type": "Feature", "properties": { "Año": "2015", "Mes": "jun", "RLO": "83", "AOL": "", "COC": "169", "GNR": "61", "JNI": "0", "LPG": "263", "NEC": "47", "PMQ": "102", "RYO": "13", "SST": "0", "TDL": "118", "TTG": "132", "VLG": "11" }, "geometry": null },
{ "type": "Feature", "properties": { "Año": "2015", "Mes": "jul", "RLO": "175", "AOL": "", "COC": "183", "GNR": "33", "JNI": "4", "LPG": "240", "NEC": "148", "PMQ": "133", "RYO": "9", "SST": "10", "TDL": "144", "TTG": "300", "VLG": "12" }, "geometry": null },
{ "type": "Feature", "properties": { "Año": "2015", "Mes": "ago", "RLO": "165", "AOL": "0", "COC": "176", "GNR": "47", "JNI": "", "LPG": "81", "NEC": "68", "PMQ": "86", "RYO": "8", "SST": "10", "TDL": "52", "TTG": "102", "VLG": "14" }, "geometry": null },
{ "type": "Feature", "properties": { "Año": "2015", "Mes": "sep", "RLO": "190", "AOL": "", "COC": "155", "GNR": "159", "JNI": "4", "LPG": "98", "NEC": "73", "PMQ": "125", "RYO": "31", "SST": "41", "TDL": "382", "TTG": "71", "VLG": "0" }, "geometry": null },
{ "type": "Feature", "properties": { "Año": "2015", "Mes": "oct", "RLO": "0", "AOL": "59", "COC": "226", "GNR": "213", "JNI": "6", "LPG": "225", "NEC": "61", "PMQ": "155", "RYO": "6", "SST": "25", "TDL": "309", "TTG": "93", "VLG": "26" }, "geometry": null },
{ "type": "Feature", "properties": { "Año": "2015", "Mes": "nov", "RLO": "0", "AOL": "1", "COC": "200", "GNR": "30", "JNI": "1", "LPG": "183", "NEC": "74", "PMQ": "123", "RYO": "9", "SST": "1", "TDL": "1001", "TTG": "36", "VLG": "4" }, "geometry": null },
{ "type": "Feature", "properties": { "Año": "2015", "Mes": "dic", "RLO": "4", "AOL": "", "COC": "280", "GNR": "11", "JNI": "1", "LPG": "100", "NEC": "153", "PMQ": "132", "RYO": "7", "SST": "40", "TDL": "48", "TTG": "60", "VLG": "609" }, "geometry": null },
{ "type": "Feature", "properties": { "Año": "2016", "Mes": "ene", "RLO": "0", "AOL": "", "COC": "187", "GNR": "17", "JNI": "0", "LPG": "47", "NEC": "68", "PMQ": "68", "RYO": "0", "SST": "62", "TDL": "46", "TTG": "107", "VLG": "948" }, "geometry": null },
{ "type": "Feature", "properties": { "Año": "2016", "Mes": "feb", "RLO": "8", "AOL": "", "COC": "189", "GNR": "41", "JNI": "", "LPG": "43", "NEC": "56", "PMQ": "20", "RYO": "11", "SST": "14", "TDL": "166", "TTG": "15", "VLG": "83" }, "geometry": null },
{ "type": "Feature", "properties": { "Año": "2016", "Mes": "mar", "RLO": "11", "AOL": "", "COC": "167", "GNR": "35", "JNI": "", "LPG": "102", "NEC": "69", "PMQ": "43", "RYO": "0", "SST": "1", "TDL": "65", "TTG": "134", "VLG": "7" }, "geometry": null },
{ "type": "Feature", "properties": { "Año": "2016", "Mes": "abr", "RLO": "13", "AOL": "", "COC": "83", "GNR": "31", "JNI": "", "LPG": "71", "NEC": "72", "PMQ": "169", "RYO": "6", "SST": "4", "TDL": "72", "TTG": "135", "VLG": "6" }, "geometry": null },
{ "type": "Feature", "properties": { "Año": "2016", "Mes": "may", "RLO": "5", "AOL": "", "COC": "137", "GNR": "16", "JNI": "0", "LPG": "40", "NEC": "34", "PMQ": "102", "RYO": "4", "SST": "19", "TDL": "194", "TTG": "133", "VLG": "0" }, "geometry": null },
{ "type": "Feature", "properties": { "Año": "2016", "Mes": "jun", "RLO": "18", "AOL": "3", "COC": "127", "GNR": "22", "JNI": "4", "LPG": "16", "NEC": "28", "PMQ": "63", "RYO": "0", "SST": "23", "TDL": "69", "TTG": "107", "VLG": "0" }, "geometry": null },
{ "type": "Feature", "properties": { "Año": "2016", "Mes": "jul", "RLO": "6", "AOL": "0", "COC": "142", "GNR": "10", "JNI": "5", "LPG": "23", "NEC": "56", "PMQ": "99", "RYO": "", "SST": "8", "TDL": "75", "TTG": "86", "VLG": "8" }, "geometry": null },
{ "type": "Feature", "properties": { "Año": "2016", "Mes": "ago", "RLO": "1", "AOL": "", "COC": "109", "GNR": "36", "JNI": "5", "LPG": "47", "NEC": "60", "PMQ": "91", "RYO": "0", "SST": "4", "TDL": "175", "TTG": "42", "VLG": "33" }, "geometry": null },
{ "type": "Feature", "properties": { "Año": "2016", "Mes": "sep", "RLO": "3", "AOL": "7", "COC": "314", "GNR": "32", "JNI": "2", "LPG": "84", "NEC": "56", "PMQ": "120", "RYO": "2", "SST": "4", "TDL": "141", "TTG": "111", "VLG": "2" }, "geometry": null },
{ "type": "Feature", "properties": { "Año": "2016", "Mes": "oct", "RLO": "9", "AOL": "2", "COC": "265", "GNR": "41", "JNI": "0", "LPG": "34", "NEC": "66", "PMQ": "140", "RYO": "1", "SST": "4", "TDL": "154", "TTG": "94", "VLG": "20" }, "geometry": null },
{ "type": "Feature", "properties": { "Año": "2016", "Mes": "nov", "RLO": "16", "AOL": "", "COC": "75", "GNR": "41", "JNI": "5", "LPG": "39", "NEC": "68", "PMQ": "93", "RYO": "", "SST": "16", "TDL": "301", "TTG": "78", "VLG": "56" }, "geometry": null },
{ "type": "Feature", "properties": { "Año": "2016", "Mes": "dic", "RLO": "1", "AOL": "0", "COC": "50", "GNR": "32", "JNI": "0", "LPG": "99", "NEC": "51", "PMQ": "97", "RYO": "16", "SST": "0", "TDL": "105", "TTG": "84", "VLG": "42" }, "geometry": null },
{ "type": "Feature", "properties": { "Año": "2017", "Mes": "ene", "RLO": "5", "AOL": "", "COC": "121", "GNR": "19", "JNI": "", "LPG": "46", "NEC": "43", "PMQ": "127", "RYO": "3", "SST": "26", "TDL": "195", "TTG": "76", "VLG": "150" }, "geometry": null },
{ "type": "Feature", "properties": { "Año": "2017", "Mes": "feb", "RLO": "10", "AOL": "", "COC": "98", "GNR": "8", "JNI": "", "LPG": "77", "NEC": "78", "PMQ": "184", "RYO": "2", "SST": "8", "TDL": "60", "TTG": "42", "VLG": "48" }, "geometry": null },
{ "type": "Feature", "properties": { "Año": "2017", "Mes": "mar", "RLO": "7", "AOL": "", "COC": "143", "GNR": "32", "JNI": "0", "LPG": "61", "NEC": "230", "PMQ": "224", "RYO": "", "SST": "5", "TDL": "156", "TTG": "108", "VLG": "7" }, "geometry": null },
{ "type": "Feature", "properties": { "Año": "2017", "Mes": "abr", "RLO": "1", "AOL": "0", "COC": "138", "GNR": "46", "JNI": "20", "LPG": "54", "NEC": "56", "PMQ": "257", "RYO": "8", "SST": "17", "TDL": "250", "TTG": "112", "VLG": "53" }, "geometry": null },
{ "type": "Feature", "properties": { "Año": "2017", "Mes": "may", "RLO": "5", "AOL": "", "COC": "209", "GNR": "45", "JNI": "23", "LPG": "96", "NEC": "46", "PMQ": "83", "RYO": "8", "SST": "1", "TDL": "219", "TTG": "50", "VLG": "19" }, "geometry": null },
{ "type": "Feature", "properties": { "Año": "2017", "Mes": "jun", "RLO": "15", "AOL": "", "COC": "258", "GNR": "18", "JNI": "", "LPG": "155", "NEC": "72", "PMQ": "37", "RYO": "0", "SST": "7", "TDL": "446", "TTG": "140", "VLG": "2" }, "geometry": null },
{ "type": "Feature", "properties": { "Año": "2017", "Mes": "jul", "RLO": "12", "AOL": "2", "COC": "133", "GNR": "33", "JNI": "6", "LPG": "61", "NEC": "98", "PMQ": "63", "RYO": "0", "SST": "19", "TDL": "117", "TTG": "159", "VLG": "" }, "geometry": null },
{ "type": "Feature", "properties": { "Año": "2017", "Mes": "ago", "RLO": "106", "AOL": "", "COC": "332", "GNR": "34", "JNI": "", "LPG": "46", "NEC": "24", "PMQ": "115", "RYO": "0", "SST": "0", "TDL": "42", "TTG": "124", "VLG": "" }, "geometry": null },
{ "type": "Feature", "properties": { "Año": "2017", "Mes": "sep", "RLO": "8", "AOL": "", "COC": "135", "GNR": "69", "JNI": "10", "LPG": "40", "NEC": "33", "PMQ": "95", "RYO": "0", "SST": "23", "TDL": "136", "TTG": "89", "VLG": "24" }, "geometry": null },
{ "type": "Feature", "properties": { "Año": "2017", "Mes": "oct", "RLO": "12", "AOL": "3", "COC": "251", "GNR": "31", "JNI": "4", "LPG": "64", "NEC": "23", "PMQ": "100", "RYO": "5", "SST": "20", "TDL": "104", "TTG": "212", "VLG": "0" }, "geometry": null },
{ "type": "Feature", "properties": { "Año": "2017", "Mes": "nov", "RLO": "0", "AOL": "", "COC": "231", "GNR": "58", "JNI": "0", "LPG": "68", "NEC": "4", "PMQ": "62", "RYO": "2", "SST": "18", "TDL": "63", "TTG": "134", "VLG": "7" }, "geometry": null },
{ "type": "Feature", "properties": { "Año": "2017", "Mes": "dic", "RLO": "5", "AOL": "8", "COC": "141", "GNR": "35", "JNI": "3", "LPG": "39", "NEC": "29", "PMQ": "89", "RYO": "3", "SST": "11", "TDL": "16", "TTG": "100", "VLG": "60" }, "geometry": null },
{ "type": "Feature", "properties": { "Año": "2018", "Mes": "ene", "RLO": "0", "AOL": "3", "COC": "64", "GNR": "17", "JNI": "1", "LPG": "66", "NEC": "22", "PMQ": "109", "RYO": "14", "SST": "75", "TDL": "7", "TTG": "141", "VLG": "151" }, "geometry": null },
{ "type": "Feature", "properties": { "Año": "2018", "Mes": "feb", "RLO": "1", "AOL": "", "COC": "152", "GNR": "63", "JNI": "0", "LPG": "34", "NEC": "33", "PMQ": "79", "RYO": "6", "SST": "21", "TDL": "41", "TTG": "133", "VLG": "80" }, "geometry": null },
{ "type": "Feature", "properties": { "Año": "2018", "Mes": "mar", "RLO": "1", "AOL": "0", "COC": "79", "GNR": "21", "JNI": "0", "LPG": "53", "NEC": "3", "PMQ": "95", "RYO": "0", "SST": "27", "TDL": "118", "TTG": "147", "VLG": "30" }, "geometry": null },
{ "type": "Feature", "properties": { "Año": "2018", "Mes": "abr", "RLO": "0", "AOL": "0", "COC": "153", "GNR": "52", "JNI": "0", "LPG": "29", "NEC": "17", "PMQ": "103", "RYO": "19", "SST": "2", "TDL": "40", "TTG": "57", "VLG": "13" }, "geometry": null },
{ "type": "Feature", "properties": { "Año": "2018", "Mes": "may", "RLO": "1", "AOL": "", "COC": "100", "GNR": "48", "JNI": "11", "LPG": "24", "NEC": "25", "PMQ": "112", "RYO": "3", "SST": "14", "TDL": "80", "TTG": "141", "VLG": "8" }, "geometry": null },
{ "type": "Feature", "properties": { "Año": "2018", "Mes": "jun", "RLO": "10", "AOL": "4", "COC": "49", "GNR": "80", "JNI": "2", "LPG": "26", "NEC": "2", "PMQ": "99", "RYO": "", "SST": "12", "TDL": "181", "TTG": "131", "VLG": "1" }, "geometry": null },
{ "type": "Feature", "properties": { "Año": "2018", "Mes": "jul", "RLO": "9", "AOL": "", "COC": "59", "GNR": "43", "JNI": "0", "LPG": "11", "NEC": "8", "PMQ": "74", "RYO": "", "SST": "64", "TDL": "15", "TTG": "112", "VLG": "28" }, "geometry": null },
{ "type": "Feature", "properties": { "Año": "2018", "Mes": "ago", "RLO": "0", "AOL": "11", "COC": "99", "GNR": "40", "JNI": "0", "LPG": "10", "NEC": "34", "PMQ": "103", "RYO": "", "SST": "28", "TDL": "38", "TTG": "97", "VLG": "0" }, "geometry": null },
{ "type": "Feature", "properties": { "Año": "2018", "Mes": "sep", "RLO": "0", "AOL": "0", "COC": "367", "GNR": "15", "JNI": "0", "LPG": "15", "NEC": "", "PMQ": "105", "RYO": "", "SST": "18", "TDL": "84", "TTG": "94", "VLG": "18" }, "geometry": null },
{ "type": "Feature", "properties": { "Año": "2018", "Mes": "oct", "RLO": "12", "AOL": "", "COC": "68", "GNR": "29", "JNI": "3", "LPG": "26", "NEC": "60", "PMQ": "137", "RYO": "0", "SST": "0", "TDL": "188", "TTG": "108", "VLG": "3" }, "geometry": null },
{ "type": "Feature", "properties": { "Año": "2018", "Mes": "nov", "RLO": "2", "AOL": "", "COC": "101", "GNR": "36", "JNI": "", "LPG": "50", "NEC": "11", "PMQ": "128", "RYO": "2", "SST": "8", "TDL": "157", "TTG": "131", "VLG": "13" }, "geometry": null },
{ "type": "Feature", "properties": { "Año": "2018", "Mes": "dic", "RLO": "7", "AOL": "", "COC": "36", "GNR": "18", "JNI": "0", "LPG": "58", "NEC": "0", "PMQ": "145", "RYO": "1", "SST": "16", "TDL": "32", "TTG": "89", "VLG": "54" }, "geometry": null },
{ "type": "Feature", "properties": { "Año": "2019", "Mes": "ene", "RLO": "4", "AOL": "", "COC": "15", "GNR": "35", "JNI": "", "LPG": "42", "NEC": "4", "PMQ": "124", "RYO": "6", "SST": "15", "TDL": "107", "TTG": "130", "VLG": "238" }, "geometry": null },
{ "type": "Feature", "properties": { "Año": "2019", "Mes": "feb", "RLO": "", "AOL": "", "COC": "127", "GNR": "60", "JNI": "2", "LPG": "17", "NEC": "14", "PMQ": "239", "RYO": "1", "SST": "54", "TDL": "139", "TTG": "98", "VLG": "182" }, "geometry": null },
{ "type": "Feature", "properties": { "Año": "2019", "Mes": "mar", "RLO": "25", "AOL": "0", "COC": "76", "GNR": "60", "JNI": "", "LPG": "21", "NEC": "6", "PMQ": "374", "RYO": "4", "SST": "0", "TDL": "180", "TTG": "43", "VLG": "84" }, "geometry": null },
{ "type": "Feature", "properties": { "Año": "2019", "Mes": "abr", "RLO": "27", "AOL": "0", "COC": "82", "GNR": "124", "JNI": "0", "LPG": "14", "NEC": "", "PMQ": "586", "RYO": "", "SST": "8", "TDL": "301", "TTG": "54", "VLG": "26" }, "geometry": null },
{ "type": "Feature", "properties": { "Año": "2019", "Mes": "may", "RLO": "22", "AOL": "1", "COC": "122", "GNR": "6", "JNI": "", "LPG": "15", "NEC": "6", "PMQ": "533", "RYO": "6", "SST": "8", "TDL": "354", "TTG": "120", "VLG": "0" }, "geometry": null },
{ "type": "Feature", "properties": { "Año": "2019", "Mes": "jun", "RLO": "1", "AOL": "0", "COC": "116", "GNR": "24", "JNI": "0", "LPG": "25", "NEC": "6", "PMQ": "509", "RYO": "", "SST": "2", "TDL": "48", "TTG": "107", "VLG": "2" }, "geometry": null },
{ "type": "Feature", "properties": { "Año": "2019", "Mes": "jul", "RLO": "0", "AOL": "", "COC": "161", "GNR": "36", "JNI": "0", "LPG": "15", "NEC": "5", "PMQ": "612", "RYO": "", "SST": "0", "TDL": "36", "TTG": "124", "VLG": "18" }, "geometry": null },
{ "type": "Feature", "properties": { "Año": "2019", "Mes": "ago", "RLO": "5", "AOL": "", "COC": "65", "GNR": "66", "JNI": "", "LPG": "17", "NEC": "11", "PMQ": "619", "RYO": "", "SST": "0", "TDL": "12", "TTG": "65", "VLG": "11" }, "geometry": null },
{ "type": "Feature", "properties": { "Año": "2019", "Mes": "sep", "RLO": "18", "AOL": "14", "COC": "67", "GNR": "40", "JNI": "0", "LPG": "25", "NEC": "8", "PMQ": "661", "RYO": "12", "SST": "3", "TDL": "166", "TTG": "95", "VLG": "2" }, "geometry": null },
{ "type": "Feature", "properties": { "Año": "2019", "Mes": "oct", "RLO": "10", "AOL": "0", "COC": "146", "GNR": "55", "JNI": "2", "LPG": "16", "NEC": "39", "PMQ": "621", "RYO": "7", "SST": "0", "TDL": "62", "TTG": "86", "VLG": "4" }, "geometry": null },
{ "type": "Feature", "properties": { "Año": "2019", "Mes": "nov", "RLO": "4", "AOL": "", "COC": "100", "GNR": "60", "JNI": "9", "LPG": "17", "NEC": "5", "PMQ": "664", "RYO": "0", "SST": "2", "TDL": "19", "TTG": "90", "VLG": "5" }, "geometry": null },
{ "type": "Feature", "properties": { "Año": "2019", "Mes": "dic", "RLO": "1", "AOL": "2", "COC": "78", "GNR": "33", "JNI": "1", "LPG": "35", "NEC": "4", "PMQ": "544", "RYO": "126", "SST": "3", "TDL": "119", "TTG": "87", "VLG": "25" }, "geometry": null },
{ "type": "Feature", "properties": { "Año": "2020", "Mes": "ene", "RLO": "", "AOL": "0", "COC": "41", "GNR": "38", "JNI": "0", "LPG": "27", "NEC": "18", "PMQ": "428", "RYO": "", "SST": "1", "TDL": "6", "TTG": "126", "VLG": "142" }, "geometry": null },
{ "type": "Feature", "properties": { "Año": "2020", "Mes": "feb", "RLO": "8", "AOL": "", "COC": "27", "GNR": "80", "JNI": "", "LPG": "17", "NEC": "10", "PMQ": "415", "RYO": "0", "SST": "11", "TDL": "18", "TTG": "128", "VLG": "19" }, "geometry": null },
{ "type": "Feature", "properties": { "Año": "2020", "Mes": "mar", "RLO": "0", "AOL": "", "COC": "27", "GNR": "29", "JNI": "0", "LPG": "23", "NEC": "24", "PMQ": "382", "RYO": "", "SST": "0", "TDL": "16", "TTG": "117", "VLG": "8" }, "geometry": null },
{ "type": "Feature", "properties": { "Año": "2020", "Mes": "abr", "RLO": "", "AOL": "", "COC": "3", "GNR": "11", "JNI": "", "LPG": "0", "NEC": "", "PMQ": "117", "RYO": "", "SST": "", "TDL": "16", "TTG": "43", "VLG": "" }, "geometry": null },
{ "type": "Feature", "properties": { "Año": "2020", "Mes": "may", "RLO": "", "AOL": "", "COC": "1", "GNR": "20", "JNI": "", "LPG": "7", "NEC": "", "PMQ": "62", "RYO": "", "SST": "", "TDL": "24", "TTG": "39", "VLG": "2" }, "geometry": null },
{ "type": "Feature", "properties": { "Año": "2020", "Mes": "jun", "RLO": "", "AOL": "", "COC": "10", "GNR": "21", "JNI": "", "LPG": "6", "NEC": "", "PMQ": "259", "RYO": "", "SST": "", "TDL": "103", "TTG": "35", "VLG": "" }, "geometry": null },
{ "type": "Feature", "properties": { "Año": "2020", "Mes": "jul", "RLO": "0", "AOL": "", "COC": "15", "GNR": "21", "JNI": "", "LPG": "11", "NEC": "", "PMQ": "331", "RYO": "", "SST": "", "TDL": "15", "TTG": "12", "VLG": "0" }, "geometry": null },
{ "type": "Feature", "properties": { "Año": "2020", "Mes": "ago", "RLO": "", "AOL": "", "COC": "19", "GNR": "7", "JNI": "", "LPG": "3", "NEC": "", "PMQ": "286", "RYO": "", "SST": "", "TDL": "86", "TTG": "34", "VLG": "0" }, "geometry": null },
{ "type": "Feature", "properties": { "Año": "2020", "Mes": "sep", "RLO": "0", "AOL": "", "COC": "22", "GNR": "14", "JNI": "", "LPG": "0", "NEC": "2", "PMQ": "246", "RYO": "", "SST": "", "TDL": "150", "TTG": "79", "VLG": "" }, "geometry": null },
{ "type": "Feature", "properties": { "Año": "2020", "Mes": "oct", "RLO": "0", "AOL": "", "COC": "32", "GNR": "40", "JNI": "0", "LPG": "14", "NEC": "", "PMQ": "516", "RYO": "", "SST": "", "TDL": "7", "TTG": "33", "VLG": "" }, "geometry": null },
{ "type": "Feature", "properties": { "Año": "2020", "Mes": "nov", "RLO": "", "AOL": "9", "COC": "73", "GNR": "24", "JNI": "0", "LPG": "22", "NEC": "", "PMQ": "194", "RYO": "", "SST": "3", "TDL": "62", "TTG": "64", "VLG": "24" }, "geometry": null },
{ "type": "Feature", "properties": { "Año": "2020", "Mes": "dic", "RLO": "", "AOL": "8", "COC": "37", "GNR": "38", "JNI": "0", "LPG": "44", "NEC": "1", "PMQ": "558", "RYO": "41", "SST": "6", "TDL": "16", "TTG": "81", "VLG": "55" }, "geometry": null },
{ "type": "Feature", "properties": { "Año": "2021", "Mes": "ene", "RLO": "0", "AOL": "", "COC": "48", "GNR": "40", "JNI": "", "LPG": "34", "NEC": "27", "PMQ": "1418", "RYO": "", "SST": "17", "TDL": "23", "TTG": "36", "VLG": "40" }, "geometry": null },
{ "type": "Feature", "properties": { "Año": "2021", "Mes": "feb", "RLO": "15", "AOL": "16", "COC": "35", "GNR": "39", "JNI": "1", "LPG": "15", "NEC": "31", "PMQ": "948", "RYO": "7", "SST": "2", "TDL": "0", "TTG": "52", "VLG": "4" }, "geometry": null },
{ "type": "Feature", "properties": { "Año": "2021", "Mes": "mar", "RLO": "56", "AOL": "4", "COC": "66", "GNR": "27", "JNI": "0", "LPG": "15", "NEC": "8", "PMQ": "898", "RYO": "6", "SST": "6", "TDL": "0", "TTG": "41", "VLG": "7" }, "geometry": null },
{ "type": "Feature", "properties": { "Año": "2021", "Mes": "abr", "RLO": "37", "AOL": "3", "COC": "52", "GNR": "27", "JNI": "7", "LPG": "18", "NEC": "3", "PMQ": "678", "RYO": "", "SST": "6", "TDL": "0", "TTG": "52", "VLG": "0" }, "geometry": null },
{ "type": "Feature", "properties": { "Año": "2021", "Mes": "may", "RLO": "1", "AOL": "", "COC": "60", "GNR": "48", "JNI": "", "LPG": "21", "NEC": "10", "PMQ": "392", "RYO": "", "SST": "0", "TDL": "0", "TTG": "56", "VLG": "0" }, "geometry": null },
{ "type": "Feature", "properties": { "Año": "2021", "Mes": "jun", "RLO": "13", "AOL": "", "COC": "79", "GNR": "50", "JNI": "", "LPG": "17", "NEC": "19", "PMQ": "196", "RYO": "13", "SST": "3", "TDL": "0", "TTG": "58", "VLG": "2" }, "geometry": null },
{ "type": "Feature", "properties": { "Año": "2021", "Mes": "jul", "RLO": "30", "AOL": "", "COC": "112", "GNR": "55", "JNI": "1", "LPG": "36", "NEC": "13", "PMQ": "300", "RYO": "4", "SST": "1", "TDL": "0", "TTG": "122", "VLG": "9" }, "geometry": null },
{ "type": "Feature", "properties": { "Año": "2021", "Mes": "ago", "RLO": "45", "AOL": "0", "COC": "142", "GNR": "50", "JNI": "3", "LPG": "26", "NEC": "12", "PMQ": "210", "RYO": "", "SST": "0", "TDL": "0", "TTG": "116", "VLG": "0" }, "geometry": null },
{ "type": "Feature", "properties": { "Año": "2021", "Mes": "sep", "RLO": "48", "AOL": "", "COC": "25", "GNR": "73", "JNI": "", "LPG": "9", "NEC": "", "PMQ": "368", "RYO": "0", "SST": "0", "TDL": "0", "TTG": "135", "VLG": "0" }, "geometry": null },
{ "type": "Feature", "properties": { "Año": "2021", "Mes": "oct", "RLO": "87", "AOL": "9", "COC": "94", "GNR": "89", "JNI": "0", "LPG": "42", "NEC": "0", "PMQ": "298", "RYO": "", "SST": "0", "TDL": "0", "TTG": "138", "VLG": "11" }, "geometry": null },
{ "type": "Feature", "properties": { "Año": "2021", "Mes": "nov", "RLO": "125", "AOL": "12", "COC": "120", "GNR": "45", "JNI": "3", "LPG": "66", "NEC": "0", "PMQ": "648", "RYO": "0", "SST": "", "TDL": "0", "TTG": "97", "VLG": "10" }, "geometry": null },
{ "type": "Feature", "properties": { "Año": "2021", "Mes": "dic", "RLO": "183", "AOL": "", "COC": "71", "GNR": "70", "JNI": "3", "LPG": "26", "NEC": "3", "PMQ": "370", "RYO": "", "SST": "9", "TDL": "5", "TTG": "85", "VLG": "" }, "geometry": null },
{ "type": "Feature", "properties": { "Año": "2022", "Mes": "ene", "RLO": "175", "AOL": "", "COC": "34", "GNR": "23", "JNI": "", "LPG": "32", "NEC": "6", "PMQ": "138", "RYO": "1", "SST": "12", "TDL": "", "TTG": "108", "VLG": "26" }, "geometry": null },
{ "type": "Feature", "properties": { "Año": "2022", "Mes": "feb", "RLO": "216", "AOL": "", "COC": "35", "GNR": "42", "JNI": "", "LPG": "40", "NEC": "", "PMQ": "216", "RYO": "", "SST": "42", "TDL": "", "TTG": "91", "VLG": "31" }, "geometry": null },
{ "type": "Feature", "properties": { "Año": "2022", "Mes": "mar", "RLO": "147", "AOL": "", "COC": "58", "GNR": "31", "JNI": "0", "LPG": "59", "NEC": "0", "PMQ": "164", "RYO": "10", "SST": "0", "TDL": "0", "TTG": "118", "VLG": "9" }, "geometry": null },
{ "type": "Feature", "properties": { "Año": "2022", "Mes": "abr", "RLO": "136", "AOL": "0", "COC": "64", "GNR": "10", "JNI": "", "LPG": "51", "NEC": "", "PMQ": "174", "RYO": "5", "SST": "0", "TDL": "277", "TTG": "156", "VLG": "27" }, "geometry": null },
{ "type": "Feature", "properties": { "Año": "2022", "Mes": "may", "RLO": "92", "AOL": "", "COC": "47", "GNR": "31", "JNI": "", "LPG": "32", "NEC": "", "PMQ": "280", "RYO": "", "SST": "13", "TDL": "104", "TTG": "278", "VLG": "2" }, "geometry": null },
{ "type": "Feature", "properties": { "Año": "2022", "Mes": "jun", "RLO": "87", "AOL": "0", "COC": "45", "GNR": "40", "JNI": "0", "LPG": "71", "NEC": "", "PMQ": "106", "RYO": "0", "SST": "0", "TDL": "470", "TTG": "130", "VLG": "8" }, "geometry": null },
{ "type": "Feature", "properties": { "Año": "2022", "Mes": "jul", "RLO": "114", "AOL": "", "COC": "49", "GNR": "14", "JNI": "2", "LPG": "22", "NEC": "", "PMQ": "17", "RYO": "0", "SST": "0", "TDL": "2", "TTG": "72", "VLG": "0" }, "geometry": null },
{ "type": "Feature", "properties": { "Año": "2022", "Mes": "ago", "RLO": "231", "AOL": "4", "COC": "71", "GNR": "26", "JNI": "0", "LPG": "62", "NEC": "4", "PMQ": "204", "RYO": "", "SST": "1", "TDL": "43", "TTG": "102", "VLG": "11" }, "geometry": null },
{ "type": "Feature", "properties": { "Año": "2022", "Mes": "sep", "RLO": "8", "AOL": "", "COC": "196", "GNR": "96", "JNI": "", "LPG": "85", "NEC": "2", "PMQ": "119", "RYO": "0", "SST": "6", "TDL": "110", "TTG": "63", "VLG": "13" }, "geometry": null },
{ "type": "Feature", "properties": { "Año": "2022", "Mes": "oct", "RLO": "24", "AOL": "", "COC": "89", "GNR": "45", "JNI": "2", "LPG": "36", "NEC": "0", "PMQ": "152", "RYO": "2", "SST": "0", "TDL": "35", "TTG": "134", "VLG": "17" }, "geometry": null },
{ "type": "Feature", "properties": { "Año": "2022", "Mes": "nov", "RLO": "5", "AOL": "0", "COC": "142", "GNR": "45", "JNI": "0", "LPG": "48", "NEC": "11", "PMQ": "219", "RYO": "1", "SST": "21", "TDL": "37", "TTG": "120", "VLG": "22" }, "geometry": null },
{ "type": "Feature", "properties": { "Año": "2022", "Mes": "dic", "RLO": "1480", "AOL": "", "COC": "0", "GNR": "42", "JNI": "", "LPG": "48", "NEC": "15", "PMQ": "198", "RYO": "1", "SST": "2", "TDL": "8", "TTG": "141", "VLG": "45" }, "geometry": null },
{ "type": "Feature", "properties": { "Año": "2023", "Mes": "ene", "RLO": "1649", "AOL": "", "COC": "0", "GNR": "5", "JNI": "", "LPG": "50", "NEC": "21", "PMQ": "202", "RYO": "", "SST": "5", "TDL": "8", "TTG": "63", "VLG": "252" }, "geometry": null },
{ "type": "Feature", "properties": { "Año": "2023", "Mes": "feb", "RLO": "1489", "AOL": "", "COC": "0", "GNR": "", "JNI": "", "LPG": "59", "NEC": "13", "PMQ": "99", "RYO": "0", "SST": "2", "TDL": "96", "TTG": "93", "VLG": "188" }, "geometry": null },
{ "type": "Feature", "properties": { "Año": "2023", "Mes": "mar", "RLO": "1331", "AOL": "", "COC": "", "GNR": "", "JNI": "", "LPG": "31", "NEC": "9", "PMQ": "263", "RYO": "0", "SST": "0", "TDL": "138", "TTG": "101", "VLG": "29" }, "geometry": null },
{ "type": "Feature", "properties": { "Año": "2023", "Mes": "abr", "RLO": "1582", "AOL": "5", "COC": "2", "GNR": "", "JNI": "", "LPG": "50", "NEC": "5", "PMQ": "132", "RYO": "1", "SST": "2", "TDL": "144", "TTG": "58", "VLG": "148" }, "geometry": null },
{ "type": "Feature", "properties": { "Año": "2023", "Mes": "may", "RLO": "1212", "AOL": "", "COC": "", "GNR": "", "JNI": "0", "LPG": "67", "NEC": "2", "PMQ": "283", "RYO": "141", "SST": "0", "TDL": "62", "TTG": "87", "VLG": "37" }, "geometry": null },
{ "type": "Feature", "properties": { "Año": "2023", "Mes": "jun", "RLO": "1392", "AOL": "4", "COC": "", "GNR": "7", "JNI": "0", "LPG": "49", "NEC": "28", "PMQ": "265", "RYO": "0", "SST": "0", "TDL": "117", "TTG": "48", "VLG": "13" }, "geometry": null },
{ "type": "Feature", "properties": { "Año": "2023", "Mes": "jul", "RLO": "1599", "AOL": "", "COC": "", "GNR": "26", "JNI": "", "LPG": "24", "NEC": "23", "PMQ": "139", "RYO": "", "SST": "1", "TDL": "111", "TTG": "52", "VLG": "19" }, "geometry": null },
{ "type": "Feature", "properties": { "Año": "2023", "Mes": "ago", "RLO": "1046", "AOL": "0", "COC": "0", "GNR": "47", "JNI": "0", "LPG": "62", "NEC": "22", "PMQ": "193", "RYO": "0", "SST": "0", "TDL": "163", "TTG": "92", "VLG": "28" }, "geometry": null },
{ "type": "Feature", "properties": { "Año": "2023", "Mes": "sep", "RLO": "1237", "AOL": "", "COC": "", "GNR": "54", "JNI": "", "LPG": "29", "NEC": "17", "PMQ": "272", "RYO": "", "SST": "0", "TDL": "98", "TTG": "56", "VLG": "9" }, "geometry": null },
{ "type": "Feature", "properties": { "Año": "2023", "Mes": "oct", "RLO": "1472", "AOL": "", "COC": "0", "GNR": "23", "JNI": "2", "LPG": "9", "NEC": "17", "PMQ": "235", "RYO": "1", "SST": "0", "TDL": "361", "TTG": "27", "VLG": "12" }, "geometry": null },
{ "type": "Feature", "properties": { "Año": "2023", "Mes": "nov", "RLO": "1727", "AOL": "", "COC": "", "GNR": "31", "JNI": "", "LPG": "38", "NEC": "14", "PMQ": "149", "RYO": "", "SST": "0", "TDL": "60", "TTG": "48", "VLG": "24" }, "geometry": null },
{ "type": "Feature", "properties": { "Año": "2023", "Mes": "dic", "RLO": "1444", "AOL": "0", "COC": "", "GNR": "48", "JNI": "2", "LPG": "43", "NEC": "8", "PMQ": "215", "RYO": "6", "SST": "0", "TDL": "23", "TTG": "39", "VLG": "51" }, "geometry": null },
{ "type": "Feature", "properties": { "Año": "2024", "Mes": "ene", "RLO": "1551", "AOL": "", "COC": "", "GNR": "8", "JNI": "0", "LPG": "39", "NEC": "26", "PMQ": "308", "RYO": "0", "SST": "4", "TDL": "105", "TTG": "45", "VLG": "231" }, "geometry": null },
{ "type": "Feature", "properties": { "Año": "2024", "Mes": "feb", "RLO": "1441", "AOL": "", "COC": "", "GNR": "40", "JNI": "0", "LPG": "32", "NEC": "7", "PMQ": "245", "RYO": "9", "SST": "8", "TDL": "108", "TTG": "55", "VLG": "16" }, "geometry": null },
{ "type": "Feature", "properties": { "Año": "2024", "Mes": "mar", "RLO": "1326", "AOL": "", "COC": "171", "GNR": "27", "JNI": "108", "LPG": "50", "NEC": "3", "PMQ": "305", "RYO": "0", "SST": "9", "TDL": "49", "TTG": "67", "VLG": "31" }, "geometry": null },
{ "type": "Feature", "properties": { "Año": "2024", "Mes": "abr", "RLO": "1333", "AOL": "", "COC": "", "GNR": "21", "JNI": "8", "LPG": "27", "NEC": "1", "PMQ": "214", "RYO": "0", "SST": "4", "TDL": "98", "TTG": "110", "VLG": "26" }, "geometry": null },
{ "type": "Feature", "properties": { "Año": "2024", "Mes": "may", "RLO": "791", "AOL": "", "COC": "", "GNR": "8", "JNI": "7", "LPG": "83", "NEC": "4", "PMQ": "109", "RYO": "", "SST": "0", "TDL": "91", "TTG": "108", "VLG": "16" }, "geometry": null },
{ "type": "Feature", "properties": { "Año": "2024", "Mes": "jun", "RLO": "1203", "AOL": "", "COC": "0", "GNR": "7", "JNI": "6", "LPG": "42", "NEC": "0", "PMQ": "219", "RYO": "5", "SST": "0", "TDL": "201", "TTG": "129", "VLG": "16" }, "geometry": null },
{ "type": "Feature", "properties": { "Año": "2024", "Mes": "jul", "RLO": "1090", "AOL": "", "COC": "0", "GNR": "0", "JNI": "15", "LPG": "51", "NEC": "4", "PMQ": "567", "RYO": "1", "SST": "11", "TDL": "181", "TTG": "54", "VLG": "16" }, "geometry": null },
{ "type": "Feature", "properties": { "Año": "2024", "Mes": "ago", "RLO": "1138", "AOL": "", "COC": "", "GNR": "14", "JNI": "6", "LPG": "45", "NEC": "2", "PMQ": "484", "RYO": "13", "SST": "8", "TDL": "120", "TTG": "58", "VLG": "24" }, "geometry": null },
{ "type": "Feature", "properties": { "Año": "2024", "Mes": "sep", "RLO": "1156", "AOL": "", "COC": "", "GNR": "6", "JNI": "0", "LPG": "61", "NEC": "4", "PMQ": "499", "RYO": "1", "SST": "4", "TDL": "145", "TTG": "39", "VLG": "14" }, "geometry": null },
{ "type": "Feature", "properties": { "Año": "2024", "Mes": "oct", "RLO": "1451", "AOL": "", "COC": "", "GNR": "8", "JNI": "6", "LPG": "43", "NEC": "0", "PMQ": "689", "RYO": "6", "SST": "0", "TDL": "130", "TTG": "39", "VLG": "14" }, "geometry": null },
{ "type": "Feature", "properties": { "Año": "2024", "Mes": "nov", "RLO": "1226", "AOL": "0", "COC": "0", "GNR": "35", "JNI": "9", "LPG": "84", "NEC": "0", "PMQ": "477", "RYO": "16", "SST": "3", "TDL": "140", "TTG": "70", "VLG": "23" }, "geometry": null },
{ "type": "Feature", "properties": { "Año": "2024", "Mes": "dic", "RLO": "1348", "AOL": "", "COC": "0", "GNR": "3", "JNI": "77", "LPG": "61", "NEC": "0", "PMQ": "522", "RYO": "0", "SST": "0", "TDL": "158", "TTG": "30", "VLG": "30" }, "geometry": null },
{ "type": "Feature", "properties": { "Año": "2025", "Mes": "ene", "RLO": "1611", "AOL": "", "COC": "", "GNR": "0", "JNI": "5", "LPG": "45", "NEC": "11", "PMQ": "455", "RYO": "", "SST": "12", "TDL": "56", "TTG": "28", "VLG": "53" }, "geometry": null },
{ "type": "Feature", "properties": { "Año": "2025", "Mes": "feb", "RLO": "1455", "AOL": "4", "COC": "", "GNR": "16", "JNI": "", "LPG": "37", "NEC": "8", "PMQ": "482", "RYO": "3", "SST": "1", "TDL": "494", "TTG": "46", "VLG": "26" }, "geometry": null },
{ "type": "Feature", "properties": { "Año": "2025", "Mes": "mar", "RLO": "1489", "AOL": "0", "COC": "", "GNR": "34", "JNI": "6", "LPG": "113", "NEC": "2", "PMQ": "539", "RYO": "0", "SST": "2", "TDL": "57", "TTG": "37", "VLG": "8" }, "geometry": null },
{ "type": "Feature", "properties": { "Año": "2025", "Mes": "abr", "RLO": "1124", "AOL": "", "COC": "", "GNR": "9", "JNI": "4", "LPG": "43", "NEC": "3", "PMQ": "507", "RYO": "4", "SST": "0", "TDL": "237", "TTG": "148", "VLG": "0" }, "geometry": null },
{ "type": "Feature", "properties": { "Año": "2025", "Mes": "may", "RLO": "2630", "AOL": "0", "COC": "", "GNR": "13", "JNI": "25", "LPG": "33", "NEC": "0", "PMQ": "507", "RYO": "0", "SST": "0", "TDL": "142", "TTG": "33", "VLG": "" }, "geometry": null },
{ "type": "Feature", "properties": { "Año": "2025", "Mes": "jun", "RLO": "2779", "AOL": "", "COC": "", "GNR": "20", "JNI": "8", "LPG": "43", "NEC": "0", "PMQ": "591", "RYO": "2", "SST": "0", "TDL": "71", "TTG": "54", "VLG": "" }, "geometry": null },
{ "type": "Feature", "properties": { "Año": "2025", "Mes": "jul", "RLO": "2727", "AOL": "", "COC": "", "GNR": "9", "JNI": "2", "LPG": "13", "NEC": "2", "PMQ": "588", "RYO": "2", "SST": "0", "TDL": "217", "TTG": "49", "VLG": "" }, "geometry": null },
{ "type": "Feature", "properties": { "Año": "2025", "Mes": "ago", "RLO": "2532", "AOL": "5", "COC": "", "GNR": "30", "JNI": "11", "LPG": "32", "NEC": "3", "PMQ": "484", "RYO": "0", "SST": "0", "TDL": "106", "TTG": "66", "VLG": "0" }, "geometry": null },
{ "type": "Feature", "properties": { "Año": "2025", "Mes": "sep", "RLO": "2428", "AOL": "", "COC": "62", "GNR": "21", "JNI": "7", "LPG": "41", "NEC": "4", "PMQ": "866", "RYO": "5", "SST": "0", "TDL": "25", "TTG": "99", "VLG": "5" }, "geometry": null },
{ "type": "Feature", "properties": { "Año": "2025", "Mes": "oct", "RLO": "2990", "AOL": "", "COC": "11", "GNR": "19", "JNI": "1", "LPG": "42", "NEC": "6", "PMQ": "794", "RYO": "2", "SST": "4", "TDL": "16", "TTG": "87", "VLG": "207" }, "geometry": null },
{ "type": "Feature", "properties": { "Año": "2025", "Mes": "nov", "RLO": "3081", "AOL": "80", "COC": "19", "GNR": "35", "JNI": "0", "LPG": "193", "NEC": "1", "PMQ": "665", "RYO": "0", "SST": "0", "TDL": "170", "TTG": "41", "VLG": "6" }, "geometry": null },
{ "type": "Feature", "properties": { "Año": "2025", "Mes": "dic", "RLO": "2850", "AOL": "", "COC": "289", "GNR": "32", "JNI": "26", "LPG": "85", "NEC": "17", "PMQ": "561", "RYO": "3", "SST": "2", "TDL": "11", "TTG": "42", "VLG": "225" }, "geometry": null }
]
}
