{
  "type": "FeatureCollection",
  "name": "ingresos_no_aeronauticos_2025_sna",
  "metadata": {
    "descripcion": "Estimación 2025 de ingresos no aeronáuticos por categoría para aeropuertos del Sistema Nacional de Aeropuertos.",
    "anio": 2025,
    "moneda": "USD",
    "sistema_referencia": "WGS84 / EPSG:4326",
    "geometria": "Point; coordinates = [lon, lat]",
    "fuente_estimacion": "Estimacion_no_aeronauticos_2025.xlsx",
    "fuente_geometria": "ResumenImpacto2025 (3).geojson",
    "conteo_aeropuertos": 57,
    "metodo": "Distribución de Ingresos no aeronáuticos 2025 USD según proporciones 2022; aeropuertos sin proporción directa imputados por similitud de pasajeros totales 2025."
  },
  "bbox": [
    -72.2237137399,
    -54.8435864009,
    -54.4758314487,
    -22.6186382952
  ],
  "features": [
    {
      "type": "Feature",
      "id": "AEP",
      "geometry": {
        "type": "Point",
        "coordinates": [
          -58.4134190239,
          -34.5605855384
        ]
      },
      "properties": {
        "iata": "AEP",
        "aeropuerto": "Aeroparque",
        "lon": -58.4134190239,
        "lat": -34.5605855384,
        "pax_total_2025": 17738313,
        "pax_cabotaje_2025": 12508347,
        "pax_internacional_2025": 5229966,
        "ingresos_no_aeronauticos_2025_usd": 1244683239.12,
        "actividades_conexas_transporte_aerocomercial_2025_usd": 950757097.42,
        "actividades_secundarias_aeropuerto_2025_usd": 34353919.49,
        "explotacion_comercial_aeropuerto_2025_usd": 259572222.21,
        "control_suma_categorias_2025_usd": 1244683239.12,
        "control_diferencia_vs_total_usd": 0.0,
        "prop_conexas": 0.763854664,
        "prop_secundarias": 0.0276005319,
        "prop_explotacion_comercial": 0.2085448041,
        "metodo_proporciones": "Directo 2022",
        "iata_proporcion_usada": "AEP",
        "aeropuerto_proporcion_usada": "Aeroparque",
        "pax_proporcion_usada_2025": 17738313,
        "dif_pax_con_donante": 0,
        "observaciones": "",
        "ingresos_aeronauticos_2025_usd": 180694276.61,
        "pba_2025_usd": 1425377515.73,
        "empleo_aeroportuario_total_2025": 42624.9738,
        "beneficios_al_pax_2025_usd": 366043215.26,
        "impacto_economico_positivo_usd": 3673146181.86,
        "impacto_economico_negativo_usd": 2085328630.18,
        "saldo_impactos_totales_usd": 1587817551.68
      }
    },
    {
      "type": "Feature",
      "id": "AFA",
      "geometry": {
        "type": "Point",
        "coordinates": [
          -68.4031998682,
          -34.5883153696
        ]
      },
      "properties": {
        "iata": "AFA",
        "aeropuerto": "San Rafael",
        "lon": -68.4031998682,
        "lat": -34.5883153696,
        "pax_total_2025": 49404,
        "pax_cabotaje_2025": 49404,
        "pax_internacional_2025": 0,
        "ingresos_no_aeronauticos_2025_usd": 630203.72,
        "actividades_conexas_transporte_aerocomercial_2025_usd": 585204.37,
        "actividades_secundarias_aeropuerto_2025_usd": 17358.87,
        "explotacion_comercial_aeropuerto_2025_usd": 27640.49,
        "control_suma_categorias_2025_usd": 630203.72,
        "control_diferencia_vs_total_usd": 0.0,
        "prop_conexas": 0.9285955477,
        "prop_secundarias": 0.0275448487,
        "prop_explotacion_comercial": 0.0438596036,
        "metodo_proporciones": "Directo 2022",
        "iata_proporcion_usada": "AFA",
        "aeropuerto_proporcion_usada": "San Rafael",
        "pax_proporcion_usada_2025": 49404,
        "dif_pax_con_donante": 0,
        "observaciones": "",
        "ingresos_aeronauticos_2025_usd": 101847.72,
        "pba_2025_usd": 732051.44,
        "empleo_aeroportuario_total_2025": 794.7738,
        "beneficios_al_pax_2025_usd": 445993.93,
        "impacto_economico_positivo_usd": 12744807.58,
        "impacto_economico_negativo_usd": 4116958.31,
        "saldo_impactos_totales_usd": 8627849.27
      }
    },
    {
      "type": "Feature",
      "id": "AOL",
      "geometry": {
        "type": "Point",
        "coordinates": [
          -57.1520674194,
          -29.6892685077
        ]
      },
      "properties": {
        "iata": "AOL",
        "aeropuerto": "Paso de los Libres",
        "lon": -57.1520674194,
        "lat": -29.6892685077,
        "pax_total_2025": 45,
        "pax_cabotaje_2025": 45,
        "pax_internacional_2025": 0,
        "ingresos_no_aeronauticos_2025_usd": 8757.6,
        "actividades_conexas_transporte_aerocomercial_2025_usd": 8704.77,
        "actividades_secundarias_aeropuerto_2025_usd": 0.0,
        "explotacion_comercial_aeropuerto_2025_usd": 52.84,
        "control_suma_categorias_2025_usd": 8757.6,
        "control_diferencia_vs_total_usd": 0.0,
        "prop_conexas": 0.9939667876,
        "prop_secundarias": 0.0,
        "prop_explotacion_comercial": 0.0060332124,
        "metodo_proporciones": "Imputado por similitud pax 2025",
        "iata_proporcion_usada": "LGS",
        "aeropuerto_proporcion_usada": "Malargüe",
        "pax_proporcion_usada_2025": 199,
        "dif_pax_con_donante": 154,
        "observaciones": "Proporciones tomadas de LGS por cercanía en pax totales 2025",
        "ingresos_aeronauticos_2025_usd": 122.79,
        "pba_2025_usd": 8880.4,
        "empleo_aeroportuario_total_2025": 92.956,
        "beneficios_al_pax_2025_usd": 1635.86,
        "impacto_economico_positivo_usd": 10516.26,
        "impacto_economico_negativo_usd": 0.0,
        "saldo_impactos_totales_usd": 10516.26
      }
    },
    {
      "type": "Feature",
      "id": "BHI",
      "geometry": {
        "type": "Point",
        "coordinates": [
          -62.1537984793,
          -38.7236753422
        ]
      },
      "properties": {
        "iata": "BHI",
        "aeropuerto": "Bahía Blanca",
        "lon": -62.1537984793,
        "lat": -38.7236753422,
        "pax_total_2025": 235599,
        "pax_cabotaje_2025": 235580,
        "pax_internacional_2025": 19,
        "ingresos_no_aeronauticos_2025_usd": 3063639.47,
        "actividades_conexas_transporte_aerocomercial_2025_usd": 2667113.43,
        "actividades_secundarias_aeropuerto_2025_usd": 76011.06,
        "explotacion_comercial_aeropuerto_2025_usd": 320514.98,
        "control_suma_categorias_2025_usd": 3063639.47,
        "control_diferencia_vs_total_usd": 0.0,
        "prop_conexas": 0.8705702651,
        "prop_secundarias": 0.0248107072,
        "prop_explotacion_comercial": 0.1046190277,
        "metodo_proporciones": "Directo 2022",
        "iata_proporcion_usada": "BHI",
        "aeropuerto_proporcion_usada": "Bahía Blanca",
        "pax_proporcion_usada_2025": 235599,
        "dif_pax_con_donante": 0,
        "observaciones": "",
        "ingresos_aeronauticos_2025_usd": 1263062.61,
        "pba_2025_usd": 4326702.08,
        "empleo_aeroportuario_total_2025": 1422.2268,
        "beneficios_al_pax_2025_usd": 4288019.84,
        "impacto_economico_positivo_usd": 25018285.71,
        "impacto_economico_negativo_usd": 20202387.45,
        "saldo_impactos_totales_usd": 4815898.27
      }
    },
    {
      "type": "Feature",
      "id": "BRC",
      "geometry": {
        "type": "Point",
        "coordinates": [
          -71.159307879,
          -41.1503194338
        ]
      },
      "properties": {
        "iata": "BRC",
        "aeropuerto": "Bariloche",
        "lon": -71.159307879,
        "lat": -41.1503194338,
        "pax_total_2025": 2571758,
        "pax_cabotaje_2025": 2431425,
        "pax_internacional_2025": 140333,
        "ingresos_no_aeronauticos_2025_usd": 65902602.59,
        "actividades_conexas_transporte_aerocomercial_2025_usd": 40693010.06,
        "actividades_secundarias_aeropuerto_2025_usd": 591720.54,
        "explotacion_comercial_aeropuerto_2025_usd": 24617871.99,
        "control_suma_categorias_2025_usd": 65902602.59,
        "control_diferencia_vs_total_usd": 0.0,
        "prop_conexas": 0.6174719732,
        "prop_secundarias": 0.0089787127,
        "prop_explotacion_comercial": 0.3735493141,
        "metodo_proporciones": "Directo 2022",
        "iata_proporcion_usada": "BRC",
        "aeropuerto_proporcion_usada": "Bariloche",
        "pax_proporcion_usada_2025": 2571758,
        "dif_pax_con_donante": 0,
        "observaciones": "",
        "ingresos_aeronauticos_2025_usd": 11793809.4,
        "pba_2025_usd": 77696411.99,
        "empleo_aeroportuario_total_2025": 4926.668,
        "beneficios_al_pax_2025_usd": 23172117.13,
        "impacto_economico_positivo_usd": 513306629.97,
        "impacto_economico_negativo_usd": 172964975.6,
        "saldo_impactos_totales_usd": 340341654.38
      }
    },
    {
      "type": "Feature",
      "id": "CNQ",
      "geometry": {
        "type": "Point",
        "coordinates": [
          -58.7620132521,
          -27.4481637376
        ]
      },
      "properties": {
        "iata": "CNQ",
        "aeropuerto": "Corrientes",
        "lon": -58.7620132521,
        "lat": -27.4481637376,
        "pax_total_2025": 218492,
        "pax_cabotaje_2025": 218461,
        "pax_internacional_2025": 31,
        "ingresos_no_aeronauticos_2025_usd": 2768321.76,
        "actividades_conexas_transporte_aerocomercial_2025_usd": 2279023.29,
        "actividades_secundarias_aeropuerto_2025_usd": 120359.28,
        "explotacion_comercial_aeropuerto_2025_usd": 368939.19,
        "control_suma_categorias_2025_usd": 2768321.76,
        "control_diferencia_vs_total_usd": 0.0,
        "prop_conexas": 0.8232508676,
        "prop_secundarias": 0.0434773458,
        "prop_explotacion_comercial": 0.1332717867,
        "metodo_proporciones": "Directo 2022",
        "iata_proporcion_usada": "CNQ",
        "aeropuerto_proporcion_usada": "Corrientes",
        "pax_proporcion_usada_2025": 218492,
        "dif_pax_con_donante": 0,
        "observaciones": "",
        "ingresos_aeronauticos_2025_usd": 362309.89,
        "pba_2025_usd": 3130631.65,
        "empleo_aeroportuario_total_2025": 2193.7616,
        "beneficios_al_pax_2025_usd": 3266224.15,
        "impacto_economico_positivo_usd": 25079546.89,
        "impacto_economico_negativo_usd": 13868831.63,
        "saldo_impactos_totales_usd": 11210715.26
      }
    },
    {
      "type": "Feature",
      "id": "COC",
      "geometry": {
        "type": "Point",
        "coordinates": [
          -57.997305,
          -31.2970201284
        ]
      },
      "properties": {
        "iata": "COC",
        "aeropuerto": "Concordia",
        "lon": -57.997305,
        "lat": -31.2970201284,
        "pax_total_2025": 185,
        "pax_cabotaje_2025": 185,
        "pax_internacional_2025": 0,
        "ingresos_no_aeronauticos_2025_usd": 27.13,
        "actividades_conexas_transporte_aerocomercial_2025_usd": 26.96,
        "actividades_secundarias_aeropuerto_2025_usd": 0.0,
        "explotacion_comercial_aeropuerto_2025_usd": 0.16,
        "control_suma_categorias_2025_usd": 27.13,
        "control_diferencia_vs_total_usd": 0.0,
        "prop_conexas": 0.9939667876,
        "prop_secundarias": 0.0,
        "prop_explotacion_comercial": 0.0060332124,
        "metodo_proporciones": "Imputado por similitud pax 2025",
        "iata_proporcion_usada": "LGS",
        "aeropuerto_proporcion_usada": "Malargüe",
        "pax_proporcion_usada_2025": 199,
        "dif_pax_con_donante": 14,
        "observaciones": "Proporciones tomadas de LGS por cercanía en pax totales 2025",
        "ingresos_aeronauticos_2025_usd": 19.96,
        "pba_2025_usd": 47.09,
        "empleo_aeroportuario_total_2025": 32.5346,
        "beneficios_al_pax_2025_usd": 1806.96,
        "impacto_economico_positivo_usd": 1854.05,
        "impacto_economico_negativo_usd": 0.0,
        "saldo_impactos_totales_usd": 1854.05
      }
    },
    {
      "type": "Feature",
      "id": "COR",
      "geometry": {
        "type": "Point",
        "coordinates": [
          -64.2082032342,
          -31.3155808776
        ]
      },
      "properties": {
        "iata": "COR",
        "aeropuerto": "Córdoba",
        "lon": -64.2082032342,
        "lat": -31.3155808776,
        "pax_total_2025": 3264749,
        "pax_cabotaje_2025": 2322383,
        "pax_internacional_2025": 942366,
        "ingresos_no_aeronauticos_2025_usd": 154946962.51,
        "actividades_conexas_transporte_aerocomercial_2025_usd": 113083322.3,
        "actividades_secundarias_aeropuerto_2025_usd": 1377414.2,
        "explotacion_comercial_aeropuerto_2025_usd": 40486226.02,
        "control_suma_categorias_2025_usd": 154946962.51,
        "control_diferencia_vs_total_usd": 0.0,
        "prop_conexas": 0.729819549,
        "prop_secundarias": 0.008889585,
        "prop_explotacion_comercial": 0.261290866,
        "metodo_proporciones": "Directo 2022",
        "iata_proporcion_usada": "COR",
        "aeropuerto_proporcion_usada": "Córdoba",
        "pax_proporcion_usada_2025": 3264749,
        "dif_pax_con_donante": 0,
        "observaciones": "",
        "ingresos_aeronauticos_2025_usd": 33035615.54,
        "pba_2025_usd": 187982578.05,
        "empleo_aeroportuario_total_2025": 10657.4054,
        "beneficios_al_pax_2025_usd": 109011737.67,
        "impacto_economico_positivo_usd": 617433733.14,
        "impacto_economico_negativo_usd": 437172304.22,
        "saldo_impactos_totales_usd": 180261428.92
      }
    },
    {
      "type": "Feature",
      "id": "CPC",
      "geometry": {
        "type": "Point",
        "coordinates": [
          -71.140680852,
          -40.0767010424
        ]
      },
      "properties": {
        "iata": "CPC",
        "aeropuerto": "Chapelco",
        "lon": -71.140680852,
        "lat": -40.0767010424,
        "pax_total_2025": 348633,
        "pax_cabotaje_2025": 348526,
        "pax_internacional_2025": 107,
        "ingresos_no_aeronauticos_2025_usd": 5567610.69,
        "actividades_conexas_transporte_aerocomercial_2025_usd": 5483861.38,
        "actividades_secundarias_aeropuerto_2025_usd": 2558.54,
        "explotacion_comercial_aeropuerto_2025_usd": 81190.78,
        "control_suma_categorias_2025_usd": 5567610.69,
        "control_diferencia_vs_total_usd": 0.0,
        "prop_conexas": 0.984957764,
        "prop_secundarias": 0.0004595398,
        "prop_explotacion_comercial": 0.0145826962,
        "metodo_proporciones": "Directo 2022",
        "iata_proporcion_usada": "CPC",
        "aeropuerto_proporcion_usada": "Chapelco",
        "pax_proporcion_usada_2025": 348633,
        "dif_pax_con_donante": 0,
        "observaciones": "",
        "ingresos_aeronauticos_2025_usd": 749266.07,
        "pba_2025_usd": 6316876.76,
        "empleo_aeroportuario_total_2025": 1519.8306,
        "beneficios_al_pax_2025_usd": 2212364.51,
        "impacto_economico_positivo_usd": 40999684.93,
        "impacto_economico_negativo_usd": 6222611.37,
        "saldo_impactos_totales_usd": 34777073.56
      }
    },
    {
      "type": "Feature",
      "id": "CRD",
      "geometry": {
        "type": "Point",
        "coordinates": [
          -67.4655327946,
          -45.7849424865
        ]
      },
      "properties": {
        "iata": "CRD",
        "aeropuerto": "Comodoro Rivadavia",
        "lon": -67.4655327946,
        "lat": -45.7849424865,
        "pax_total_2025": 574031,
        "pax_cabotaje_2025": 574031,
        "pax_internacional_2025": 0,
        "ingresos_no_aeronauticos_2025_usd": 13492932.05,
        "actividades_conexas_transporte_aerocomercial_2025_usd": 11642067.91,
        "actividades_secundarias_aeropuerto_2025_usd": 88274.07,
        "explotacion_comercial_aeropuerto_2025_usd": 1762590.07,
        "control_suma_categorias_2025_usd": 13492932.05,
        "control_diferencia_vs_total_usd": 0.0,
        "prop_conexas": 0.8628271353,
        "prop_secundarias": 0.0065422456,
        "prop_explotacion_comercial": 0.1306306191,
        "metodo_proporciones": "Directo 2022",
        "iata_proporcion_usada": "CRD",
        "aeropuerto_proporcion_usada": "Comodoro Rivadavia",
        "pax_proporcion_usada_2025": 574031,
        "dif_pax_con_donante": 0,
        "observaciones": "",
        "ingresos_aeronauticos_2025_usd": 1307326.91,
        "pba_2025_usd": 14800258.96,
        "empleo_aeroportuario_total_2025": 2133.3402,
        "beneficios_al_pax_2025_usd": 13538311.87,
        "impacto_economico_positivo_usd": 116160478.57,
        "impacto_economico_negativo_usd": 69204057.25,
        "saldo_impactos_totales_usd": 46956421.32
      }
    },
    {
      "type": "Feature",
      "id": "CTC",
      "geometry": {
        "type": "Point",
        "coordinates": [
          -65.75271079,
          -28.5943155455
        ]
      },
      "properties": {
        "iata": "CTC",
        "aeropuerto": "Catamarca",
        "lon": -65.75271079,
        "lat": -28.5943155455,
        "pax_total_2025": 78939,
        "pax_cabotaje_2025": 78932,
        "pax_internacional_2025": 7,
        "ingresos_no_aeronauticos_2025_usd": 1308289.71,
        "actividades_conexas_transporte_aerocomercial_2025_usd": 1250931.36,
        "actividades_secundarias_aeropuerto_2025_usd": 29685.91,
        "explotacion_comercial_aeropuerto_2025_usd": 27672.43,
        "control_suma_categorias_2025_usd": 1308289.71,
        "control_diferencia_vs_total_usd": 0.0,
        "prop_conexas": 0.9561577653,
        "prop_secundarias": 0.0226906245,
        "prop_explotacion_comercial": 0.0211516102,
        "metodo_proporciones": "Directo 2022",
        "iata_proporcion_usada": "CTC",
        "aeropuerto_proporcion_usada": "Catamarca",
        "pax_proporcion_usada_2025": 78939,
        "dif_pax_con_donante": 0,
        "observaciones": "",
        "ingresos_aeronauticos_2025_usd": 214895.92,
        "pba_2025_usd": 1523185.62,
        "empleo_aeroportuario_total_2025": 762.2392,
        "beneficios_al_pax_2025_usd": 961238.92,
        "impacto_economico_positivo_usd": 13736501.18,
        "impacto_economico_negativo_usd": 6731012.65,
        "saldo_impactos_totales_usd": 7005488.53
      }
    },
    {
      "type": "Feature",
      "id": "EPA",
      "geometry": {
        "type": "Point",
        "coordinates": [
          -58.6045279023,
          -34.610235198
        ]
      },
      "properties": {
        "iata": "EPA",
        "aeropuerto": "El Palomar",
        "lon": -58.6045279023,
        "lat": -34.610235198,
        "pax_total_2025": 4192,
        "pax_cabotaje_2025": 3991,
        "pax_internacional_2025": 201,
        "ingresos_no_aeronauticos_2025_usd": 19.6,
        "actividades_conexas_transporte_aerocomercial_2025_usd": 19.54,
        "actividades_secundarias_aeropuerto_2025_usd": 0.0,
        "explotacion_comercial_aeropuerto_2025_usd": 0.05,
        "control_suma_categorias_2025_usd": 19.6,
        "control_diferencia_vs_total_usd": 0.0,
        "prop_conexas": 0.9974066319,
        "prop_secundarias": 0.0,
        "prop_explotacion_comercial": 0.0025933681,
        "metodo_proporciones": "Imputado por similitud pax 2025",
        "iata_proporcion_usada": "RCQ",
        "aeropuerto_proporcion_usada": "Reconquista",
        "pax_proporcion_usada_2025": 1033,
        "dif_pax_con_donante": 3159,
        "observaciones": "Proporciones tomadas de RCQ por cercanía en pax totales 2025",
        "ingresos_aeronauticos_2025_usd": 9.54,
        "pba_2025_usd": 29.14,
        "empleo_aeroportuario_total_2025": 9.2956,
        "beneficios_al_pax_2025_usd": 1455.11,
        "impacto_economico_positivo_usd": 1484.25,
        "impacto_economico_negativo_usd": 0.0,
        "saldo_impactos_totales_usd": 1484.25
      }
    },
    {
      "type": "Feature",
      "id": "EQS",
      "geometry": {
        "type": "Point",
        "coordinates": [
          -71.1366517822,
          -42.9047083107
        ]
      },
      "properties": {
        "iata": "EQS",
        "aeropuerto": "Esquel",
        "lon": -71.1366517822,
        "lat": -42.9047083107,
        "pax_total_2025": 95841,
        "pax_cabotaje_2025": 95841,
        "pax_internacional_2025": 0,
        "ingresos_no_aeronauticos_2025_usd": 1566227.2,
        "actividades_conexas_transporte_aerocomercial_2025_usd": 1508916.18,
        "actividades_secundarias_aeropuerto_2025_usd": 1264.46,
        "explotacion_comercial_aeropuerto_2025_usd": 56046.56,
        "control_suma_categorias_2025_usd": 1566227.2,
        "control_diferencia_vs_total_usd": 0.0,
        "prop_conexas": 0.963408234,
        "prop_secundarias": 0.0008073276,
        "prop_explotacion_comercial": 0.0357844385,
        "metodo_proporciones": "Directo 2022",
        "iata_proporcion_usada": "EQS",
        "aeropuerto_proporcion_usada": "Esquel",
        "pax_proporcion_usada_2025": 95841,
        "dif_pax_con_donante": 0,
        "observaciones": "",
        "ingresos_aeronauticos_2025_usd": 249756.81,
        "pba_2025_usd": 1815984.01,
        "empleo_aeroportuario_total_2025": 571.6794,
        "beneficios_al_pax_2025_usd": 1267967.23,
        "impacto_economico_positivo_usd": 26554164.75,
        "impacto_economico_negativo_usd": 8281360.63,
        "saldo_impactos_totales_usd": 18272804.12
      }
    },
    {
      "type": "Feature",
      "id": "EZE",
      "geometry": {
        "type": "Point",
        "coordinates": [
          -58.5424618656,
          -34.8122874734
        ]
      },
      "properties": {
        "iata": "EZE",
        "aeropuerto": "Ezeiza",
        "lon": -58.5424618656,
        "lat": -34.8122874734,
        "pax_total_2025": 11922939,
        "pax_cabotaje_2025": 3386719,
        "pax_internacional_2025": 8536220,
        "ingresos_no_aeronauticos_2025_usd": 2291373042.21,
        "actividades_conexas_transporte_aerocomercial_2025_usd": 1562563784.68,
        "actividades_secundarias_aeropuerto_2025_usd": 62334592.44,
        "explotacion_comercial_aeropuerto_2025_usd": 666474665.09,
        "control_suma_categorias_2025_usd": 2291373042.21,
        "control_diferencia_vs_total_usd": 0.0,
        "prop_conexas": 0.6819333892,
        "prop_secundarias": 0.027204035,
        "prop_explotacion_comercial": 0.2908625758,
        "metodo_proporciones": "Directo 2022",
        "iata_proporcion_usada": "EZE",
        "aeropuerto_proporcion_usada": "Ezeiza",
        "pax_proporcion_usada_2025": 11922939,
        "dif_pax_con_donante": 0,
        "observaciones": "",
        "ingresos_aeronauticos_2025_usd": 468132377.33,
        "pba_2025_usd": 2759505419.53,
        "empleo_aeroportuario_total_2025": 98454.3474,
        "beneficios_al_pax_2025_usd": 704108613.56,
        "impacto_economico_positivo_usd": 5117810711.78,
        "impacto_economico_negativo_usd": 2892605491.73,
        "saldo_impactos_totales_usd": 2225205220.05
      }
    },
    {
      "type": "Feature",
      "id": "FDO",
      "geometry": {
        "type": "Point",
        "coordinates": [
          -58.589139553,
          -34.4530935849
        ]
      },
      "properties": {
        "iata": "FDO",
        "aeropuerto": "San Fernando",
        "lon": -58.589139553,
        "lat": -34.4530935849,
        "pax_total_2025": 39160,
        "pax_cabotaje_2025": 17176,
        "pax_internacional_2025": 21984,
        "ingresos_no_aeronauticos_2025_usd": 18327682.3,
        "actividades_conexas_transporte_aerocomercial_2025_usd": 17805460.51,
        "actividades_secundarias_aeropuerto_2025_usd": 463289.08,
        "explotacion_comercial_aeropuerto_2025_usd": 58932.72,
        "control_suma_categorias_2025_usd": 18327682.3,
        "control_diferencia_vs_total_usd": 0.0,
        "prop_conexas": 0.971506392,
        "prop_secundarias": 0.0252781049,
        "prop_explotacion_comercial": 0.0032155031,
        "metodo_proporciones": "Imputado por similitud pax 2025",
        "iata_proporcion_usada": "RSA",
        "aeropuerto_proporcion_usada": "La Pampa",
        "pax_proporcion_usada_2025": 42459,
        "dif_pax_con_donante": 3299,
        "observaciones": "Proporciones tomadas de RSA por cercanía en pax totales 2025",
        "ingresos_aeronauticos_2025_usd": 5072005.64,
        "pba_2025_usd": 23399687.95,
        "empleo_aeroportuario_total_2025": 4675.6868,
        "beneficios_al_pax_2025_usd": 148659.4,
        "impacto_economico_positivo_usd": 23548347.35,
        "impacto_economico_negativo_usd": 0.0,
        "saldo_impactos_totales_usd": 23548347.35
      }
    },
    {
      "type": "Feature",
      "id": "FMA",
      "geometry": {
        "type": "Point",
        "coordinates": [
          -58.2267864558,
          -26.2140763279
        ]
      },
      "properties": {
        "iata": "FMA",
        "aeropuerto": "Formosa",
        "lon": -58.2267864558,
        "lat": -26.2140763279,
        "pax_total_2025": 90575,
        "pax_cabotaje_2025": 90568,
        "pax_internacional_2025": 7,
        "ingresos_no_aeronauticos_2025_usd": 1699628.5,
        "actividades_conexas_transporte_aerocomercial_2025_usd": 1437228.74,
        "actividades_secundarias_aeropuerto_2025_usd": 73103.25,
        "explotacion_comercial_aeropuerto_2025_usd": 189296.51,
        "control_suma_categorias_2025_usd": 1699628.5,
        "control_diferencia_vs_total_usd": 0.0,
        "prop_conexas": 0.8456134639,
        "prop_secundarias": 0.04301131,
        "prop_explotacion_comercial": 0.1113752261,
        "metodo_proporciones": "Directo 2022",
        "iata_proporcion_usada": "FMA",
        "aeropuerto_proporcion_usada": "Formosa",
        "pax_proporcion_usada_2025": 90575,
        "dif_pax_con_donante": 0,
        "observaciones": "",
        "ingresos_aeronauticos_2025_usd": 232012.58,
        "pba_2025_usd": 1931641.08,
        "empleo_aeroportuario_total_2025": 1728.9816,
        "beneficios_al_pax_2025_usd": 1587746.61,
        "impacto_economico_positivo_usd": 18718369.86,
        "impacto_economico_negativo_usd": 11834133.21,
        "saldo_impactos_totales_usd": 6884236.65
      }
    },
    {
      "type": "Feature",
      "id": "FTE",
      "geometry": {
        "type": "Point",
        "coordinates": [
          -72.0530451841,
          -50.2803488895
        ]
      },
      "properties": {
        "iata": "FTE",
        "aeropuerto": "El Calafate",
        "lon": -72.0530451841,
        "lat": -50.2803488895,
        "pax_total_2025": 890919,
        "pax_cabotaje_2025": 883397,
        "pax_internacional_2025": 7522,
        "ingresos_no_aeronauticos_2025_usd": 18486585.11,
        "actividades_conexas_transporte_aerocomercial_2025_usd": 13489712.39,
        "actividades_secundarias_aeropuerto_2025_usd": 117286.79,
        "explotacion_comercial_aeropuerto_2025_usd": 4879585.93,
        "control_suma_categorias_2025_usd": 18486585.11,
        "control_diferencia_vs_total_usd": 0.0,
        "prop_conexas": 0.7297027713,
        "prop_secundarias": 0.0063444271,
        "prop_explotacion_comercial": 0.2639528016,
        "metodo_proporciones": "Directo 2022",
        "iata_proporcion_usada": "FTE",
        "aeropuerto_proporcion_usada": "El Calafate",
        "pax_proporcion_usada_2025": 890919,
        "dif_pax_con_donante": 0,
        "observaciones": "",
        "ingresos_aeronauticos_2025_usd": 2835300.73,
        "pba_2025_usd": 21321885.85,
        "empleo_aeroportuario_total_2025": 2635.3026,
        "beneficios_al_pax_2025_usd": 5709381.05,
        "impacto_economico_positivo_usd": 241779440.53,
        "impacto_economico_negativo_usd": 14838255.6,
        "saldo_impactos_totales_usd": 226941184.93
      }
    },
    {
      "type": "Feature",
      "id": "GNR",
      "geometry": {
        "type": "Point",
        "coordinates": [
          -67.6188925551,
          -38.999443252
        ]
      },
      "properties": {
        "iata": "GNR",
        "aeropuerto": "General Roca",
        "lon": -67.6188925551,
        "lat": -38.999443252,
        "pax_total_2025": 122,
        "pax_cabotaje_2025": 122,
        "pax_internacional_2025": 0,
        "ingresos_no_aeronauticos_2025_usd": 156.97,
        "actividades_conexas_transporte_aerocomercial_2025_usd": 156.02,
        "actividades_secundarias_aeropuerto_2025_usd": 0.0,
        "explotacion_comercial_aeropuerto_2025_usd": 0.95,
        "control_suma_categorias_2025_usd": 156.97,
        "control_diferencia_vs_total_usd": 0.0,
        "prop_conexas": 0.9939667876,
        "prop_secundarias": 0.0,
        "prop_explotacion_comercial": 0.0060332124,
        "metodo_proporciones": "Imputado por similitud pax 2025",
        "iata_proporcion_usada": "LGS",
        "aeropuerto_proporcion_usada": "Malargüe",
        "pax_proporcion_usada_2025": 199,
        "dif_pax_con_donante": 77,
        "observaciones": "Proporciones tomadas de LGS por cercanía en pax totales 2025",
        "ingresos_aeronauticos_2025_usd": 82.78,
        "pba_2025_usd": 239.75,
        "empleo_aeroportuario_total_2025": 32.5346,
        "beneficios_al_pax_2025_usd": 0.0,
        "impacto_economico_positivo_usd": 239.75,
        "impacto_economico_negativo_usd": 0.0,
        "saldo_impactos_totales_usd": 239.75
      }
    },
    {
      "type": "Feature",
      "id": "GPO",
      "geometry": {
        "type": "Point",
        "coordinates": [
          -63.7597232222,
          -35.6912609447
        ]
      },
      "properties": {
        "iata": "GPO",
        "aeropuerto": "General Pico",
        "lon": -63.7597232222,
        "lat": -35.6912609447,
        "pax_total_2025": 548,
        "pax_cabotaje_2025": 548,
        "pax_internacional_2025": 0,
        "ingresos_no_aeronauticos_2025_usd": 130176.37,
        "actividades_conexas_transporte_aerocomercial_2025_usd": 124131.54,
        "actividades_secundarias_aeropuerto_2025_usd": 0.0,
        "explotacion_comercial_aeropuerto_2025_usd": 6044.83,
        "control_suma_categorias_2025_usd": 130176.37,
        "control_diferencia_vs_total_usd": 0.0,
        "prop_conexas": 0.9535642885,
        "prop_secundarias": 0.0,
        "prop_explotacion_comercial": 0.0464357115,
        "metodo_proporciones": "Directo 2022",
        "iata_proporcion_usada": "GPO",
        "aeropuerto_proporcion_usada": "General Pico",
        "pax_proporcion_usada_2025": 548,
        "dif_pax_con_donante": 0,
        "observaciones": "",
        "ingresos_aeronauticos_2025_usd": 280.93,
        "pba_2025_usd": 130457.3,
        "empleo_aeroportuario_total_2025": 111.5472,
        "beneficios_al_pax_2025_usd": 8259.38,
        "impacto_economico_positivo_usd": 138716.68,
        "impacto_economico_negativo_usd": 0.0,
        "saldo_impactos_totales_usd": 138716.68
      }
    },
    {
      "type": "Feature",
      "id": "IGR",
      "geometry": {
        "type": "Point",
        "coordinates": [
          -54.4758314487,
          -25.7344749475
        ]
      },
      "properties": {
        "iata": "IGR",
        "aeropuerto": "Iguazú",
        "lon": -54.4758314487,
        "lat": -25.7344749475,
        "pax_total_2025": 1785166,
        "pax_cabotaje_2025": 1782890,
        "pax_internacional_2025": 2276,
        "ingresos_no_aeronauticos_2025_usd": 23578775.71,
        "actividades_conexas_transporte_aerocomercial_2025_usd": 14964237.77,
        "actividades_secundarias_aeropuerto_2025_usd": 228629.27,
        "explotacion_comercial_aeropuerto_2025_usd": 8385908.66,
        "control_suma_categorias_2025_usd": 23578775.71,
        "control_diferencia_vs_total_usd": 0.0,
        "prop_conexas": 0.634648633,
        "prop_secundarias": 0.0096964014,
        "prop_explotacion_comercial": 0.3556549656,
        "metodo_proporciones": "Directo 2022",
        "iata_proporcion_usada": "IGR",
        "aeropuerto_proporcion_usada": "Iguazú",
        "pax_proporcion_usada_2025": 1785166,
        "dif_pax_con_donante": 0,
        "observaciones": "",
        "ingresos_aeronauticos_2025_usd": 4920685.93,
        "pba_2025_usd": 28499461.64,
        "empleo_aeroportuario_total_2025": 4406.1144,
        "beneficios_al_pax_2025_usd": 12718511.91,
        "impacto_economico_positivo_usd": 307491946.59,
        "impacto_economico_negativo_usd": 89758904.98,
        "saldo_impactos_totales_usd": 217733041.61
      }
    },
    {
      "type": "Feature",
      "id": "IRJ",
      "geometry": {
        "type": "Point",
        "coordinates": [
          -66.7923488936,
          -29.3745246692
        ]
      },
      "properties": {
        "iata": "IRJ",
        "aeropuerto": "La Rioja",
        "lon": -66.7923488936,
        "lat": -29.3745246692,
        "pax_total_2025": 72737,
        "pax_cabotaje_2025": 72666,
        "pax_internacional_2025": 71,
        "ingresos_no_aeronauticos_2025_usd": 1302184.1,
        "actividades_conexas_transporte_aerocomercial_2025_usd": 1274307.14,
        "actividades_secundarias_aeropuerto_2025_usd": 24660.21,
        "explotacion_comercial_aeropuerto_2025_usd": 3216.74,
        "control_suma_categorias_2025_usd": 1302184.1,
        "control_diferencia_vs_total_usd": 0.0,
        "prop_conexas": 0.9785921573,
        "prop_secundarias": 0.018937579,
        "prop_explotacion_comercial": 0.0024702636,
        "metodo_proporciones": "Directo 2022",
        "iata_proporcion_usada": "IRJ",
        "aeropuerto_proporcion_usada": "La Rioja",
        "pax_proporcion_usada_2025": 72737,
        "dif_pax_con_donante": 0,
        "observaciones": "",
        "ingresos_aeronauticos_2025_usd": 222539.93,
        "pba_2025_usd": 1524724.02,
        "empleo_aeroportuario_total_2025": 692.5222,
        "beneficios_al_pax_2025_usd": 1174723.06,
        "impacto_economico_positivo_usd": 12565760.09,
        "impacto_economico_negativo_usd": 5443020.58,
        "saldo_impactos_totales_usd": 7122739.51
      }
    },
    {
      "type": "Feature",
      "id": "JNI",
      "geometry": {
        "type": "Point",
        "coordinates": [
          -60.9301235806,
          -34.5456760243
        ]
      },
      "properties": {
        "iata": "JNI",
        "aeropuerto": "Junin",
        "lon": -60.9301235806,
        "lat": -34.5456760243,
        "pax_total_2025": 49,
        "pax_cabotaje_2025": 49,
        "pax_internacional_2025": 0,
        "ingresos_no_aeronauticos_2025_usd": 25.17,
        "actividades_conexas_transporte_aerocomercial_2025_usd": 25.02,
        "actividades_secundarias_aeropuerto_2025_usd": 0.0,
        "explotacion_comercial_aeropuerto_2025_usd": 0.15,
        "control_suma_categorias_2025_usd": 25.17,
        "control_diferencia_vs_total_usd": 0.0,
        "prop_conexas": 0.9939667876,
        "prop_secundarias": 0.0,
        "prop_explotacion_comercial": 0.0060332124,
        "metodo_proporciones": "Imputado por similitud pax 2025",
        "iata_proporcion_usada": "LGS",
        "aeropuerto_proporcion_usada": "Malargüe",
        "pax_proporcion_usada_2025": 199,
        "dif_pax_con_donante": 150,
        "observaciones": "Proporciones tomadas de LGS por cercanía en pax totales 2025",
        "ingresos_aeronauticos_2025_usd": 3.73,
        "pba_2025_usd": 28.9,
        "empleo_aeroportuario_total_2025": 69.717,
        "beneficios_al_pax_2025_usd": 0.0,
        "impacto_economico_positivo_usd": 28.9,
        "impacto_economico_negativo_usd": 0.0,
        "saldo_impactos_totales_usd": 28.9
      }
    },
    {
      "type": "Feature",
      "id": "JUJ",
      "geometry": {
        "type": "Point",
        "coordinates": [
          -65.0991094244,
          -24.3898594024
        ]
      },
      "properties": {
        "iata": "JUJ",
        "aeropuerto": "Jujuy",
        "lon": -65.0991094244,
        "lat": -24.3898594024,
        "pax_total_2025": 494622,
        "pax_cabotaje_2025": 491087,
        "pax_internacional_2025": 3535,
        "ingresos_no_aeronauticos_2025_usd": 6431415.77,
        "actividades_conexas_transporte_aerocomercial_2025_usd": 4568590.33,
        "actividades_secundarias_aeropuerto_2025_usd": 44669.57,
        "explotacion_comercial_aeropuerto_2025_usd": 1818155.88,
        "control_suma_categorias_2025_usd": 6431415.77,
        "control_diferencia_vs_total_usd": 0.0,
        "prop_conexas": 0.7103553079,
        "prop_secundarias": 0.0069455261,
        "prop_explotacion_comercial": 0.282699166,
        "metodo_proporciones": "Directo 2022",
        "iata_proporcion_usada": "JUJ",
        "aeropuerto_proporcion_usada": "Jujuy",
        "pax_proporcion_usada_2025": 494622,
        "dif_pax_con_donante": 0,
        "observaciones": "",
        "ingresos_aeronauticos_2025_usd": 880741.66,
        "pba_2025_usd": 7312157.44,
        "empleo_aeroportuario_total_2025": 1961.3716,
        "beneficios_al_pax_2025_usd": 7679856.25,
        "impacto_economico_positivo_usd": 99711416.78,
        "impacto_economico_negativo_usd": 64271654.19,
        "saldo_impactos_totales_usd": 35439762.59
      }
    },
    {
      "type": "Feature",
      "id": "LGS",
      "geometry": {
        "type": "Point",
        "coordinates": [
          -69.5801992252,
          -35.4864105894
        ]
      },
      "properties": {
        "iata": "LGS",
        "aeropuerto": "Malargüe",
        "lon": -69.5801992252,
        "lat": -35.4864105894,
        "pax_total_2025": 199,
        "pax_cabotaje_2025": 172,
        "pax_internacional_2025": 27,
        "ingresos_no_aeronauticos_2025_usd": 43300.1,
        "actividades_conexas_transporte_aerocomercial_2025_usd": 43038.86,
        "actividades_secundarias_aeropuerto_2025_usd": 0.0,
        "explotacion_comercial_aeropuerto_2025_usd": 261.24,
        "control_suma_categorias_2025_usd": 43300.1,
        "control_diferencia_vs_total_usd": 0.0,
        "prop_conexas": 0.9939667876,
        "prop_secundarias": 0.0,
        "prop_explotacion_comercial": 0.0060332124,
        "metodo_proporciones": "Directo 2022",
        "iata_proporcion_usada": "LGS",
        "aeropuerto_proporcion_usada": "Malargüe",
        "pax_proporcion_usada_2025": 199,
        "dif_pax_con_donante": 0,
        "observaciones": "",
        "ingresos_aeronauticos_2025_usd": 828.13,
        "pba_2025_usd": 44128.23,
        "empleo_aeroportuario_total_2025": 264.9246,
        "beneficios_al_pax_2025_usd": 67.87,
        "impacto_economico_positivo_usd": 107512.49,
        "impacto_economico_negativo_usd": 761.22,
        "saldo_impactos_totales_usd": 106751.26
      }
    },
    {
      "type": "Feature",
      "id": "LPG",
      "geometry": {
        "type": "Point",
        "coordinates": [
          -57.8953807903,
          -34.9761093311
        ]
      },
      "properties": {
        "iata": "LPG",
        "aeropuerto": "La Plata",
        "lon": -57.8953807903,
        "lat": -34.9761093311,
        "pax_total_2025": 380,
        "pax_cabotaje_2025": 380,
        "pax_internacional_2025": 0,
        "ingresos_no_aeronauticos_2025_usd": 34.3,
        "actividades_conexas_transporte_aerocomercial_2025_usd": 1.23,
        "actividades_secundarias_aeropuerto_2025_usd": 0.0,
        "explotacion_comercial_aeropuerto_2025_usd": 33.07,
        "control_suma_categorias_2025_usd": 34.3,
        "control_diferencia_vs_total_usd": 0.0,
        "prop_conexas": 0.0357881118,
        "prop_secundarias": 0.0,
        "prop_explotacion_comercial": 0.9642118882,
        "metodo_proporciones": "Imputado por similitud pax 2025",
        "iata_proporcion_usada": "VME",
        "aeropuerto_proporcion_usada": "Villa Mercedes",
        "pax_proporcion_usada_2025": 385,
        "dif_pax_con_donante": 5,
        "observaciones": "Proporciones tomadas de VME por cercanía en pax totales 2025",
        "ingresos_aeronauticos_2025_usd": 47.66,
        "pba_2025_usd": 81.96,
        "empleo_aeroportuario_total_2025": 23.239,
        "beneficios_al_pax_2025_usd": 0.0,
        "impacto_economico_positivo_usd": 81.96,
        "impacto_economico_negativo_usd": 0.0,
        "saldo_impactos_totales_usd": 81.96
      }
    },
    {
      "type": "Feature",
      "id": "LUQ",
      "geometry": {
        "type": "Point",
        "coordinates": [
          -66.3562805328,
          -33.2730870448
        ]
      },
      "properties": {
        "iata": "LUQ",
        "aeropuerto": "San Luis",
        "lon": -66.3562805328,
        "lat": -33.2730870448,
        "pax_total_2025": 60085,
        "pax_cabotaje_2025": 59902,
        "pax_internacional_2025": 183,
        "ingresos_no_aeronauticos_2025_usd": 546018.94,
        "actividades_conexas_transporte_aerocomercial_2025_usd": 406296.23,
        "actividades_secundarias_aeropuerto_2025_usd": 16847.1,
        "explotacion_comercial_aeropuerto_2025_usd": 122875.61,
        "control_suma_categorias_2025_usd": 546018.94,
        "control_diferencia_vs_total_usd": 0.0,
        "prop_conexas": 0.7441064807,
        "prop_secundarias": 0.030854417,
        "prop_explotacion_comercial": 0.2250391023,
        "metodo_proporciones": "Directo 2022",
        "iata_proporcion_usada": "LUQ",
        "aeropuerto_proporcion_usada": "San Luis",
        "pax_proporcion_usada_2025": 60085,
        "dif_pax_con_donante": 0,
        "observaciones": "",
        "ingresos_aeronauticos_2025_usd": 152858.71,
        "pba_2025_usd": 698877.65,
        "empleo_aeroportuario_total_2025": 989.9814,
        "beneficios_al_pax_2025_usd": 852419.36,
        "impacto_economico_positivo_usd": 14820072.05,
        "impacto_economico_negativo_usd": 8063271.2,
        "saldo_impactos_totales_usd": 6756800.85
      }
    },
    {
      "type": "Feature",
      "id": "MDQ",
      "geometry": {
        "type": "Point",
        "coordinates": [
          -57.5740449979,
          -37.9321130178
        ]
      },
      "properties": {
        "iata": "MDQ",
        "aeropuerto": "Mar del Plata",
        "lon": -57.5740449979,
        "lat": -37.9321130178,
        "pax_total_2025": 296481,
        "pax_cabotaje_2025": 296197,
        "pax_internacional_2025": 284,
        "ingresos_no_aeronauticos_2025_usd": 4223677.95,
        "actividades_conexas_transporte_aerocomercial_2025_usd": 3125942.45,
        "actividades_secundarias_aeropuerto_2025_usd": 210427.64,
        "explotacion_comercial_aeropuerto_2025_usd": 887307.86,
        "control_suma_categorias_2025_usd": 4223677.95,
        "control_diferencia_vs_total_usd": 0.0,
        "prop_conexas": 0.7400996193,
        "prop_secundarias": 0.0498209492,
        "prop_explotacion_comercial": 0.2100794314,
        "metodo_proporciones": "Directo 2022",
        "iata_proporcion_usada": "MDQ",
        "aeropuerto_proporcion_usada": "Mar del Plata",
        "pax_proporcion_usada_2025": 296481,
        "dif_pax_con_donante": 0,
        "observaciones": "",
        "ingresos_aeronauticos_2025_usd": 842457.94,
        "pba_2025_usd": 5066135.89,
        "empleo_aeroportuario_total_2025": 1584.8998,
        "beneficios_al_pax_2025_usd": 3785625.14,
        "impacto_economico_positivo_usd": 67118540.08,
        "impacto_economico_negativo_usd": 33890254.93,
        "saldo_impactos_totales_usd": 33228285.15
      }
    },
    {
      "type": "Feature",
      "id": "MDZ",
      "geometry": {
        "type": "Point",
        "coordinates": [
          -68.7938610498,
          -32.8304028407
        ]
      },
      "properties": {
        "iata": "MDZ",
        "aeropuerto": "Mendoza",
        "lon": -68.7938610498,
        "lat": -32.8304028407,
        "pax_total_2025": 2586824,
        "pax_cabotaje_2025": 1906695,
        "pax_internacional_2025": 680129,
        "ingresos_no_aeronauticos_2025_usd": 255017753.15,
        "actividades_conexas_transporte_aerocomercial_2025_usd": 177974397.87,
        "actividades_secundarias_aeropuerto_2025_usd": 1565425.91,
        "explotacion_comercial_aeropuerto_2025_usd": 75477929.36,
        "control_suma_categorias_2025_usd": 255017753.15,
        "control_diferencia_vs_total_usd": 0.0,
        "prop_conexas": 0.6978902279,
        "prop_secundarias": 0.0061384978,
        "prop_explotacion_comercial": 0.2959712743,
        "metodo_proporciones": "Directo 2022",
        "iata_proporcion_usada": "MDZ",
        "aeropuerto_proporcion_usada": "Mendoza",
        "pax_proporcion_usada_2025": 2586824,
        "dif_pax_con_donante": 0,
        "observaciones": "",
        "ingresos_aeronauticos_2025_usd": 25307211.38,
        "pba_2025_usd": 280324964.54,
        "empleo_aeroportuario_total_2025": 7338.8762,
        "beneficios_al_pax_2025_usd": 44419929.87,
        "impacto_economico_positivo_usd": 669090805.88,
        "impacto_economico_negativo_usd": 270767804.7,
        "saldo_impactos_totales_usd": 398323001.18
      }
    },
    {
      "type": "Feature",
      "id": "NEC",
      "geometry": {
        "type": "Point",
        "coordinates": [
          -58.8138938768,
          -38.4890140313
        ]
      },
      "properties": {
        "iata": "NEC",
        "aeropuerto": "Necochea",
        "lon": -58.8138938768,
        "lat": -38.4890140313,
        "pax_total_2025": 31,
        "pax_cabotaje_2025": 31,
        "pax_internacional_2025": 0,
        "ingresos_no_aeronauticos_2025_usd": 36.81,
        "actividades_conexas_transporte_aerocomercial_2025_usd": 36.59,
        "actividades_secundarias_aeropuerto_2025_usd": 0.0,
        "explotacion_comercial_aeropuerto_2025_usd": 0.22,
        "control_suma_categorias_2025_usd": 36.81,
        "control_diferencia_vs_total_usd": 0.0,
        "prop_conexas": 0.9939667876,
        "prop_secundarias": 0.0,
        "prop_explotacion_comercial": 0.0060332124,
        "metodo_proporciones": "Imputado por similitud pax 2025",
        "iata_proporcion_usada": "LGS",
        "aeropuerto_proporcion_usada": "Malargüe",
        "pax_proporcion_usada_2025": 199,
        "dif_pax_con_donante": 168,
        "observaciones": "Proporciones tomadas de LGS por cercanía en pax totales 2025",
        "ingresos_aeronauticos_2025_usd": 16.27,
        "pba_2025_usd": 53.08,
        "empleo_aeroportuario_total_2025": 23.239,
        "beneficios_al_pax_2025_usd": 0.0,
        "impacto_economico_positivo_usd": 53.08,
        "impacto_economico_negativo_usd": 0.0,
        "saldo_impactos_totales_usd": 53.08
      }
    },
    {
      "type": "Feature",
      "id": "NQN",
      "geometry": {
        "type": "Point",
        "coordinates": [
          -68.1544361883,
          -38.9489462173
        ]
      },
      "properties": {
        "iata": "NQN",
        "aeropuerto": "Neuquén",
        "lon": -68.1544361883,
        "lat": -38.9489462173,
        "pax_total_2025": 1365569,
        "pax_cabotaje_2025": 1364825,
        "pax_internacional_2025": 744,
        "ingresos_no_aeronauticos_2025_usd": 20446799.79,
        "actividades_conexas_transporte_aerocomercial_2025_usd": 18228721.72,
        "actividades_secundarias_aeropuerto_2025_usd": 926750.82,
        "explotacion_comercial_aeropuerto_2025_usd": 1291327.25,
        "control_suma_categorias_2025_usd": 20446799.79,
        "control_diferencia_vs_total_usd": 0.0,
        "prop_conexas": 0.8915195488,
        "prop_secundarias": 0.0453249812,
        "prop_explotacion_comercial": 0.06315547,
        "metodo_proporciones": "Directo 2022",
        "iata_proporcion_usada": "NQN",
        "aeropuerto_proporcion_usada": "Neuquén",
        "pax_proporcion_usada_2025": 1365569,
        "dif_pax_con_donante": 0,
        "observaciones": "",
        "ingresos_aeronauticos_2025_usd": 4053270.33,
        "pba_2025_usd": 24500070.12,
        "empleo_aeroportuario_total_2025": 3755.4224,
        "beneficios_al_pax_2025_usd": 23415584.26,
        "impacto_economico_positivo_usd": 107202841.34,
        "impacto_economico_negativo_usd": 54567034.01,
        "saldo_impactos_totales_usd": 52635807.33
      }
    },
    {
      "type": "Feature",
      "id": "PMQ",
      "geometry": {
        "type": "Point",
        "coordinates": [
          -70.9782720729,
          -46.5379547665
        ]
      },
      "properties": {
        "iata": "PMQ",
        "aeropuerto": "Perito Moreno",
        "lon": -70.9782720729,
        "lat": -46.5379547665,
        "pax_total_2025": 4581,
        "pax_cabotaje_2025": 4581,
        "pax_internacional_2025": 0,
        "ingresos_no_aeronauticos_2025_usd": 412.56,
        "actividades_conexas_transporte_aerocomercial_2025_usd": 411.49,
        "actividades_secundarias_aeropuerto_2025_usd": 0.0,
        "explotacion_comercial_aeropuerto_2025_usd": 1.07,
        "control_suma_categorias_2025_usd": 412.56,
        "control_diferencia_vs_total_usd": 0.0,
        "prop_conexas": 0.9974066319,
        "prop_secundarias": 0.0,
        "prop_explotacion_comercial": 0.0025933681,
        "metodo_proporciones": "Imputado por similitud pax 2025",
        "iata_proporcion_usada": "RCQ",
        "aeropuerto_proporcion_usada": "Reconquista",
        "pax_proporcion_usada_2025": 1033,
        "dif_pax_con_donante": 3548,
        "observaciones": "Proporciones tomadas de RCQ por cercanía en pax totales 2025",
        "ingresos_aeronauticos_2025_usd": 663.04,
        "pba_2025_usd": 1075.61,
        "empleo_aeroportuario_total_2025": 23.239,
        "beneficios_al_pax_2025_usd": 130857.37,
        "impacto_economico_positivo_usd": 131932.98,
        "impacto_economico_negativo_usd": 0.0,
        "saldo_impactos_totales_usd": 131932.98
      }
    },
    {
      "type": "Feature",
      "id": "PMY",
      "geometry": {
        "type": "Point",
        "coordinates": [
          -65.1035197895,
          -42.7588127088
        ]
      },
      "properties": {
        "iata": "PMY",
        "aeropuerto": "Puerto Madryn",
        "lon": -65.1035197895,
        "lat": -42.7588127088,
        "pax_total_2025": 179637,
        "pax_cabotaje_2025": 179637,
        "pax_internacional_2025": 0,
        "ingresos_no_aeronauticos_2025_usd": 472477.04,
        "actividades_conexas_transporte_aerocomercial_2025_usd": 434751.93,
        "actividades_secundarias_aeropuerto_2025_usd": 1592.06,
        "explotacion_comercial_aeropuerto_2025_usd": 36133.05,
        "control_suma_categorias_2025_usd": 472477.04,
        "control_diferencia_vs_total_usd": 0.0,
        "prop_conexas": 0.9201546124,
        "prop_secundarias": 0.0033696125,
        "prop_explotacion_comercial": 0.0764757751,
        "metodo_proporciones": "Directo 2022",
        "iata_proporcion_usada": "PMY",
        "aeropuerto_proporcion_usada": "Puerto Madryn",
        "pax_proporcion_usada_2025": 179637,
        "dif_pax_con_donante": 0,
        "observaciones": "",
        "ingresos_aeronauticos_2025_usd": 355980.32,
        "pba_2025_usd": 828457.36,
        "empleo_aeroportuario_total_2025": 948.1512,
        "beneficios_al_pax_2025_usd": 1797473.0,
        "impacto_economico_positivo_usd": 25943071.59,
        "impacto_economico_negativo_usd": 10658766.4,
        "saldo_impactos_totales_usd": 15284305.19
      }
    },
    {
      "type": "Feature",
      "id": "PRA",
      "geometry": {
        "type": "Point",
        "coordinates": [
          -60.4804791456,
          -31.7960258365
        ]
      },
      "properties": {
        "iata": "PRA",
        "aeropuerto": "Paraná",
        "lon": -60.4804791456,
        "lat": -31.7960258365,
        "pax_total_2025": 42690,
        "pax_cabotaje_2025": 42668,
        "pax_internacional_2025": 22,
        "ingresos_no_aeronauticos_2025_usd": 1036232.86,
        "actividades_conexas_transporte_aerocomercial_2025_usd": 963119.51,
        "actividades_secundarias_aeropuerto_2025_usd": 39940.61,
        "explotacion_comercial_aeropuerto_2025_usd": 33172.73,
        "control_suma_categorias_2025_usd": 1036232.86,
        "control_diferencia_vs_total_usd": 0.0,
        "prop_conexas": 0.9294431299,
        "prop_secundarias": 0.0385440527,
        "prop_explotacion_comercial": 0.0320128175,
        "metodo_proporciones": "Directo 2022",
        "iata_proporcion_usada": "PRA",
        "aeropuerto_proporcion_usada": "Paraná",
        "pax_proporcion_usada_2025": 42690,
        "dif_pax_con_donante": 0,
        "observaciones": "",
        "ingresos_aeronauticos_2025_usd": 111437.14,
        "pba_2025_usd": 1147670.01,
        "empleo_aeroportuario_total_2025": 799.4216,
        "beneficios_al_pax_2025_usd": 476964.37,
        "impacto_economico_positivo_usd": 7933916.26,
        "impacto_economico_negativo_usd": 3823443.48,
        "saldo_impactos_totales_usd": 4110472.77
      }
    },
    {
      "type": "Feature",
      "id": "PSS",
      "geometry": {
        "type": "Point",
        "coordinates": [
          -55.9712220854,
          -27.389104
        ]
      },
      "properties": {
        "iata": "PSS",
        "aeropuerto": "Posadas",
        "lon": -55.9712220854,
        "lat": -27.389104,
        "pax_total_2025": 334483,
        "pax_cabotaje_2025": 334441,
        "pax_internacional_2025": 42,
        "ingresos_no_aeronauticos_2025_usd": 3721827.03,
        "actividades_conexas_transporte_aerocomercial_2025_usd": 3151803.75,
        "actividades_secundarias_aeropuerto_2025_usd": 143552.09,
        "explotacion_comercial_aeropuerto_2025_usd": 426471.19,
        "control_suma_categorias_2025_usd": 3721827.03,
        "control_diferencia_vs_total_usd": 0.0,
        "prop_conexas": 0.8468431582,
        "prop_secundarias": 0.038570327,
        "prop_explotacion_comercial": 0.1145865148,
        "metodo_proporciones": "Directo 2022",
        "iata_proporcion_usada": "PSS",
        "aeropuerto_proporcion_usada": "Posadas",
        "pax_proporcion_usada_2025": 334483,
        "dif_pax_con_donante": 0,
        "observaciones": "",
        "ingresos_aeronauticos_2025_usd": 730469.9,
        "pba_2025_usd": 4452296.93,
        "empleo_aeroportuario_total_2025": 1482.6482,
        "beneficios_al_pax_2025_usd": 4179873.21,
        "impacto_economico_positivo_usd": 45807725.28,
        "impacto_economico_negativo_usd": 29716000.79,
        "saldo_impactos_totales_usd": 16091724.49
      }
    },
    {
      "type": "Feature",
      "id": "RCQ",
      "geometry": {
        "type": "Point",
        "coordinates": [
          -59.6813890817,
          -29.2104570711
        ]
      },
      "properties": {
        "iata": "RCQ",
        "aeropuerto": "Reconquista",
        "lon": -59.6813890817,
        "lat": -29.2104570711,
        "pax_total_2025": 1033,
        "pax_cabotaje_2025": 1033,
        "pax_internacional_2025": 0,
        "ingresos_no_aeronauticos_2025_usd": 633215.36,
        "actividades_conexas_transporte_aerocomercial_2025_usd": 631573.2,
        "actividades_secundarias_aeropuerto_2025_usd": 0.0,
        "explotacion_comercial_aeropuerto_2025_usd": 1642.16,
        "control_suma_categorias_2025_usd": 633215.36,
        "control_diferencia_vs_total_usd": 0.0,
        "prop_conexas": 0.9974066319,
        "prop_secundarias": 0.0,
        "prop_explotacion_comercial": 0.0025933681,
        "metodo_proporciones": "Directo 2022",
        "iata_proporcion_usada": "RCQ",
        "aeropuerto_proporcion_usada": "Reconquista",
        "pax_proporcion_usada_2025": 1033,
        "dif_pax_con_donante": 0,
        "observaciones": "",
        "ingresos_aeronauticos_2025_usd": 12122.35,
        "pba_2025_usd": 645337.71,
        "empleo_aeroportuario_total_2025": 144.0818,
        "beneficios_al_pax_2025_usd": 3636.04,
        "impacto_economico_positivo_usd": 656585.98,
        "impacto_economico_negativo_usd": 7612.24,
        "saldo_impactos_totales_usd": 648973.75
      }
    },
    {
      "type": "Feature",
      "id": "RCU",
      "geometry": {
        "type": "Point",
        "coordinates": [
          -64.2692882583,
          -33.0943359757
        ]
      },
      "properties": {
        "iata": "RCU",
        "aeropuerto": "Río Cuarto",
        "lon": -64.2692882583,
        "lat": -33.0943359757,
        "pax_total_2025": 12078,
        "pax_cabotaje_2025": 12073,
        "pax_internacional_2025": 5,
        "ingresos_no_aeronauticos_2025_usd": 316209.52,
        "actividades_conexas_transporte_aerocomercial_2025_usd": 306689.84,
        "actividades_secundarias_aeropuerto_2025_usd": 7846.49,
        "explotacion_comercial_aeropuerto_2025_usd": 1673.19,
        "control_suma_categorias_2025_usd": 316209.52,
        "control_diferencia_vs_total_usd": 0.0,
        "prop_conexas": 0.969894404,
        "prop_secundarias": 0.0248141978,
        "prop_explotacion_comercial": 0.0052913983,
        "metodo_proporciones": "Directo 2022",
        "iata_proporcion_usada": "RCU",
        "aeropuerto_proporcion_usada": "Río Cuarto",
        "pax_proporcion_usada_2025": 12078,
        "dif_pax_con_donante": 0,
        "observaciones": "",
        "ingresos_aeronauticos_2025_usd": 31233.04,
        "pba_2025_usd": 347442.56,
        "empleo_aeroportuario_total_2025": 980.6858,
        "beneficios_al_pax_2025_usd": 192555.5,
        "impacto_economico_positivo_usd": 5272848.9,
        "impacto_economico_negativo_usd": 4322192.45,
        "saldo_impactos_totales_usd": 950656.44
      }
    },
    {
      "type": "Feature",
      "id": "REL",
      "geometry": {
        "type": "Point",
        "coordinates": [
          -65.2686989064,
          -43.2118303789
        ]
      },
      "properties": {
        "iata": "REL",
        "aeropuerto": "Trelew",
        "lon": -65.2686989064,
        "lat": -43.2118303789,
        "pax_total_2025": 289314,
        "pax_cabotaje_2025": 289311,
        "pax_internacional_2025": 3,
        "ingresos_no_aeronauticos_2025_usd": 4187783.42,
        "actividades_conexas_transporte_aerocomercial_2025_usd": 3889053.97,
        "actividades_secundarias_aeropuerto_2025_usd": 115931.35,
        "explotacion_comercial_aeropuerto_2025_usd": 182798.1,
        "control_suma_categorias_2025_usd": 4187783.42,
        "control_diferencia_vs_total_usd": 0.0,
        "prop_conexas": 0.9286664511,
        "prop_secundarias": 0.0276832246,
        "prop_explotacion_comercial": 0.0436503243,
        "metodo_proporciones": "Directo 2022",
        "iata_proporcion_usada": "REL",
        "aeropuerto_proporcion_usada": "Trelew",
        "pax_proporcion_usada_2025": 289314,
        "dif_pax_con_donante": 0,
        "observaciones": "",
        "ingresos_aeronauticos_2025_usd": 337363.03,
        "pba_2025_usd": 4525146.45,
        "empleo_aeroportuario_total_2025": 1422.2268,
        "beneficios_al_pax_2025_usd": 4269820.78,
        "impacto_economico_positivo_usd": 46204703.13,
        "impacto_economico_negativo_usd": 12368607.36,
        "saldo_impactos_totales_usd": 33836095.77
      }
    },
    {
      "type": "Feature",
      "id": "RES",
      "geometry": {
        "type": "Point",
        "coordinates": [
          -59.0572367358,
          -27.4527672781
        ]
      },
      "properties": {
        "iata": "RES",
        "aeropuerto": "Resistencia",
        "lon": -59.0572367358,
        "lat": -27.4527672781,
        "pax_total_2025": 226656,
        "pax_cabotaje_2025": 226626,
        "pax_internacional_2025": 30,
        "ingresos_no_aeronauticos_2025_usd": 3547396.1,
        "actividades_conexas_transporte_aerocomercial_2025_usd": 2862179.33,
        "actividades_secundarias_aeropuerto_2025_usd": 168551.92,
        "explotacion_comercial_aeropuerto_2025_usd": 516664.84,
        "control_suma_categorias_2025_usd": 3547396.1,
        "control_diferencia_vs_total_usd": 0.0,
        "prop_conexas": 0.8068395103,
        "prop_secundarias": 0.0475142666,
        "prop_explotacion_comercial": 0.1456462231,
        "metodo_proporciones": "Directo 2022",
        "iata_proporcion_usada": "RES",
        "aeropuerto_proporcion_usada": "Resistencia",
        "pax_proporcion_usada_2025": 226656,
        "dif_pax_con_donante": 0,
        "observaciones": "",
        "ingresos_aeronauticos_2025_usd": 557759.99,
        "pba_2025_usd": 4105156.09,
        "empleo_aeroportuario_total_2025": 3327.8248,
        "beneficios_al_pax_2025_usd": 4152260.41,
        "impacto_economico_positivo_usd": 51156332.59,
        "impacto_economico_negativo_usd": 36577926.04,
        "saldo_impactos_totales_usd": 14578406.55
      }
    },
    {
      "type": "Feature",
      "id": "RGA",
      "geometry": {
        "type": "Point",
        "coordinates": [
          -67.7530829771,
          -53.7778402388
        ]
      },
      "properties": {
        "iata": "RGA",
        "aeropuerto": "Río Grande",
        "lon": -67.7530829771,
        "lat": -53.7778402388,
        "pax_total_2025": 142124,
        "pax_cabotaje_2025": 142120,
        "pax_internacional_2025": 4,
        "ingresos_no_aeronauticos_2025_usd": 7377411.48,
        "actividades_conexas_transporte_aerocomercial_2025_usd": 7165080.95,
        "actividades_secundarias_aeropuerto_2025_usd": 0.0,
        "explotacion_comercial_aeropuerto_2025_usd": 212330.53,
        "control_suma_categorias_2025_usd": 7377411.48,
        "control_diferencia_vs_total_usd": 0.0,
        "prop_conexas": 0.9712188305,
        "prop_secundarias": 0.0,
        "prop_explotacion_comercial": 0.0287811695,
        "metodo_proporciones": "Directo 2022",
        "iata_proporcion_usada": "RGA",
        "aeropuerto_proporcion_usada": "Río Grande",
        "pax_proporcion_usada_2025": 142124,
        "dif_pax_con_donante": 0,
        "observaciones": "",
        "ingresos_aeronauticos_2025_usd": 330040.19,
        "pba_2025_usd": 7707451.68,
        "empleo_aeroportuario_total_2025": 1403.6356,
        "beneficios_al_pax_2025_usd": 4263502.31,
        "impacto_economico_positivo_usd": 32081285.82,
        "impacto_economico_negativo_usd": 19149666.92,
        "saldo_impactos_totales_usd": 12931618.9
      }
    },
    {
      "type": "Feature",
      "id": "RGL",
      "geometry": {
        "type": "Point",
        "coordinates": [
          -69.3079189026,
          -51.6089507962
        ]
      },
      "properties": {
        "iata": "RGL",
        "aeropuerto": "Río Gallegos",
        "lon": -69.3079189026,
        "lat": -51.6089507962,
        "pax_total_2025": 129665,
        "pax_cabotaje_2025": 129649,
        "pax_internacional_2025": 16,
        "ingresos_no_aeronauticos_2025_usd": 4278095.77,
        "actividades_conexas_transporte_aerocomercial_2025_usd": 4155174.92,
        "actividades_secundarias_aeropuerto_2025_usd": 47703.3,
        "explotacion_comercial_aeropuerto_2025_usd": 75217.55,
        "control_suma_categorias_2025_usd": 4278095.77,
        "control_diferencia_vs_total_usd": 0.0,
        "prop_conexas": 0.9712673931,
        "prop_secundarias": 0.0111505908,
        "prop_explotacion_comercial": 0.0175820162,
        "metodo_proporciones": "Directo 2022",
        "iata_proporcion_usada": "RGL",
        "aeropuerto_proporcion_usada": "Río Gallegos",
        "pax_proporcion_usada_2025": 129665,
        "dif_pax_con_donante": 0,
        "observaciones": "",
        "ingresos_aeronauticos_2025_usd": 233352.16,
        "pba_2025_usd": 4511447.93,
        "empleo_aeroportuario_total_2025": 2291.3654,
        "beneficios_al_pax_2025_usd": 3371887.32,
        "impacto_economico_positivo_usd": 45213331.68,
        "impacto_economico_negativo_usd": 33665972.81,
        "saldo_impactos_totales_usd": 11547358.88
      }
    },
    {
      "type": "Feature",
      "id": "RHD",
      "geometry": {
        "type": "Point",
        "coordinates": [
          -64.9379400962,
          -27.5090276342
        ]
      },
      "properties": {
        "iata": "RHD",
        "aeropuerto": "Termas de Rio Hondo",
        "lon": -64.9379400962,
        "lat": -27.5090276342,
        "pax_total_2025": 19617,
        "pax_cabotaje_2025": 19597,
        "pax_internacional_2025": 20,
        "ingresos_no_aeronauticos_2025_usd": 295734.87,
        "actividades_conexas_transporte_aerocomercial_2025_usd": 284984.64,
        "actividades_secundarias_aeropuerto_2025_usd": 4146.99,
        "explotacion_comercial_aeropuerto_2025_usd": 6603.24,
        "control_suma_categorias_2025_usd": 295734.87,
        "control_diferencia_vs_total_usd": 0.0,
        "prop_conexas": 0.9636490982,
        "prop_secundarias": 0.0140226563,
        "prop_explotacion_comercial": 0.0223282455,
        "metodo_proporciones": "Directo 2022",
        "iata_proporcion_usada": "RHD",
        "aeropuerto_proporcion_usada": "Termas de Rio Hondo",
        "pax_proporcion_usada_2025": 19617,
        "dif_pax_con_donante": 0,
        "observaciones": "",
        "ingresos_aeronauticos_2025_usd": 62823.25,
        "pba_2025_usd": 358558.13,
        "empleo_aeroportuario_total_2025": 534.497,
        "beneficios_al_pax_2025_usd": 153121.5,
        "impacto_economico_positivo_usd": 6821621.9,
        "impacto_economico_negativo_usd": 1500077.62,
        "saldo_impactos_totales_usd": 5321544.28
      }
    },
    {
      "type": "Feature",
      "id": "RLO",
      "geometry": {
        "type": "Point",
        "coordinates": [
          -65.1857694216,
          -32.3843821704
        ]
      },
      "properties": {
        "iata": "RLO",
        "aeropuerto": "Valle del Conlara/Merlo",
        "lon": -65.1857694216,
        "lat": -32.3843821704,
        "pax_total_2025": 13881,
        "pax_cabotaje_2025": 13876,
        "pax_internacional_2025": 5,
        "ingresos_no_aeronauticos_2025_usd": 135.78,
        "actividades_conexas_transporte_aerocomercial_2025_usd": 131.69,
        "actividades_secundarias_aeropuerto_2025_usd": 3.37,
        "explotacion_comercial_aeropuerto_2025_usd": 0.72,
        "control_suma_categorias_2025_usd": 135.78,
        "control_diferencia_vs_total_usd": 0.0,
        "prop_conexas": 0.969894404,
        "prop_secundarias": 0.0248141978,
        "prop_explotacion_comercial": 0.0052913983,
        "metodo_proporciones": "Imputado por similitud pax 2025",
        "iata_proporcion_usada": "RCU",
        "aeropuerto_proporcion_usada": "Río Cuarto",
        "pax_proporcion_usada_2025": 12078,
        "dif_pax_con_donante": 1803,
        "observaciones": "Proporciones tomadas de RCU por cercanía en pax totales 2025",
        "ingresos_aeronauticos_2025_usd": 5569.19,
        "pba_2025_usd": 5704.97,
        "empleo_aeroportuario_total_2025": 125.4906,
        "beneficios_al_pax_2025_usd": 72561.83,
        "impacto_economico_positivo_usd": 1632194.92,
        "impacto_economico_negativo_usd": 491587.39,
        "saldo_impactos_totales_usd": 1140607.53
      }
    },
    {
      "type": "Feature",
      "id": "ROS",
      "geometry": {
        "type": "Point",
        "coordinates": [
          -60.7852315547,
          -32.9097209663
        ]
      },
      "properties": {
        "iata": "ROS",
        "aeropuerto": "Rosario",
        "lon": -60.7852315547,
        "lat": -32.9097209663,
        "pax_total_2025": 406734,
        "pax_cabotaje_2025": 195543,
        "pax_internacional_2025": 211191,
        "ingresos_no_aeronauticos_2025_usd": 21528331.13,
        "actividades_conexas_transporte_aerocomercial_2025_usd": 17293708.11,
        "actividades_secundarias_aeropuerto_2025_usd": 139329.26,
        "explotacion_comercial_aeropuerto_2025_usd": 4095293.77,
        "control_suma_categorias_2025_usd": 21528331.13,
        "control_diferencia_vs_total_usd": 0.0,
        "prop_conexas": 0.8032999865,
        "prop_secundarias": 0.0064719023,
        "prop_explotacion_comercial": 0.1902281112,
        "metodo_proporciones": "Directo 2022",
        "iata_proporcion_usada": "ROS",
        "aeropuerto_proporcion_usada": "Rosario",
        "pax_proporcion_usada_2025": 406734,
        "dif_pax_con_donante": 0,
        "observaciones": "",
        "ingresos_aeronauticos_2025_usd": 2363025.71,
        "pba_2025_usd": 23891356.84,
        "empleo_aeroportuario_total_2025": 8138.2978,
        "beneficios_al_pax_2025_usd": 18659821.84,
        "impacto_economico_positivo_usd": 108536821.01,
        "impacto_economico_negativo_usd": 113871900.51,
        "saldo_impactos_totales_usd": -5335079.5
      }
    },
    {
      "type": "Feature",
      "id": "RSA",
      "geometry": {
        "type": "Point",
        "coordinates": [
          -64.2748450739,
          -36.5857800431
        ]
      },
      "properties": {
        "iata": "RSA",
        "aeropuerto": "La Pampa",
        "lon": -64.2748450739,
        "lat": -36.5857800431,
        "pax_total_2025": 42459,
        "pax_cabotaje_2025": 42446,
        "pax_internacional_2025": 13,
        "ingresos_no_aeronauticos_2025_usd": 578193.59,
        "actividades_conexas_transporte_aerocomercial_2025_usd": 561718.77,
        "actividades_secundarias_aeropuerto_2025_usd": 14615.64,
        "explotacion_comercial_aeropuerto_2025_usd": 1859.18,
        "control_suma_categorias_2025_usd": 578193.59,
        "control_diferencia_vs_total_usd": 0.0,
        "prop_conexas": 0.971506392,
        "prop_secundarias": 0.0252781049,
        "prop_explotacion_comercial": 0.0032155031,
        "metodo_proporciones": "Directo 2022",
        "iata_proporcion_usada": "RSA",
        "aeropuerto_proporcion_usada": "La Pampa",
        "pax_proporcion_usada_2025": 42459,
        "dif_pax_con_donante": 0,
        "observaciones": "",
        "ingresos_aeronauticos_2025_usd": 78698.38,
        "pba_2025_usd": 656891.97,
        "empleo_aeroportuario_total_2025": 855.1952,
        "beneficios_al_pax_2025_usd": 557756.43,
        "impacto_economico_positivo_usd": 7039523.5,
        "impacto_economico_negativo_usd": 4215997.67,
        "saldo_impactos_totales_usd": 2823525.84
      }
    },
    {
      "type": "Feature",
      "id": "RYO",
      "geometry": {
        "type": "Point",
        "coordinates": [
          -72.2237137399,
          -51.604785793
        ]
      },
      "properties": {
        "iata": "RYO",
        "aeropuerto": "El Turbio/28 de Noviembre",
        "lon": -72.2237137399,
        "lat": -51.604785793,
        "pax_total_2025": 17,
        "pax_cabotaje_2025": 17,
        "pax_internacional_2025": 0,
        "ingresos_no_aeronauticos_2025_usd": 56.25,
        "actividades_conexas_transporte_aerocomercial_2025_usd": 55.92,
        "actividades_secundarias_aeropuerto_2025_usd": 0.0,
        "explotacion_comercial_aeropuerto_2025_usd": 0.34,
        "control_suma_categorias_2025_usd": 56.25,
        "control_diferencia_vs_total_usd": 0.0,
        "prop_conexas": 0.9939667876,
        "prop_secundarias": 0.0,
        "prop_explotacion_comercial": 0.0060332124,
        "metodo_proporciones": "Imputado por similitud pax 2025",
        "iata_proporcion_usada": "LGS",
        "aeropuerto_proporcion_usada": "Malargüe",
        "pax_proporcion_usada_2025": 199,
        "dif_pax_con_donante": 182,
        "observaciones": "Proporciones tomadas de LGS por cercanía en pax totales 2025",
        "ingresos_aeronauticos_2025_usd": 26.58,
        "pba_2025_usd": 82.84,
        "empleo_aeroportuario_total_2025": 23.239,
        "beneficios_al_pax_2025_usd": 0.0,
        "impacto_economico_positivo_usd": 82.84,
        "impacto_economico_negativo_usd": 0.0,
        "saldo_impactos_totales_usd": 82.84
      }
    },
    {
      "type": "Feature",
      "id": "SDE",
      "geometry": {
        "type": "Point",
        "coordinates": [
          -64.3100211158,
          -27.7660696693
        ]
      },
      "properties": {
        "iata": "SDE",
        "aeropuerto": "Santiago del Estero",
        "lon": -64.3100211158,
        "lat": -27.7660696693,
        "pax_total_2025": 221905,
        "pax_cabotaje_2025": 221434,
        "pax_internacional_2025": 471,
        "ingresos_no_aeronauticos_2025_usd": 3556777.48,
        "actividades_conexas_transporte_aerocomercial_2025_usd": 3278168.67,
        "actividades_secundarias_aeropuerto_2025_usd": 74637.59,
        "explotacion_comercial_aeropuerto_2025_usd": 203971.22,
        "control_suma_categorias_2025_usd": 3556777.48,
        "control_diferencia_vs_total_usd": 0.0,
        "prop_conexas": 0.9216681925,
        "prop_secundarias": 0.0209846114,
        "prop_explotacion_comercial": 0.0573471961,
        "metodo_proporciones": "Directo 2022",
        "iata_proporcion_usada": "SDE",
        "aeropuerto_proporcion_usada": "Santiago del Estero",
        "pax_proporcion_usada_2025": 221905,
        "dif_pax_con_donante": 0,
        "observaciones": "",
        "ingresos_aeronauticos_2025_usd": 531733.93,
        "pba_2025_usd": 4088511.41,
        "empleo_aeroportuario_total_2025": 1106.1764,
        "beneficios_al_pax_2025_usd": 2536035.71,
        "impacto_economico_positivo_usd": 36526229.31,
        "impacto_economico_negativo_usd": 22957703.46,
        "saldo_impactos_totales_usd": 13568525.85
      }
    },
    {
      "type": "Feature",
      "id": "SFN",
      "geometry": {
        "type": "Point",
        "coordinates": [
          -60.8118014885,
          -31.7114170682
        ]
      },
      "properties": {
        "iata": "SFN",
        "aeropuerto": "Sauce Viejo",
        "lon": -60.8118014885,
        "lat": -31.7114170682,
        "pax_total_2025": 104349,
        "pax_cabotaje_2025": 103789,
        "pax_internacional_2025": 560,
        "ingresos_no_aeronauticos_2025_usd": 1968616.41,
        "actividades_conexas_transporte_aerocomercial_2025_usd": 1800308.33,
        "actividades_secundarias_aeropuerto_2025_usd": 15921.15,
        "explotacion_comercial_aeropuerto_2025_usd": 152386.93,
        "control_suma_categorias_2025_usd": 1968616.41,
        "control_diferencia_vs_total_usd": 0.0,
        "prop_conexas": 0.9145043815,
        "prop_secundarias": 0.0080874796,
        "prop_explotacion_comercial": 0.0774081389,
        "metodo_proporciones": "Directo 2022",
        "iata_proporcion_usada": "SFN",
        "aeropuerto_proporcion_usada": "Sauce Viejo",
        "pax_proporcion_usada_2025": 104349,
        "dif_pax_con_donante": 0,
        "observaciones": "",
        "ingresos_aeronauticos_2025_usd": 208700.44,
        "pba_2025_usd": 2177316.85,
        "empleo_aeroportuario_total_2025": 1440.818,
        "beneficios_al_pax_2025_usd": 1783103.94,
        "impacto_economico_positivo_usd": 15882574.05,
        "impacto_economico_negativo_usd": 4675861.35,
        "saldo_impactos_totales_usd": 11206712.7
      }
    },
    {
      "type": "Feature",
      "id": "SLA",
      "geometry": {
        "type": "Point",
        "coordinates": [
          -65.4843872447,
          -24.853779839
        ]
      },
      "properties": {
        "iata": "SLA",
        "aeropuerto": "Salta",
        "lon": -65.4843872447,
        "lat": -24.853779839,
        "pax_total_2025": 1469237,
        "pax_cabotaje_2025": 1373040,
        "pax_internacional_2025": 96197,
        "ingresos_no_aeronauticos_2025_usd": 37229246.17,
        "actividades_conexas_transporte_aerocomercial_2025_usd": 28340321.2,
        "actividades_secundarias_aeropuerto_2025_usd": 219456.82,
        "explotacion_comercial_aeropuerto_2025_usd": 8669468.15,
        "control_suma_categorias_2025_usd": 37229246.17,
        "control_diferencia_vs_total_usd": 0.0,
        "prop_conexas": 0.7612381156,
        "prop_secundarias": 0.0058947425,
        "prop_explotacion_comercial": 0.2328671419,
        "metodo_proporciones": "Directo 2022",
        "iata_proporcion_usada": "SLA",
        "aeropuerto_proporcion_usada": "Salta",
        "pax_proporcion_usada_2025": 1469237,
        "dif_pax_con_donante": 0,
        "observaciones": "",
        "ingresos_aeronauticos_2025_usd": 4029373.49,
        "pba_2025_usd": 41258619.66,
        "empleo_aeroportuario_total_2025": 4991.7372,
        "beneficios_al_pax_2025_usd": 19314925.08,
        "impacto_economico_positivo_usd": 277096586.69,
        "impacto_economico_negativo_usd": 136252833.94,
        "saldo_impactos_totales_usd": 140843752.75
      }
    },
    {
      "type": "Feature",
      "id": "SST",
      "geometry": {
        "type": "Point",
        "coordinates": [
          -56.7203057781,
          -36.5425734151
        ]
      },
      "properties": {
        "iata": "SST",
        "aeropuerto": "Santa Teresita",
        "lon": -56.7203057781,
        "lat": -36.5425734151,
        "pax_total_2025": 11,
        "pax_cabotaje_2025": 11,
        "pax_internacional_2025": 0,
        "ingresos_no_aeronauticos_2025_usd": 15.84,
        "actividades_conexas_transporte_aerocomercial_2025_usd": 15.74,
        "actividades_secundarias_aeropuerto_2025_usd": 0.0,
        "explotacion_comercial_aeropuerto_2025_usd": 0.1,
        "control_suma_categorias_2025_usd": 15.84,
        "control_diferencia_vs_total_usd": 0.0,
        "prop_conexas": 0.9939667876,
        "prop_secundarias": 0.0,
        "prop_explotacion_comercial": 0.0060332124,
        "metodo_proporciones": "Imputado por similitud pax 2025",
        "iata_proporcion_usada": "LGS",
        "aeropuerto_proporcion_usada": "Malargüe",
        "pax_proporcion_usada_2025": 199,
        "dif_pax_con_donante": 188,
        "observaciones": "Proporciones tomadas de LGS por cercanía en pax totales 2025",
        "ingresos_aeronauticos_2025_usd": 6.29,
        "pba_2025_usd": 22.13,
        "empleo_aeroportuario_total_2025": 23.239,
        "beneficios_al_pax_2025_usd": 0.0,
        "impacto_economico_positivo_usd": 22.13,
        "impacto_economico_negativo_usd": 0.0,
        "saldo_impactos_totales_usd": 22.13
      }
    },
    {
      "type": "Feature",
      "id": "TDL",
      "geometry": {
        "type": "Point",
        "coordinates": [
          -59.2288128944,
          -37.2362205798
        ]
      },
      "properties": {
        "iata": "TDL",
        "aeropuerto": "Tandil",
        "lon": -59.2288128944,
        "lat": -37.2362205798,
        "pax_total_2025": 796,
        "pax_cabotaje_2025": 796,
        "pax_internacional_2025": 0,
        "ingresos_no_aeronauticos_2025_usd": 35.99,
        "actividades_conexas_transporte_aerocomercial_2025_usd": 35.89,
        "actividades_secundarias_aeropuerto_2025_usd": 0.0,
        "explotacion_comercial_aeropuerto_2025_usd": 0.09,
        "control_suma_categorias_2025_usd": 35.99,
        "control_diferencia_vs_total_usd": 0.0,
        "prop_conexas": 0.9974066319,
        "prop_secundarias": 0.0,
        "prop_explotacion_comercial": 0.0025933681,
        "metodo_proporciones": "Imputado por similitud pax 2025",
        "iata_proporcion_usada": "RCQ",
        "aeropuerto_proporcion_usada": "Reconquista",
        "pax_proporcion_usada_2025": 1033,
        "dif_pax_con_donante": 237,
        "observaciones": "Proporciones tomadas de RCQ por cercanía en pax totales 2025",
        "ingresos_aeronauticos_2025_usd": 118.86,
        "pba_2025_usd": 154.85,
        "empleo_aeroportuario_total_2025": 23.239,
        "beneficios_al_pax_2025_usd": 11676.9,
        "impacto_economico_positivo_usd": 11831.75,
        "impacto_economico_negativo_usd": 0.0,
        "saldo_impactos_totales_usd": 11831.75
      }
    },
    {
      "type": "Feature",
      "id": "TTG",
      "geometry": {
        "type": "Point",
        "coordinates": [
          -63.79372687,
          -22.6186382952
        ]
      },
      "properties": {
        "iata": "TTG",
        "aeropuerto": "Tartagal",
        "lon": -63.79372687,
        "lat": -22.6186382952,
        "pax_total_2025": 365,
        "pax_cabotaje_2025": 365,
        "pax_internacional_2025": 0,
        "ingresos_no_aeronauticos_2025_usd": 119.26,
        "actividades_conexas_transporte_aerocomercial_2025_usd": 4.27,
        "actividades_secundarias_aeropuerto_2025_usd": 0.0,
        "explotacion_comercial_aeropuerto_2025_usd": 114.99,
        "control_suma_categorias_2025_usd": 119.26,
        "control_diferencia_vs_total_usd": 0.0,
        "prop_conexas": 0.0357881118,
        "prop_secundarias": 0.0,
        "prop_explotacion_comercial": 0.9642118882,
        "metodo_proporciones": "Imputado por similitud pax 2025",
        "iata_proporcion_usada": "VME",
        "aeropuerto_proporcion_usada": "Villa Mercedes",
        "pax_proporcion_usada_2025": 385,
        "dif_pax_con_donante": 20,
        "observaciones": "Proporciones tomadas de VME por cercanía en pax totales 2025",
        "ingresos_aeronauticos_2025_usd": 78.89,
        "pba_2025_usd": 198.15,
        "empleo_aeroportuario_total_2025": 23.239,
        "beneficios_al_pax_2025_usd": 12820.69,
        "impacto_economico_positivo_usd": 13018.84,
        "impacto_economico_negativo_usd": 0.0,
        "saldo_impactos_totales_usd": 13018.84
      }
    },
    {
      "type": "Feature",
      "id": "TUC",
      "geometry": {
        "type": "Point",
        "coordinates": [
          -65.1022544667,
          -26.835503409
        ]
      },
      "properties": {
        "iata": "TUC",
        "aeropuerto": "Tucumán",
        "lon": -65.1022544667,
        "lat": -26.835503409,
        "pax_total_2025": 871085,
        "pax_cabotaje_2025": 845911,
        "pax_internacional_2025": 25174,
        "ingresos_no_aeronauticos_2025_usd": 11700540.44,
        "actividades_conexas_transporte_aerocomercial_2025_usd": 9157691.29,
        "actividades_secundarias_aeropuerto_2025_usd": 138380.89,
        "explotacion_comercial_aeropuerto_2025_usd": 2404468.27,
        "control_suma_categorias_2025_usd": 11700540.44,
        "control_diferencia_vs_total_usd": 0.0,
        "prop_conexas": 0.7826725039,
        "prop_secundarias": 0.0118268801,
        "prop_explotacion_comercial": 0.2055006161,
        "metodo_proporciones": "Directo 2022",
        "iata_proporcion_usada": "TUC",
        "aeropuerto_proporcion_usada": "Tucumán",
        "pax_proporcion_usada_2025": 871085,
        "dif_pax_con_donante": 0,
        "observaciones": "",
        "ingresos_aeronauticos_2025_usd": 2762226.6,
        "pba_2025_usd": 14462767.04,
        "empleo_aeroportuario_total_2025": 2537.6988,
        "beneficios_al_pax_2025_usd": 15090706.84,
        "impacto_economico_positivo_usd": 141664015.89,
        "impacto_economico_negativo_usd": 104504867.51,
        "saldo_impactos_totales_usd": 37159148.39
      }
    },
    {
      "type": "Feature",
      "id": "UAQ",
      "geometry": {
        "type": "Point",
        "coordinates": [
          -68.4187752541,
          -31.5699102341
        ]
      },
      "properties": {
        "iata": "UAQ",
        "aeropuerto": "San Juan",
        "lon": -68.4187752541,
        "lat": -31.5699102341,
        "pax_total_2025": 202206,
        "pax_cabotaje_2025": 202204,
        "pax_internacional_2025": 2,
        "ingresos_no_aeronauticos_2025_usd": 2547951.33,
        "actividades_conexas_transporte_aerocomercial_2025_usd": 2300426.87,
        "actividades_secundarias_aeropuerto_2025_usd": 86660.01,
        "explotacion_comercial_aeropuerto_2025_usd": 160864.45,
        "control_suma_categorias_2025_usd": 2547951.33,
        "control_diferencia_vs_total_usd": 0.0,
        "prop_conexas": 0.9028535365,
        "prop_secundarias": 0.0340116412,
        "prop_explotacion_comercial": 0.0631348223,
        "metodo_proporciones": "Directo 2022",
        "iata_proporcion_usada": "UAQ",
        "aeropuerto_proporcion_usada": "San Juan",
        "pax_proporcion_usada_2025": 202206,
        "dif_pax_con_donante": 0,
        "observaciones": "",
        "ingresos_aeronauticos_2025_usd": 537356.85,
        "pba_2025_usd": 3085308.18,
        "empleo_aeroportuario_total_2025": 2412.2082,
        "beneficios_al_pax_2025_usd": 3258844.44,
        "impacto_economico_positivo_usd": 46293755.02,
        "impacto_economico_negativo_usd": 33593447.56,
        "saldo_impactos_totales_usd": 12700307.46
      }
    },
    {
      "type": "Feature",
      "id": "USH",
      "geometry": {
        "type": "Point",
        "coordinates": [
          -68.3081049861,
          -54.8435864009
        ]
      },
      "properties": {
        "iata": "USH",
        "aeropuerto": "Ushuaia",
        "lon": -68.3081049861,
        "lat": -54.8435864009,
        "pax_total_2025": 1128022,
        "pax_cabotaje_2025": 1123527,
        "pax_internacional_2025": 4495,
        "ingresos_no_aeronauticos_2025_usd": 23944965.95,
        "actividades_conexas_transporte_aerocomercial_2025_usd": 18393630.53,
        "actividades_secundarias_aeropuerto_2025_usd": 130301.16,
        "explotacion_comercial_aeropuerto_2025_usd": 5421034.27,
        "control_suma_categorias_2025_usd": 23944965.95,
        "control_diferencia_vs_total_usd": 0.0,
        "prop_conexas": 0.7681627345,
        "prop_secundarias": 0.0054416933,
        "prop_explotacion_comercial": 0.2263955721,
        "metodo_proporciones": "Directo 2022",
        "iata_proporcion_usada": "USH",
        "aeropuerto_proporcion_usada": "Ushuaia",
        "pax_proporcion_usada_2025": 1128022,
        "dif_pax_con_donante": 0,
        "observaciones": "",
        "ingresos_aeronauticos_2025_usd": 1892431.03,
        "pba_2025_usd": 25837396.98,
        "empleo_aeroportuario_total_2025": 3383.5984,
        "beneficios_al_pax_2025_usd": 10070885.96,
        "impacto_economico_positivo_usd": 423666864.53,
        "impacto_economico_negativo_usd": 28129190.31,
        "saldo_impactos_totales_usd": 395537674.22
      }
    },
    {
      "type": "Feature",
      "id": "VDM",
      "geometry": {
        "type": "Point",
        "coordinates": [
          -62.9992672146,
          -40.8698946723
        ]
      },
      "properties": {
        "iata": "VDM",
        "aeropuerto": "Viedma",
        "lon": -62.9992672146,
        "lat": -40.8698946723,
        "pax_total_2025": 35270,
        "pax_cabotaje_2025": 35270,
        "pax_internacional_2025": 0,
        "ingresos_no_aeronauticos_2025_usd": 797742.3,
        "actividades_conexas_transporte_aerocomercial_2025_usd": 754314.53,
        "actividades_secundarias_aeropuerto_2025_usd": 32349.81,
        "explotacion_comercial_aeropuerto_2025_usd": 11077.96,
        "control_suma_categorias_2025_usd": 797742.3,
        "control_diferencia_vs_total_usd": 0.0,
        "prop_conexas": 0.9455616635,
        "prop_secundarias": 0.0405516996,
        "prop_explotacion_comercial": 0.0138866369,
        "metodo_proporciones": "Directo 2022",
        "iata_proporcion_usada": "VDM",
        "aeropuerto_proporcion_usada": "Viedma",
        "pax_proporcion_usada_2025": 35270,
        "dif_pax_con_donante": 0,
        "observaciones": "",
        "ingresos_aeronauticos_2025_usd": 71231.94,
        "pba_2025_usd": 868974.24,
        "empleo_aeroportuario_total_2025": 501.9624,
        "beneficios_al_pax_2025_usd": 663759.3,
        "impacto_economico_positivo_usd": 7630262.4,
        "impacto_economico_negativo_usd": 5444298.19,
        "saldo_impactos_totales_usd": 2185964.21
      }
    },
    {
      "type": "Feature",
      "id": "VLG",
      "geometry": {
        "type": "Point",
        "coordinates": [
          -57.0291239481,
          -37.2349152025
        ]
      },
      "properties": {
        "iata": "VLG",
        "aeropuerto": "Villa Gesell",
        "lon": -57.0291239481,
        "lat": -37.2349152025,
        "pax_total_2025": 265,
        "pax_cabotaje_2025": 265,
        "pax_internacional_2025": 0,
        "ingresos_no_aeronauticos_2025_usd": 109.51,
        "actividades_conexas_transporte_aerocomercial_2025_usd": 108.85,
        "actividades_secundarias_aeropuerto_2025_usd": 0.0,
        "explotacion_comercial_aeropuerto_2025_usd": 0.66,
        "control_suma_categorias_2025_usd": 109.51,
        "control_diferencia_vs_total_usd": 0.0,
        "prop_conexas": 0.9939667876,
        "prop_secundarias": 0.0,
        "prop_explotacion_comercial": 0.0060332124,
        "metodo_proporciones": "Imputado por similitud pax 2025",
        "iata_proporcion_usada": "LGS",
        "aeropuerto_proporcion_usada": "Malargüe",
        "pax_proporcion_usada_2025": 199,
        "dif_pax_con_donante": 66,
        "observaciones": "Proporciones tomadas de LGS por cercanía en pax totales 2025",
        "ingresos_aeronauticos_2025_usd": 113.54,
        "pba_2025_usd": 223.05,
        "empleo_aeroportuario_total_2025": 97.6038,
        "beneficios_al_pax_2025_usd": 1537.69,
        "impacto_economico_positivo_usd": 1760.73,
        "impacto_economico_negativo_usd": 0.0,
        "saldo_impactos_totales_usd": 1760.73
      }
    },
    {
      "type": "Feature",
      "id": "VME",
      "geometry": {
        "type": "Point",
        "coordinates": [
          -65.3861281049,
          -33.7298068287
        ]
      },
      "properties": {
        "iata": "VME",
        "aeropuerto": "Villa Mercedes",
        "lon": -65.3861281049,
        "lat": -33.7298068287,
        "pax_total_2025": 385,
        "pax_cabotaje_2025": 385,
        "pax_internacional_2025": 0,
        "ingresos_no_aeronauticos_2025_usd": 15666.83,
        "actividades_conexas_transporte_aerocomercial_2025_usd": 560.69,
        "actividades_secundarias_aeropuerto_2025_usd": 0.0,
        "explotacion_comercial_aeropuerto_2025_usd": 15106.14,
        "control_suma_categorias_2025_usd": 15666.83,
        "control_diferencia_vs_total_usd": 0.0,
        "prop_conexas": 0.0357881118,
        "prop_secundarias": 0.0,
        "prop_explotacion_comercial": 0.9642118882,
        "metodo_proporciones": "Directo 2022",
        "iata_proporcion_usada": "VME",
        "aeropuerto_proporcion_usada": "Villa Mercedes",
        "pax_proporcion_usada_2025": 385,
        "dif_pax_con_donante": 0,
        "observaciones": "",
        "ingresos_aeronauticos_2025_usd": 633.0,
        "pba_2025_usd": 16299.83,
        "empleo_aeroportuario_total_2025": 74.3648,
        "beneficios_al_pax_2025_usd": 390.09,
        "impacto_economico_positivo_usd": 16689.91,
        "impacto_economico_negativo_usd": 0.0,
        "saldo_impactos_totales_usd": 16689.91
      }
    }
  ]
}