{
    "type": "FeatureCollection",
    "name": "ResumenImpacto2025(new)",
    "features": [
        {
            "type": "Feature",
            "properties": {
                "Aeropuerto IATA": "AEP",
                "Aeropuerto": "Aeroparque",
                "X": -58.413419023899898,
                "Y": -34.560585538399899,
                "EmpleoDirecto2025": 9171,
                "EmpleoIndirecto2025": 10203.6546,
                "EmpleoInducido2025": 6587.5293,
                "EmpleoCatalítico2025": 16662.7899,
                "EmpleoAeropTotal2025": 42624.9738,
                "Beneficios al pax 2025 (USD)": 366043215.25838172,
                "Productividad (USD)2022": 17988086123.381428,
                "TNE (USD)2025": 1486016582.6511767,
                "TNR (USD)2025": 1196035264.0721099,
                "STN (USD)2025": -289981318.57906675,
                "TIE (USD)2025": 599312047.52685702,
                "TIR (USD)2025": 685690186.79947054,
                "STI (USD)2025": 86378139.272613525,
                "Saldo del Turismo Receptivo (USD)2023": 1881725450.8715806,
                "Saldo del Turismo Emisivo (USD)2023": 2085328630.1780338,
                "Saldo del Turismo (USD)2023": -203603179.30645323,
                "ingresos aeronáuticos 2025 USD": 180694276.61221495,
                "Ingresos no aeronáuticos 2025 USD": 1244683239.1198773,
                "PBA 2025 USD": 1425377515.7320924,
                "Impacto económico positivo": 3673146181.8620548,
                "Impacto económico negativo USD": 2085328630.1780338,
                "Saldo de impactos totales (USD)": 1587817551.684021,
                "Link": null
            },
            "geometry": null
        },
        {
            "type": "Feature",
            "properties": {
                "Aeropuerto IATA": "AFA",
                "Aeropuerto": "San Rafael",
                "X": -68.403199868200005,
                "Y": -34.588315369599897,
                "EmpleoDirecto2025": 171,
                "EmpleoIndirecto2025": 190.2546,
                "EmpleoInducido2025": 122.8293,
                "EmpleoCatalítico2025": 310.6899,
                "EmpleoAeropTotal2025": 794.7738,
                "Beneficios al pax 2025 (USD)": 445993.9335066746,
                "Productividad (USD)2022": 334348818.29765922,
                "TNE (USD)2025": 3522836.5996809299,
                "TNR (USD)2025": 10551580.109823648,
                "STN (USD)2025": 7028743.5101427175,
                "TIE (USD)2025": 594121.71076205419,
                "TIR (USD)2025": 1015182.0930051431,
                "STI (USD)2025": 421060.38224308891,
                "Saldo del Turismo Receptivo (USD)2023": 11566762.202828791,
                "Saldo del Turismo Emisivo (USD)2023": 4116958.3104429841,
                "Saldo del Turismo (USD)2023": 7449803.8923858069,
                "ingresos aeronáuticos 2025 USD": 101847.71996426444,
                "Ingresos no aeronáuticos 2025 USD": 630203.72152169456,
                "PBA 2025 USD": 732051.44148595899,
                "Impacto económico positivo": 12744807.577821424,
                "Impacto económico negativo USD": 4116958.3104429841,
                "Saldo de impactos totales (USD)": 8627849.2673784401,
                "Link": null
            },
            "geometry": null
        },
        {
            "type": "Feature",
            "properties": {
                "Aeropuerto IATA": "AOL",
                "Aeropuerto": "Paso de los Libres",
                "X": -57.152067419399899,
                "Y": -29.6892685077,
                "EmpleoDirecto2025": 20,
                "EmpleoIndirecto2025": 22.252,
                "EmpleoInducido2025": 14.366,
                "EmpleoCatalítico2025": 36.338,
                "EmpleoAeropTotal2025": 92.956,
                "Beneficios al pax 2025 (USD)": 1635.864623956378,
                "Productividad (USD)2022": 0.0,
                "TNE (USD)2025": 0.0,
                "TNR (USD)2025": 0.0,
                "STN (USD)2025": 0.0,
                "TIE (USD)2025": 0.0,
                "TIR (USD)2025": 0.0,
                "STI (USD)2025": 0.0,
                "Saldo del Turismo Receptivo (USD)2023": 0.0,
                "Saldo del Turismo Emisivo (USD)2023": 0.0,
                "Saldo del Turismo (USD)2023": 0.0,
                "ingresos aeronáuticos 2025 USD": 122.7929245267939,
                "Ingresos no aeronáuticos 2025 USD": 8757.6035228691417,
                "PBA 2025 USD": 8880.396447395935,
                "Impacto económico positivo": 10516.261071352314,
                "Impacto económico negativo USD": 0.0,
                "Saldo de impactos totales (USD)": 10516.261071352314,
                "Link": null
            },
            "geometry": null
        },
        {
            "type": "Feature",
            "properties": {
                "Aeropuerto IATA": "BHI",
                "Aeropuerto": "Bahía Blanca",
                "X": -62.153798479300001,
                "Y": -38.723675342200004,
                "EmpleoDirecto2025": 306,
                "EmpleoIndirecto2025": 340.4556,
                "EmpleoInducido2025": 219.7998,
                "EmpleoCatalítico2025": 555.9714,
                "EmpleoAeropTotal2025": 1422.2268,
                "Beneficios al pax 2025 (USD)": 4288019.839429725,
                "Productividad (USD)2022": 568278124.52876961,
                "TNE (USD)2025": 10459381.780498339,
                "TNR (USD)2025": 9627723.7694915105,
                "STN (USD)2025": -831658.0110068284,
                "TIE (USD)2025": 9743005.665398838,
                "TIR (USD)2025": 6775840.0237026243,
                "STI (USD)2025": -2967165.6416962137,
                "Saldo del Turismo Receptivo (USD)2023": 16403563.793194134,
                "Saldo del Turismo Emisivo (USD)2023": 20202387.445897177,
                "Saldo del Turismo (USD)2023": -3798823.6527030431,
                "ingresos aeronáuticos 2025 USD": 1263062.6074428414,
                "Ingresos no aeronáuticos 2025 USD": 3063639.4739262518,
                "PBA 2025 USD": 4326702.0813690927,
                "Impacto económico positivo": 25018285.713992953,
                "Impacto económico negativo USD": 20202387.445897177,
                "Saldo de impactos totales (USD)": 4815898.2680957764,
                "Link": null
            },
            "geometry": null
        },
        {
            "type": "Feature",
            "properties": {
                "Aeropuerto IATA": "BRC",
                "Aeropuerto": "Bariloche",
                "X": -71.159307878999897,
                "Y": -41.1503194338,
                "EmpleoDirecto2025": 1060,
                "EmpleoIndirecto2025": 1179.356,
                "EmpleoInducido2025": 761.398,
                "EmpleoCatalítico2025": 1925.914,
                "EmpleoAeropTotal2025": 4926.668,
                "Beneficios al pax 2025 (USD)": 23172117.134867169,
                "Productividad (USD)2022": 85744079.995494217,
                "TNE (USD)2025": 156609797.88755307,
                "TNR (USD)2025": 327226742.77228755,
                "STN (USD)2025": 170616944.88473448,
                "TIE (USD)2025": 16355177.709197715,
                "TIR (USD)2025": 85211358.08028011,
                "STI (USD)2025": 68856180.371082395,
                "Saldo del Turismo Receptivo (USD)2023": 412438100.85256767,
                "Saldo del Turismo Emisivo (USD)2023": 172964975.5967508,
                "Saldo del Turismo (USD)2023": 239473125.25581688,
                "ingresos aeronáuticos 2025 USD": 11793809.397009606,
                "Ingresos no aeronáuticos 2025 USD": 65902602.588316701,
                "PBA 2025 USD": 77696411.985326305,
                "Impacto económico positivo": 513306629.97276115,
                "Impacto económico negativo USD": 172964975.5967508,
                "Saldo de impactos totales (USD)": 340341654.37601036,
                "Link": "https://www.argentina.gob.ar/sites/default/files/2018/12/iset_brc_2021.pdf"
            },
            "geometry": null
        },
        {
            "type": "Feature",
            "properties": {
                "Aeropuerto IATA": "CNQ",
                "Aeropuerto": "Corrientes",
                "X": -58.762013252099898,
                "Y": -27.448163737600002,
                "EmpleoDirecto2025": 472,
                "EmpleoIndirecto2025": 525.1472,
                "EmpleoInducido2025": 339.0376,
                "EmpleoCatalítico2025": 857.5768,
                "EmpleoAeropTotal2025": 2193.7616,
                "Beneficios al pax 2025 (USD)": 3266224.154999814,
                "Productividad (USD)2022": 119628736.24529991,
                "TNE (USD)2025": 12489491.111956079,
                "TNR (USD)2025": 13735006.741819093,
                "STN (USD)2025": 1245515.6298630144,
                "TIE (USD)2025": 1379340.5177588144,
                "TIR (USD)2025": 4947684.345429793,
                "STI (USD)2025": 3568343.8276709784,
                "Saldo del Turismo Receptivo (USD)2023": 18682691.087248884,
                "Saldo del Turismo Emisivo (USD)2023": 13868831.629714893,
                "Saldo del Turismo (USD)2023": 4813859.457533991,
                "ingresos aeronáuticos 2025 USD": 362309.88934236014,
                "Ingresos no aeronáuticos 2025 USD": 2768321.7598940856,
                "PBA 2025 USD": 3130631.6492364458,
                "Impacto económico positivo": 25079546.891485143,
                "Impacto económico negativo USD": 13868831.629714893,
                "Saldo de impactos totales (USD)": 11210715.26177025,
                "Link": null
            },
            "geometry": null
        },
        {
            "type": "Feature",
            "properties": {
                "Aeropuerto IATA": "COR",
                "Aeropuerto": "Córdoba",
                "X": -64.2082032341999,
                "Y": -31.315580877599899,
                "EmpleoDirecto2025": 2293,
                "EmpleoIndirecto2025": 2551.1918,
                "EmpleoInducido2025": 1647.0619,
                "EmpleoCatalítico2025": 4166.1517,
                "EmpleoAeropTotal2025": 10657.4054,
                "Beneficios al pax 2025 (USD)": 109011737.6733117,
                "Productividad (USD)2022": 1261923127.4289865,
                "TNE (USD)2025": 248079720.2574763,
                "TNR (USD)2025": 204230130.1289857,
                "STN (USD)2025": -43849590.128490597,
                "TIE (USD)2025": 189092583.96539173,
                "TIR (USD)2025": 116209287.28573798,
                "STI (USD)2025": -72883296.679653749,
                "Saldo del Turismo Receptivo (USD)2023": 320439417.41472369,
                "Saldo del Turismo Emisivo (USD)2023": 437172304.22286803,
                "Saldo del Turismo (USD)2023": -116732886.80814433,
                "ingresos aeronáuticos 2025 USD": 33035615.539132025,
                "Ingresos no aeronáuticos 2025 USD": 154946962.51274541,
                "PBA 2025 USD": 187982578.05187744,
                "Impacto económico positivo": 617433733.13991284,
                "Impacto económico negativo USD": 437172304.22286803,
                "Saldo de impactos totales (USD)": 180261428.91704482,
                "Link": "https://www.argentina.gob.ar/sites/default/files/2018/12/iset_cor_2021_0.pdf"
            },
            "geometry": null
        },
        {
            "type": "Feature",
            "properties": {
                "Aeropuerto IATA": "CPC",
                "Aeropuerto": "Chapelco",
                "X": -71.140680852000003,
                "Y": -40.076701042400003,
                "EmpleoDirecto2025": 327,
                "EmpleoIndirecto2025": 363.8202,
                "EmpleoInducido2025": 234.8841,
                "EmpleoCatalítico2025": 594.1263,
                "EmpleoAeropTotal2025": 1519.8306,
                "Beneficios al pax 2025 (USD)": 2212364.5135385101,
                "Productividad (USD)2022": 67750446.873698056,
                "TNE (USD)2025": 4068805.0714585306,
                "TNR (USD)2025": 14751854.078769118,
                "STN (USD)2025": 10683049.007310588,
                "TIE (USD)2025": 2153806.3002709355,
                "TIR (USD)2025": 17718589.571906019,
                "STI (USD)2025": 15564783.271635083,
                "Saldo del Turismo Receptivo (USD)2023": 32470443.650675137,
                "Saldo del Turismo Emisivo (USD)2023": 6222611.3717294661,
                "Saldo del Turismo (USD)2023": 26247832.27894567,
                "ingresos aeronáuticos 2025 USD": 749266.07202256564,
                "Ingresos no aeronáuticos 2025 USD": 5567610.6905568177,
                "PBA 2025 USD": 6316876.7625793833,
                "Impacto económico positivo": 40999684.926793031,
                "Impacto económico negativo USD": 6222611.3717294661,
                "Saldo de impactos totales (USD)": 34777073.555063568,
                "Link": "https://www.argentina.gob.ar/sites/default/files/2023/09/iset_cpc_2022.pdf"
            },
            "geometry": null
        },
        {
            "type": "Feature",
            "properties": {
                "Aeropuerto IATA": "CRD",
                "Aeropuerto": "Comodoro Rivadavia",
                "X": -67.465532794599895,
                "Y": -45.7849424865,
                "EmpleoDirecto2025": 459,
                "EmpleoIndirecto2025": 510.6834,
                "EmpleoInducido2025": 329.6997,
                "EmpleoCatalítico2025": 833.9571,
                "EmpleoAeropTotal2025": 2133.3402,
                "Beneficios al pax 2025 (USD)": 13538311.86546992,
                "Productividad (USD)2022": 235636788.03739348,
                "TNE (USD)2025": 66684846.047532097,
                "TNR (USD)2025": 84536850.62565656,
                "STN (USD)2025": 17852004.578124464,
                "TIE (USD)2025": 2519211.2016525408,
                "TIR (USD)2025": 3285057.1235664352,
                "STI (USD)2025": 765845.92191389436,
                "Saldo del Turismo Receptivo (USD)2023": 87821907.749222994,
                "Saldo del Turismo Emisivo (USD)2023": 69204057.249184638,
                "Saldo del Turismo (USD)2023": 18617850.500038356,
                "ingresos aeronáuticos 2025 USD": 1307326.9095777699,
                "Ingresos no aeronáuticos 2025 USD": 13492932.048042951,
                "PBA 2025 USD": 14800258.957620721,
                "Impacto económico positivo": 116160478.57231364,
                "Impacto económico negativo USD": 69204057.249184638,
                "Saldo de impactos totales (USD)": 46956421.323128998,
                "Link": "https://www.argentina.gob.ar/sites/default/files/2023/09/iset_crd_2022_0.pdf"
            },
            "geometry": null
        },
        {
            "type": "Feature",
            "properties": {
                "Aeropuerto IATA": "CTC",
                "Aeropuerto": "Catamarca",
                "X": -65.752710789999895,
                "Y": -28.594315545499899,
                "EmpleoDirecto2025": 164,
                "EmpleoIndirecto2025": 182.4664,
                "EmpleoInducido2025": 117.8012,
                "EmpleoCatalítico2025": 297.9716,
                "EmpleoAeropTotal2025": 762.2392,
                "Beneficios al pax 2025 (USD)": 961238.91735437443,
                "Productividad (USD)2022": 73334334.075942025,
                "TNE (USD)2025": 6417897.5866025975,
                "TNR (USD)2025": 10449675.200599173,
                "STN (USD)2025": 4031777.6139965756,
                "TIE (USD)2025": 313115.06399552658,
                "TIR (USD)2025": 802401.44322600239,
                "STI (USD)2025": 489286.37923047581,
                "Saldo del Turismo Receptivo (USD)2023": 11252076.643825175,
                "Saldo del Turismo Emisivo (USD)2023": 6731012.6505981237,
                "Saldo del Turismo (USD)2023": 4521063.9932270516,
                "ingresos aeronáuticos 2025 USD": 214895.91524935389,
                "Ingresos no aeronáuticos 2025 USD": 1308289.7079404588,
                "PBA 2025 USD": 1523185.6231898128,
                "Impacto económico positivo": 13736501.184369363,
                "Impacto económico negativo USD": 6731012.6505981237,
                "Saldo de impactos totales (USD)": 7005488.5337712392,
                "Link": null
            },
            "geometry": null
        },
        {
            "type": "Feature",
            "properties": {
                "Aeropuerto IATA": "EPA",
                "Aeropuerto": "El Palomar",
                "X": -58.6045279022999,
                "Y": -34.610235197999899,
                "EmpleoDirecto2025": 2,
                "EmpleoIndirecto2025": 2.2252,
                "EmpleoInducido2025": 1.4366,
                "EmpleoCatalítico2025": 3.6338,
                "EmpleoAeropTotal2025": 9.2956,
                "Beneficios al pax 2025 (USD)": 1455.111085361596,
                "Productividad (USD)2022": 0.0,
                "TNE (USD)2025": 0.0,
                "TNR (USD)2025": 0.0,
                "STN (USD)2025": 0.0,
                "TIE (USD)2025": 0.0,
                "TIR (USD)2025": 0.0,
                "STI (USD)2025": 0.0,
                "Saldo del Turismo Receptivo (USD)2023": 0.0,
                "Saldo del Turismo Emisivo (USD)2023": 0.0,
                "Saldo del Turismo (USD)2023": 0.0,
                "ingresos aeronáuticos 2025 USD": 9.5411030298475072,
                "Ingresos no aeronáuticos 2025 USD": 19.59517102873221,
                "PBA 2025 USD": 29.136274058579716,
                "Impacto económico positivo": 1484.2473594201756,
                "Impacto económico negativo USD": 0.0,
                "Saldo de impactos totales (USD)": 1484.2473594201756,
                "Link": null
            },
            "geometry": null
        },
        {
            "type": "Feature",
            "properties": {
                "Aeropuerto IATA": "EQS",
                "Aeropuerto": "Esquel",
                "X": -71.136651782200005,
                "Y": -42.904708310700002,
                "EmpleoDirecto2025": 123,
                "EmpleoIndirecto2025": 136.8498,
                "EmpleoInducido2025": 88.3509,
                "EmpleoCatalítico2025": 223.4787,
                "EmpleoAeropTotal2025": 571.6794,
                "Beneficios al pax 2025 (USD)": 1267967.229949079,
                "Productividad (USD)2022": 47622186.783993527,
                "TNE (USD)2025": 7890803.3562559281,
                "TNR (USD)2025": 19942893.455640506,
                "STN (USD)2025": 12052090.099384578,
                "TIE (USD)2025": 390557.27234907926,
                "TIR (USD)2025": 3527320.0606469698,
                "STI (USD)2025": 3136762.7882978907,
                "Saldo del Turismo Receptivo (USD)2023": 23470213.516287476,
                "Saldo del Turismo Emisivo (USD)2023": 8281360.6286050072,
                "Saldo del Turismo (USD)2023": 15188852.887682468,
                "ingresos aeronáuticos 2025 USD": 249756.81212900885,
                "Ingresos no aeronáuticos 2025 USD": 1566227.1951160328,
                "PBA 2025 USD": 1815984.0072450417,
                "Impacto económico positivo": 26554164.753481597,
                "Impacto económico negativo USD": 8281360.6286050072,
                "Saldo de impactos totales (USD)": 18272804.124876589,
                "Link": null
            },
            "geometry": null
        },
        {
            "type": "Feature",
            "properties": {
                "Aeropuerto IATA": "EZE",
                "Aeropuerto": "Ezeiza",
                "X": -58.542461865600004,
                "Y": -34.812287473399898,
                "EmpleoDirecto2025": 21183,
                "EmpleoIndirecto2025": 23568.2058,
                "EmpleoInducido2025": 15215.7489,
                "EmpleoCatalítico2025": 38487.3927,
                "EmpleoAeropTotal2025": 98454.3474,
                "Beneficios al pax 2025 (USD)": 704108613.56275189,
                "Productividad (USD)2022": 1323637461.7283666,
                "TNE (USD)2025": 349402943.13769299,
                "TNR (USD)2025": 297001161.85094273,
                "STN (USD)2025": -52401781.286750257,
                "TIE (USD)2025": 2543202548.5961738,
                "TIR (USD)2025": 1357195516.8327942,
                "STI (USD)2025": -1186007031.7633796,
                "Saldo del Turismo Receptivo (USD)2023": 1654196678.6837368,
                "Saldo del Turismo Emisivo (USD)2023": 2892605491.7338667,
                "Saldo del Turismo (USD)2023": -1238408813.0501299,
                "ingresos aeronáuticos 2025 USD": 468132377.32872391,
                "Ingresos no aeronáuticos 2025 USD": 2291373042.205421,
                "PBA 2025 USD": 2759505419.5341449,
                "Impacto económico positivo": 5117810711.7806339,
                "Impacto económico negativo USD": 2892605491.7338667,
                "Saldo de impactos totales (USD)": 2225205220.0467672,
                "Link": null
            },
            "geometry": null
        },
        {
            "type": "Feature",
            "properties": {
                "Aeropuerto IATA": "FDO",
                "Aeropuerto": "San Fernando",
                "X": -58.589139553000003,
                "Y": -34.453093584900003,
                "EmpleoDirecto2025": 1006,
                "EmpleoIndirecto2025": 1119.2756,
                "EmpleoInducido2025": 722.6098,
                "EmpleoCatalítico2025": 1827.8014,
                "EmpleoAeropTotal2025": 4675.6868,
                "Beneficios al pax 2025 (USD)": 148659.40239617159,
                "Productividad (USD)2022": 0.0,
                "TNE (USD)2025": 0.0,
                "TNR (USD)2025": 0.0,
                "STN (USD)2025": 0.0,
                "TIE (USD)2025": 0.0,
                "TIR (USD)2025": 0.0,
                "STI (USD)2025": 0.0,
                "Saldo del Turismo Receptivo (USD)2023": 0.0,
                "Saldo del Turismo Emisivo (USD)2023": 0.0,
                "Saldo del Turismo (USD)2023": 0.0,
                "ingresos aeronáuticos 2025 USD": 5072005.6422701729,
                "Ingresos no aeronáuticos 2025 USD": 18327682.303149272,
                "PBA 2025 USD": 23399687.945419446,
                "Impacto económico positivo": 23548347.347815618,
                "Impacto económico negativo USD": 0.0,
                "Saldo de impactos totales (USD)": 23548347.347815618,
                "Link": null
            },
            "geometry": null
        },
        {
            "type": "Feature",
            "properties": {
                "Aeropuerto IATA": "FMA",
                "Aeropuerto": "Formosa",
                "X": -58.226786455800003,
                "Y": -26.2140763278999,
                "EmpleoDirecto2025": 372,
                "EmpleoIndirecto2025": 413.8872,
                "EmpleoInducido2025": 267.2076,
                "EmpleoCatalítico2025": 675.8868,
                "EmpleoAeropTotal2025": 1728.9816,
                "Beneficios al pax 2025 (USD)": 1587746.6073678641,
                "Productividad (USD)2022": 0.0,
                "TNE (USD)2025": 11737871.310645783,
                "TNR (USD)2025": 14535709.877889024,
                "STN (USD)2025": 2797838.5672432408,
                "TIE (USD)2025": 96261.901560904967,
                "TIR (USD)2025": 663272.29959126224,
                "STI (USD)2025": 567010.39803035732,
                "Saldo del Turismo Receptivo (USD)2023": 15198982.177480286,
                "Saldo del Turismo Emisivo (USD)2023": 11834133.212206688,
                "Saldo del Turismo (USD)2023": 3364848.9652735982,
                "ingresos aeronáuticos 2025 USD": 232012.57616054767,
                "Ingresos no aeronáuticos 2025 USD": 1699628.5020017819,
                "PBA 2025 USD": 1931641.0781623297,
                "Impacto económico positivo": 18718369.863010481,
                "Impacto económico negativo USD": 11834133.212206688,
                "Saldo de impactos totales (USD)": 6884236.6508037932,
                "Link": "https://www.argentina.gob.ar/sites/default/files/2023/09/iset_fma_2022.pdf"
            },
            "geometry": null
        },
        {
            "type": "Feature",
            "properties": {
                "Aeropuerto IATA": "FTE",
                "Aeropuerto": "El Calafate",
                "X": -72.0530451841,
                "Y": -50.280348889499898,
                "EmpleoDirecto2025": 567,
                "EmpleoIndirecto2025": 630.8442,
                "EmpleoInducido2025": 407.2761,
                "EmpleoCatalítico2025": 1030.1823,
                "EmpleoAeropTotal2025": 2635.3026,
                "Beneficios al pax 2025 (USD)": 5709381.0477752201,
                "Productividad (USD)2022": 29307000.926415071,
                "TNE (USD)2025": 10321480.706604728,
                "TNR (USD)2025": 41451869.557809457,
                "STN (USD)2025": 31130388.851204731,
                "TIE (USD)2025": 4516774.8921692325,
                "TIR (USD)2025": 173296304.08065158,
                "STI (USD)2025": 168779529.18848234,
                "Saldo del Turismo Receptivo (USD)2023": 214748173.63846105,
                "Saldo del Turismo Emisivo (USD)2023": 14838255.59877396,
                "Saldo del Turismo (USD)2023": 199909918.0396871,
                "ingresos aeronáuticos 2025 USD": 2835300.7340263356,
                "Ingresos no aeronáuticos 2025 USD": 18486585.111045673,
                "PBA 2025 USD": 21321885.845072009,
                "Impacto económico positivo": 241779440.53130829,
                "Impacto económico negativo USD": 14838255.59877396,
                "Saldo de impactos totales (USD)": 226941184.93253434,
                "Link": "https://www.argentina.gob.ar/sites/default/files/2018/12/iset_fte_2021.pdf"
            },
            "geometry": null
        },
        {
            "type": "Feature",
            "properties": {
                "Aeropuerto IATA": "IGR",
                "Aeropuerto": "Iguazú",
                "X": -54.4758314486999,
                "Y": -25.734474947500001,
                "EmpleoDirecto2025": 948,
                "EmpleoIndirecto2025": 1054.7448,
                "EmpleoInducido2025": 680.9484,
                "EmpleoCatalítico2025": 1722.4212,
                "EmpleoAeropTotal2025": 4406.1144,
                "Beneficios al pax 2025 (USD)": 12718511.908824069,
                "Productividad (USD)2022": 95457386.315027535,
                "TNE (USD)2025": 84750021.452640727,
                "TNR (USD)2025": 219777323.59705979,
                "STN (USD)2025": 135027302.14441907,
                "TIE (USD)2025": 5008883.5307703158,
                "TIR (USD)2025": 46496649.443989031,
                "STI (USD)2025": 41487765.913218714,
                "Saldo del Turismo Receptivo (USD)2023": 266273973.04104882,
                "Saldo del Turismo Emisivo (USD)2023": 89758904.983411044,
                "Saldo del Turismo (USD)2023": 176515068.05763778,
                "ingresos aeronáuticos 2025 USD": 4920685.9291139496,
                "Ingresos no aeronáuticos 2025 USD": 23578775.709829286,
                "PBA 2025 USD": 28499461.638943236,
                "Impacto económico positivo": 307491946.58881611,
                "Impacto económico negativo USD": 89758904.983411044,
                "Saldo de impactos totales (USD)": 217733041.60540506,
                "Link": "https://www.argentina.gob.ar/sites/default/files/2023/09/iset_igr_2022_1.pdf"
            },
            "geometry": null
        },
        {
            "type": "Feature",
            "properties": {
                "Aeropuerto IATA": "IRJ",
                "Aeropuerto": "La Rioja",
                "X": -66.792348893600007,
                "Y": -29.3745246691999,
                "EmpleoDirecto2025": 149,
                "EmpleoIndirecto2025": 165.7774,
                "EmpleoInducido2025": 107.0267,
                "EmpleoCatalítico2025": 270.7181,
                "EmpleoAeropTotal2025": 692.5222,
                "Beneficios al pax 2025 (USD)": 1174723.056953897,
                "Productividad (USD)2022": 316011420.55381763,
                "TNE (USD)2025": 5170453.6407266678,
                "TNR (USD)2025": 8940107.4521265514,
                "STN (USD)2025": 3769653.8113998836,
                "TIE (USD)2025": 272566.94122108404,
                "TIR (USD)2025": 926205.56272657157,
                "STI (USD)2025": 653638.62150548748,
                "Saldo del Turismo Receptivo (USD)2023": 9866313.0148531236,
                "Saldo del Turismo Emisivo (USD)2023": 5443020.5819477523,
                "Saldo del Turismo (USD)2023": 4423292.4329053713,
                "ingresos aeronáuticos 2025 USD": 222539.92622459723,
                "Ingresos no aeronáuticos 2025 USD": 1302184.0961033886,
                "PBA 2025 USD": 1524724.0223279858,
                "Impacto económico positivo": 12565760.094135007,
                "Impacto económico negativo USD": 5443020.5819477523,
                "Saldo de impactos totales (USD)": 7122739.5121872546,
                "Link": "https://www.argentina.gob.ar/sites/default/files/2018/12/iset_irj_2021_0.pdf"
            },
            "geometry": null
        },
        {
            "type": "Feature",
            "properties": {
                "Aeropuerto IATA": "JUJ",
                "Aeropuerto": "Jujuy",
                "X": -65.099109424399899,
                "Y": -24.3898594023999,
                "EmpleoDirecto2025": 422,
                "EmpleoIndirecto2025": 469.5172,
                "EmpleoInducido2025": 303.1226,
                "EmpleoCatalítico2025": 766.7318,
                "EmpleoAeropTotal2025": 1961.3716,
                "Beneficios al pax 2025 (USD)": 7679856.2463050047,
                "Productividad (USD)2022": 283123450.81871808,
                "TNE (USD)2025": 62640672.892077692,
                "TNR (USD)2025": 78999812.378518701,
                "STN (USD)2025": 16359139.486441009,
                "TIE (USD)2025": 1630981.3008179946,
                "TIR (USD)2025": 5719590.7194322934,
                "STI (USD)2025": 4088609.418614299,
                "Saldo del Turismo Receptivo (USD)2023": 84719403.097950995,
                "Saldo del Turismo Emisivo (USD)2023": 64271654.192895688,
                "Saldo del Turismo (USD)2023": 20447748.905055307,
                "ingresos aeronáuticos 2025 USD": 880741.66319606057,
                "Ingresos no aeronáuticos 2025 USD": 6431415.7729649441,
                "PBA 2025 USD": 7312157.4361610049,
                "Impacto económico positivo": 99711416.78041701,
                "Impacto económico negativo USD": 64271654.192895688,
                "Saldo de impactos totales (USD)": 35439762.587521322,
                "Link": null
            },
            "geometry": null
        },
        {
            "type": "Feature",
            "properties": {
                "Aeropuerto IATA": "LGS",
                "Aeropuerto": "Malargüe",
                "X": -69.580199225200005,
                "Y": -35.486410589400002,
                "EmpleoDirecto2025": 57,
                "EmpleoIndirecto2025": 63.4182,
                "EmpleoInducido2025": 40.9431,
                "EmpleoCatalítico2025": 103.5633,
                "EmpleoAeropTotal2025": 264.9246,
                "Beneficios al pax 2025 (USD)": 67.865738148624743,
                "Productividad (USD)2022": 0.0,
                "TNE (USD)2025": 761.22353848874025,
                "TNR (USD)2025": 3806.1176924437013,
                "STN (USD)2025": 3044.894153954961,
                "TIE (USD)2025": 0.0,
                "TIR (USD)2025": 59510.275985443739,
                "STI (USD)2025": 59510.275985443739,
                "Saldo del Turismo Receptivo (USD)2023": 63316.393677887441,
                "Saldo del Turismo Emisivo (USD)2023": 761.22353848874025,
                "Saldo del Turismo (USD)2023": 62555.170139398702,
                "ingresos aeronáuticos 2025 USD": 828.12934028153973,
                "Ingresos no aeronáuticos 2025 USD": 43300.099667750437,
                "PBA 2025 USD": 44128.22900803198,
                "Impacto económico positivo": 107512.48842406805,
                "Impacto económico negativo USD": 761.22353848874025,
                "Saldo de impactos totales (USD)": 106751.26488557931,
                "Link": null
            },
            "geometry": null
        },
        {
            "type": "Feature",
            "properties": {
                "Aeropuerto IATA": "LUQ",
                "Aeropuerto": "San Luis",
                "X": -66.3562805328,
                "Y": -33.2730870448,
                "EmpleoDirecto2025": 213,
                "EmpleoIndirecto2025": 236.9838,
                "EmpleoInducido2025": 152.9979,
                "EmpleoCatalítico2025": 386.9997,
                "EmpleoAeropTotal2025": 989.9814,
                "Beneficios al pax 2025 (USD)": 852419.36429047189,
                "Productividad (USD)2022": 518088453.9484942,
                "TNE (USD)2025": 7421886.0823435308,
                "TNR (USD)2025": 11652630.927169092,
                "STN (USD)2025": 4230744.8448255612,
                "TIE (USD)2025": 641385.11317430739,
                "TIR (USD)2025": 1616144.1037647,
                "STI (USD)2025": 974758.99059039261,
                "Saldo del Turismo Receptivo (USD)2023": 13268775.030933792,
                "Saldo del Turismo Emisivo (USD)2023": 8063271.195517838,
                "Saldo del Turismo (USD)2023": 5205503.8354159538,
                "ingresos aeronáuticos 2025 USD": 152858.71029400901,
                "Ingresos no aeronáuticos 2025 USD": 546018.94268495298,
                "PBA 2025 USD": 698877.65297896205,
                "Impacto económico positivo": 14820072.048203226,
                "Impacto económico negativo USD": 8063271.195517838,
                "Saldo de impactos totales (USD)": 6756800.8526853882,
                "Link": null
            },
            "geometry": null
        },
        {
            "type": "Feature",
            "properties": {
                "Aeropuerto IATA": "MDQ",
                "Aeropuerto": "Mar del Plata",
                "X": -57.574044997900003,
                "Y": -37.9321130177999,
                "EmpleoDirecto2025": 341,
                "EmpleoIndirecto2025": 379.3966,
                "EmpleoInducido2025": 244.9403,
                "EmpleoCatalítico2025": 619.5629,
                "EmpleoAeropTotal2025": 1584.8998,
                "Beneficios al pax 2025 (USD)": 3785625.1406689482,
                "Productividad (USD)2022": 454509834.99591219,
                "TNE (USD)2025": 31123991.180489458,
                "TNR (USD)2025": 49233892.199352816,
                "STN (USD)2025": 18109901.018863358,
                "TIE (USD)2025": 2766263.7493810989,
                "TIR (USD)2025": 9032886.8433667887,
                "STI (USD)2025": 6266623.0939856898,
                "Saldo del Turismo Receptivo (USD)2023": 58266779.042719603,
                "Saldo del Turismo Emisivo (USD)2023": 33890254.929870561,
                "Saldo del Turismo (USD)2023": 24376524.112849042,
                "ingresos aeronáuticos 2025 USD": 842457.93788769399,
                "Ingresos no aeronáuticos 2025 USD": 4223677.9538984792,
                "PBA 2025 USD": 5066135.891786173,
                "Impacto económico positivo": 67118540.075174719,
                "Impacto económico negativo USD": 33890254.929870561,
                "Saldo de impactos totales (USD)": 33228285.145304158,
                "Link": "https://www.argentina.gob.ar/sites/default/files/2018/12/iset_mdq_2021_v2.pdf"
            },
            "geometry": null
        },
        {
            "type": "Feature",
            "properties": {
                "Aeropuerto IATA": "MDZ",
                "Aeropuerto": "Mendoza",
                "X": -68.7938610498,
                "Y": -32.830402840700003,
                "EmpleoDirecto2025": 1579,
                "EmpleoIndirecto2025": 1756.7954,
                "EmpleoInducido2025": 1134.1957,
                "EmpleoCatalítico2025": 2868.8851,
                "EmpleoAeropTotal2025": 7338.8762,
                "Beneficios al pax 2025 (USD)": 44419929.873048387,
                "Productividad (USD)2022": 1027798315.4461551,
                "TNE (USD)2025": 158893492.54432151,
                "TNR (USD)2025": 215250714.32218674,
                "STN (USD)2025": 56357221.777865231,
                "TIE (USD)2025": 111874312.15242037,
                "TIR (USD)2025": 129095197.14716345,
                "STI (USD)2025": 17220884.994743079,
                "Saldo del Turismo Receptivo (USD)2023": 344345911.46935022,
                "Saldo del Turismo Emisivo (USD)2023": 270767804.69674188,
                "Saldo del Turismo (USD)2023": 73578106.77260834,
                "ingresos aeronáuticos 2025 USD": 25307211.383830681,
                "Ingresos no aeronáuticos 2025 USD": 255017753.1534254,
                "PBA 2025 USD": 280324964.53725606,
                "Impacto económico positivo": 669090805.87965465,
                "Impacto económico negativo USD": 270767804.69674188,
                "Saldo de impactos totales (USD)": 398323001.18291277,
                "Link": "https://www.argentina.gob.ar/sites/default/files/2018/12/iset_mdz_2021_0_0.pdf"
            },
            "geometry": null
        },
        {
            "type": "Feature",
            "properties": {
                "Aeropuerto IATA": "NQN",
                "Aeropuerto": "Neuquén",
                "X": -68.154436188299897,
                "Y": -38.948946217299898,
                "EmpleoDirecto2025": 808,
                "EmpleoIndirecto2025": 898.9808,
                "EmpleoInducido2025": 580.3864,
                "EmpleoCatalítico2025": 1468.0552,
                "EmpleoAeropTotal2025": 3755.4224,
                "Beneficios al pax 2025 (USD)": 23415584.258193959,
                "Productividad (USD)2022": 420981553.17889863,
                "TNE (USD)2025": 45746886.289422564,
                "TNR (USD)2025": 41438864.988248318,
                "STN (USD)2025": -4308021.3011742458,
                "TIE (USD)2025": 8820147.7165294681,
                "TIR (USD)2025": 17848321.973554287,
                "STI (USD)2025": 9028174.257024819,
                "Saldo del Turismo Receptivo (USD)2023": 59287186.961802602,
                "Saldo del Turismo Emisivo (USD)2023": 54567034.00595203,
                "Saldo del Turismo (USD)2023": 4720152.9558505714,
                "ingresos aeronáuticos 2025 USD": 4053270.3297633305,
                "Ingresos no aeronáuticos 2025 USD": 20446799.788390525,
                "PBA 2025 USD": 24500070.118153855,
                "Impacto económico positivo": 107202841.33815041,
                "Impacto económico negativo USD": 54567034.00595203,
                "Saldo de impactos totales (USD)": 52635807.332198381,
                "Link": "https://www.argentina.gob.ar/sites/default/files/2023/09/iset_nqn_2022.pdf"
            },
            "geometry": null
        },
        {
            "type": "Feature",
            "properties": {
                "Aeropuerto IATA": "PMY",
                "Aeropuerto": "Puerto Madryn",
                "X": -65.103519789499899,
                "Y": -42.758812708800001,
                "EmpleoDirecto2025": 204,
                "EmpleoIndirecto2025": 226.9704,
                "EmpleoInducido2025": 146.5332,
                "EmpleoCatalítico2025": 370.6476,
                "EmpleoAeropTotal2025": 948.1512,
                "Beneficios al pax 2025 (USD)": 1797472.9957714491,
                "Productividad (USD)2022": 0.0,
                "TNE (USD)2025": 10440819.374519313,
                "TNR (USD)2025": 20572674.330160715,
                "STN (USD)2025": 10131854.955641402,
                "TIE (USD)2025": 217947.02168860927,
                "TIR (USD)2025": 2744466.9063105509,
                "STI (USD)2025": 2526519.8846219415,
                "Saldo del Turismo Receptivo (USD)2023": 23317141.236471266,
                "Saldo del Turismo Emisivo (USD)2023": 10658766.396207921,
                "Saldo del Turismo (USD)2023": 12658374.840263344,
                "ingresos aeronáuticos 2025 USD": 355980.31876017002,
                "Ingresos no aeronáuticos 2025 USD": 472477.03993237606,
                "PBA 2025 USD": 828457.35869254614,
                "Impacto económico positivo": 25943071.59093526,
                "Impacto económico negativo USD": 10658766.396207921,
                "Saldo de impactos totales (USD)": 15284305.194727339,
                "Link": null
            },
            "geometry": null
        },
        {
            "type": "Feature",
            "properties": {
                "Aeropuerto IATA": "PRA",
                "Aeropuerto": "Paraná",
                "X": -60.4804791456,
                "Y": -31.7960258365,
                "EmpleoDirecto2025": 172,
                "EmpleoIndirecto2025": 191.3672,
                "EmpleoInducido2025": 123.5476,
                "EmpleoCatalítico2025": 312.5068,
                "EmpleoAeropTotal2025": 799.4216,
                "Beneficios al pax 2025 (USD)": 476964.37243406329,
                "Productividad (USD)2022": 536789125.50329083,
                "TNE (USD)2025": 3593151.7659047805,
                "TNR (USD)2025": 5061871.1365214754,
                "STN (USD)2025": 1468719.3706166949,
                "TIE (USD)2025": 230291.71788732844,
                "TIR (USD)2025": 1247410.7406277796,
                "STI (USD)2025": 1017119.0227404512,
                "Saldo del Turismo Receptivo (USD)2023": 6309281.877149255,
                "Saldo del Turismo Emisivo (USD)2023": 3823443.4837921089,
                "Saldo del Turismo (USD)2023": 2485838.3933571461,
                "ingresos aeronáuticos 2025 USD": 111437.14498234504,
                "Ingresos no aeronáuticos 2025 USD": 1036232.8613580739,
                "PBA 2025 USD": 1147670.0063404189,
                "Impacto económico positivo": 7933916.2559237368,
                "Impacto económico negativo USD": 3823443.4837921089,
                "Saldo de impactos totales (USD)": 4110472.7721316279,
                "Link": null
            },
            "geometry": null
        },
        {
            "type": "Feature",
            "properties": {
                "Aeropuerto IATA": "PSS",
                "Aeropuerto": "Posadas",
                "X": -55.971222085400001,
                "Y": -27.389104,
                "EmpleoDirecto2025": 319,
                "EmpleoIndirecto2025": 354.9194,
                "EmpleoInducido2025": 229.1377,
                "EmpleoCatalítico2025": 579.5911,
                "EmpleoAeropTotal2025": 1482.6482,
                "Beneficios al pax 2025 (USD)": 4179873.2125156792,
                "Productividad (USD)2022": 0.0,
                "TNE (USD)2025": 28936595.693435226,
                "TNR (USD)2025": 34457264.858722985,
                "STN (USD)2025": 5520669.1652877592,
                "TIE (USD)2025": 779405.09327267262,
                "TIR (USD)2025": 2718290.2758787852,
                "STI (USD)2025": 1938885.1826061127,
                "Saldo del Turismo Receptivo (USD)2023": 37175555.134601772,
                "Saldo del Turismo Emisivo (USD)2023": 29716000.786707897,
                "Saldo del Turismo (USD)2023": 7459554.3478938751,
                "ingresos aeronáuticos 2025 USD": 730469.90470830747,
                "Ingresos no aeronáuticos 2025 USD": 3721827.0260015838,
                "PBA 2025 USD": 4452296.930709891,
                "Impacto económico positivo": 45807725.277827337,
                "Impacto económico negativo USD": 29716000.786707897,
                "Saldo de impactos totales (USD)": 16091724.491119441,
                "Link": "https://www.argentina.gob.ar/sites/default/files/2023/09/iset_pss_2022.pdf"
            },
            "geometry": null
        },
        {
            "type": "Feature",
            "properties": {
                "Aeropuerto IATA": "RCU",
                "Aeropuerto": "Río Cuarto",
                "X": -64.269288258299895,
                "Y": -33.094335975699899,
                "EmpleoDirecto2025": 211,
                "EmpleoIndirecto2025": 234.7586,
                "EmpleoInducido2025": 151.5613,
                "EmpleoCatalítico2025": 383.3659,
                "EmpleoAeropTotal2025": 980.6858,
                "Beneficios al pax 2025 (USD)": 192555.50490916611,
                "Productividad (USD)2022": 180074637.37260345,
                "TNE (USD)2025": 4240526.9344022265,
                "TNR (USD)2025": 4110311.7319280198,
                "STN (USD)2025": -130215.20247420669,
                "TIE (USD)2025": 81665.520143821821,
                "TIR (USD)2025": 622539.10302819847,
                "STI (USD)2025": 540873.58288437664,
                "Saldo del Turismo Receptivo (USD)2023": 4732850.8349562185,
                "Saldo del Turismo Emisivo (USD)2023": 4322192.4545460483,
                "Saldo del Turismo (USD)2023": 410658.38041017018,
                "ingresos aeronáuticos 2025 USD": 31233.042968461086,
                "Ingresos no aeronáuticos 2025 USD": 316209.51665120834,
                "PBA 2025 USD": 347442.55961966945,
                "Impacto económico positivo": 5272848.8994850544,
                "Impacto económico negativo USD": 4322192.4545460483,
                "Saldo de impactos totales (USD)": 950656.44493900612,
                "Link": null
            },
            "geometry": null
        },
        {
            "type": "Feature",
            "properties": {
                "Aeropuerto IATA": "REL",
                "Aeropuerto": "Trelew",
                "X": -65.268698906400004,
                "Y": -43.211830378899897,
                "EmpleoDirecto2025": 306,
                "EmpleoIndirecto2025": 340.4556,
                "EmpleoInducido2025": 219.7998,
                "EmpleoCatalítico2025": 555.9714,
                "EmpleoAeropTotal2025": 1422.2268,
                "Beneficios al pax 2025 (USD)": 4269820.7769228099,
                "Productividad (USD)2022": 44255987.253336042,
                "TNE (USD)2025": 9879858.7429305203,
                "TNR (USD)2025": 14812493.906476185,
                "STN (USD)2025": 4932635.1635456644,
                "TIE (USD)2025": 2488748.6186201558,
                "TIR (USD)2025": 22597241.997192696,
                "STI (USD)2025": 20108493.378572538,
                "Saldo del Turismo Receptivo (USD)2023": 37409735.90366888,
                "Saldo del Turismo Emisivo (USD)2023": 12368607.361550676,
                "Saldo del Turismo (USD)2023": 25041128.542118207,
                "ingresos aeronáuticos 2025 USD": 337363.02930649527,
                "Ingresos no aeronáuticos 2025 USD": 4187783.4234316479,
                "PBA 2025 USD": 4525146.4527381435,
                "Impacto económico positivo": 46204703.133329839,
                "Impacto económico negativo USD": 12368607.361550676,
                "Saldo de impactos totales (USD)": 33836095.771779165,
                "Link": null
            },
            "geometry": null
        },
        {
            "type": "Feature",
            "properties": {
                "Aeropuerto IATA": "RES",
                "Aeropuerto": "Resistencia",
                "X": -59.057236735799897,
                "Y": -27.452767278100001,
                "EmpleoDirecto2025": 716,
                "EmpleoIndirecto2025": 796.6216,
                "EmpleoInducido2025": 514.3028,
                "EmpleoCatalítico2025": 1300.9004,
                "EmpleoAeropTotal2025": 3327.8248,
                "Beneficios al pax 2025 (USD)": 4152260.4129731921,
                "Productividad (USD)2022": 167573369.70656392,
                "TNE (USD)2025": 35656367.733191676,
                "TNR (USD)2025": 39285646.782988802,
                "STN (USD)2025": 3629279.0497971252,
                "TIE (USD)2025": 921558.30468251405,
                "TIR (USD)2025": 3613269.3045633412,
                "STI (USD)2025": 2691710.999880827,
                "Saldo del Turismo Receptivo (USD)2023": 42898916.087552145,
                "Saldo del Turismo Emisivo (USD)2023": 36577926.037874192,
                "Saldo del Turismo (USD)2023": 6320990.0496779531,
                "ingresos aeronáuticos 2025 USD": 557759.98871615413,
                "Ingresos no aeronáuticos 2025 USD": 3547396.1030694628,
                "PBA 2025 USD": 4105156.0917856172,
                "Impacto económico positivo": 51156332.59231095,
                "Impacto económico negativo USD": 36577926.037874192,
                "Saldo de impactos totales (USD)": 14578406.554436758,
                "Link": "https://www.argentina.gob.ar/sites/default/files/2018/12/iset_res_2021.pdf"
            },
            "geometry": null
        },
        {
            "type": "Feature",
            "properties": {
                "Aeropuerto IATA": "RGA",
                "Aeropuerto": "Río Grande",
                "X": -67.753082977099893,
                "Y": -53.777840238800003,
                "EmpleoDirecto2025": 302,
                "EmpleoIndirecto2025": 336.0052,
                "EmpleoInducido2025": 216.9266,
                "EmpleoCatalítico2025": 548.7038,
                "EmpleoAeropTotal2025": 1403.6356,
                "Beneficios al pax 2025 (USD)": 4263502.3137966013,
                "Productividad (USD)2022": 87343088.449173227,
                "TNE (USD)2025": 18530309.098685689,
                "TNR (USD)2025": 19066837.703553189,
                "STN (USD)2025": 536528.60486749932,
                "TIE (USD)2025": 619357.82254216005,
                "TIR (USD)2025": 1043494.1276975025,
                "STI (USD)2025": 424136.30515534244,
                "Saldo del Turismo Receptivo (USD)2023": 20110331.83125069,
                "Saldo del Turismo Emisivo (USD)2023": 19149666.92122785,
                "Saldo del Turismo (USD)2023": 960664.9100228399,
                "ingresos aeronáuticos 2025 USD": 330040.19118808239,
                "Ingresos no aeronáuticos 2025 USD": 7377411.4842577651,
                "PBA 2025 USD": 7707451.6754458472,
                "Impacto económico positivo": 32081285.820493139,
                "Impacto económico negativo USD": 19149666.92122785,
                "Saldo de impactos totales (USD)": 12931618.899265289,
                "Link": null
            },
            "geometry": null
        },
        {
            "type": "Feature",
            "properties": {
                "Aeropuerto IATA": "RGL",
                "Aeropuerto": "Río Gallegos",
                "X": -69.307918902599894,
                "Y": -51.608950796199899,
                "EmpleoDirecto2025": 493,
                "EmpleoIndirecto2025": 548.5118,
                "EmpleoInducido2025": 354.1219,
                "EmpleoCatalítico2025": 895.7317,
                "EmpleoAeropTotal2025": 2291.3654,
                "Beneficios al pax 2025 (USD)": 3371887.3190529039,
                "Productividad (USD)2022": 98080880.709050417,
                "TNE (USD)2025": 32590328.496732868,
                "TNR (USD)2025": 35335236.795775473,
                "STN (USD)2025": 2744908.2990426049,
                "TIE (USD)2025": 1075644.3089361594,
                "TIR (USD)2025": 1994759.6409264053,
                "STI (USD)2025": 919115.33199024596,
                "Saldo del Turismo Receptivo (USD)2023": 37329996.436701879,
                "Saldo del Turismo Emisivo (USD)2023": 33665972.805669025,
                "Saldo del Turismo (USD)2023": 3664023.6310328543,
                "ingresos aeronáuticos 2025 USD": 233352.16218177756,
                "Ingresos no aeronáuticos 2025 USD": 4278095.7659748066,
                "PBA 2025 USD": 4511447.9281565845,
                "Impacto económico positivo": 45213331.683911368,
                "Impacto económico negativo USD": 33665972.805669025,
                "Saldo de impactos totales (USD)": 11547358.878242344,
                "Link": null
            },
            "geometry": null
        },
        {
            "type": "Feature",
            "properties": {
                "Aeropuerto IATA": "RHD",
                "Aeropuerto": "Termas de Rio Hondo",
                "X": -64.937940096199895,
                "Y": -27.509027634199899,
                "EmpleoDirecto2025": 115,
                "EmpleoIndirecto2025": 127.949,
                "EmpleoInducido2025": 82.6045,
                "EmpleoCatalítico2025": 208.9435,
                "EmpleoAeropTotal2025": 534.497,
                "Beneficios al pax 2025 (USD)": 153121.49840906329,
                "Productividad (USD)2022": 11760485.283815024,
                "TNE (USD)2025": 1487463.4611812185,
                "TNR (USD)2025": 4933758.9741651611,
                "STN (USD)2025": 3446295.5129839424,
                "TIE (USD)2025": 12614.160922565436,
                "TIR (USD)2025": 1376183.3061900754,
                "STI (USD)2025": 1363569.1452675099,
                "Saldo del Turismo Receptivo (USD)2023": 6309942.2803552365,
                "Saldo del Turismo Emisivo (USD)2023": 1500077.622103784,
                "Saldo del Turismo (USD)2023": 4809864.6582514523,
                "ingresos aeronáuticos 2025 USD": 62823.252534311941,
                "Ingresos no aeronáuticos 2025 USD": 295734.87284525635,
                "PBA 2025 USD": 358558.12537956832,
                "Impacto económico positivo": 6821621.904143868,
                "Impacto económico negativo USD": 1500077.622103784,
                "Saldo de impactos totales (USD)": 5321544.2820400838,
                "Link": "https://www.argentina.gob.ar/sites/default/files/2018/12/iset_sde_rhd_2021_0_0_0_0.pdf"
            },
            "geometry": null
        },
        {
            "type": "Feature",
            "properties": {
                "Aeropuerto IATA": "ROS",
                "Aeropuerto": "Rosario",
                "X": -60.785231554699898,
                "Y": -32.9097209663,
                "EmpleoDirecto2025": 1751,
                "EmpleoIndirecto2025": 1948.1626,
                "EmpleoInducido2025": 1257.7433,
                "EmpleoCatalítico2025": 3181.3919,
                "EmpleoAeropTotal2025": 8138.2978,
                "Beneficios al pax 2025 (USD)": 18659821.83861848,
                "Productividad (USD)2022": 2420764471.1525702,
                "TNE (USD)2025": 19530170.118301269,
                "TNR (USD)2025": 9152872.4522849619,
                "STN (USD)2025": -10377297.666016307,
                "TIE (USD)2025": 94341730.394558221,
                "TIR (USD)2025": 56832769.879409976,
                "STI (USD)2025": -37508960.515148245,
                "Saldo del Turismo Receptivo (USD)2023": 65985642.331694938,
                "Saldo del Turismo Emisivo (USD)2023": 113871900.51285949,
                "Saldo del Turismo (USD)2023": -47886258.181164555,
                "ingresos aeronáuticos 2025 USD": 2363025.7080311663,
                "Ingresos no aeronáuticos 2025 USD": 21528331.133482296,
                "PBA 2025 USD": 23891356.841513462,
                "Impacto económico positivo": 108536821.01182687,
                "Impacto económico negativo USD": 113871900.51285949,
                "Saldo de impactos totales (USD)": -5335079.5010326207,
                "Link": null
            },
            "geometry": null
        },
        {
            "type": "Feature",
            "properties": {
                "Aeropuerto IATA": "RSA",
                "Aeropuerto": "La Pampa",
                "X": -64.274845073899897,
                "Y": -36.585780043100002,
                "EmpleoDirecto2025": 184,
                "EmpleoIndirecto2025": 204.7184,
                "EmpleoInducido2025": 132.1672,
                "EmpleoCatalítico2025": 334.3096,
                "EmpleoAeropTotal2025": 855.1952,
                "Beneficios al pax 2025 (USD)": 557756.43282109511,
                "Productividad (USD)2022": 143358308.4248212,
                "TNE (USD)2025": 4109456.75681963,
                "TNR (USD)2025": 5185287.1384051181,
                "STN (USD)2025": 1075830.3815854881,
                "TIE (USD)2025": 106540.90818054089,
                "TIR (USD)2025": 639587.96176011651,
                "STI (USD)2025": 533047.05357957562,
                "Saldo del Turismo Receptivo (USD)2023": 5824875.1001652349,
                "Saldo del Turismo Emisivo (USD)2023": 4215997.6650001705,
                "Saldo del Turismo (USD)2023": 1608877.4351650644,
                "ingresos aeronáuticos 2025 USD": 78698.375086672968,
                "Ingresos no aeronáuticos 2025 USD": 578193.59345650254,
                "PBA 2025 USD": 656891.96854317549,
                "Impacto económico positivo": 7039523.5015295055,
                "Impacto económico negativo USD": 4215997.6650001705,
                "Saldo de impactos totales (USD)": 2823525.836529335,
                "Link": "https://www.argentina.gob.ar/sites/default/files/2018/12/iset_rsa_2021.pdf"
            },
            "geometry": null
        },
        {
            "type": "Feature",
            "properties": {
                "Aeropuerto IATA": "SDE",
                "Aeropuerto": "Santiago del Estero",
                "X": -64.310021115799898,
                "Y": -27.766069669299899,
                "EmpleoDirecto2025": 238,
                "EmpleoIndirecto2025": 264.7988,
                "EmpleoInducido2025": 170.9554,
                "EmpleoCatalítico2025": 432.4222,
                "EmpleoAeropTotal2025": 1106.1764,
                "Beneficios al pax 2025 (USD)": 2536035.710956472,
                "Productividad (USD)2022": 202378252.21201918,
                "TNE (USD)2025": 22226883.944769781,
                "TNR (USD)2025": 27305943.314843334,
                "STN (USD)2025": 5079059.3700735532,
                "TIE (USD)2025": 730819.5124469666,
                "TIR (USD)2025": 2595738.8756192932,
                "STI (USD)2025": 1864919.3631723267,
                "Saldo del Turismo Receptivo (USD)2023": 29901682.190462627,
                "Saldo del Turismo Emisivo (USD)2023": 22957703.457216747,
                "Saldo del Turismo (USD)2023": 6943978.7332458794,
                "ingresos aeronáuticos 2025 USD": 531733.9254451833,
                "Ingresos no aeronáuticos 2025 USD": 3556777.4806545894,
                "PBA 2025 USD": 4088511.4060997725,
                "Impacto económico positivo": 36526229.30751887,
                "Impacto económico negativo USD": 22957703.457216747,
                "Saldo de impactos totales (USD)": 13568525.850302123,
                "Link": "https://www.argentina.gob.ar/sites/default/files/2018/12/iset_sde_rhd_2021_0_0_0_0.pdf"
            },
            "geometry": null
        },
        {
            "type": "Feature",
            "properties": {
                "Aeropuerto IATA": "SFN",
                "Aeropuerto": "Sauce Viejo",
                "X": -60.811801488500002,
                "Y": -31.7114170681999,
                "EmpleoDirecto2025": 310,
                "EmpleoIndirecto2025": 344.906,
                "EmpleoInducido2025": 222.673,
                "EmpleoCatalítico2025": 563.239,
                "EmpleoAeropTotal2025": 1440.818,
                "Beneficios al pax 2025 (USD)": 1783103.9359439451,
                "Productividad (USD)2022": 836384102.82366776,
                "TNE (USD)2025": 3266842.4036529898,
                "TNR (USD)2025": 3971580.3978741085,
                "STN (USD)2025": 704737.99422111874,
                "TIE (USD)2025": 1409018.9510302641,
                "TIR (USD)2025": 7950572.8716552835,
                "STI (USD)2025": 6541553.9206250198,
                "Saldo del Turismo Receptivo (USD)2023": 11922153.269529391,
                "Saldo del Turismo Emisivo (USD)2023": 4675861.3546832539,
                "Saldo del Turismo (USD)2023": 7246291.9148461372,
                "ingresos aeronáuticos 2025 USD": 208700.43967466938,
                "Ingresos no aeronáuticos 2025 USD": 1968616.4077438612,
                "PBA 2025 USD": 2177316.8474185304,
                "Impacto económico positivo": 15882574.052891865,
                "Impacto económico negativo USD": 4675861.3546832539,
                "Saldo de impactos totales (USD)": 11206712.698208611,
                "Link": null
            },
            "geometry": null
        },
        {
            "type": "Feature",
            "properties": {
                "Aeropuerto IATA": "SLA",
                "Aeropuerto": "Salta",
                "X": -65.484387244700002,
                "Y": -24.853779839000001,
                "EmpleoDirecto2025": 1074,
                "EmpleoIndirecto2025": 1194.9324,
                "EmpleoInducido2025": 771.4542,
                "EmpleoCatalítico2025": 1951.3506,
                "EmpleoAeropTotal2025": 4991.7372,
                "Beneficios al pax 2025 (USD)": 19314925.07557971,
                "Productividad (USD)2022": 210507454.12057608,
                "TNE (USD)2025": 127657218.21873541,
                "TNR (USD)2025": 190767162.22231019,
                "STN (USD)2025": 63109944.003574774,
                "TIE (USD)2025": 8595615.7259714957,
                "TIR (USD)2025": 25755879.741255529,
                "STI (USD)2025": 17160264.015284032,
                "Saldo del Turismo Receptivo (USD)2023": 216523041.96356571,
                "Saldo del Turismo Emisivo (USD)2023": 136252833.94470692,
                "Saldo del Turismo (USD)2023": 80270208.01885879,
                "ingresos aeronáuticos 2025 USD": 4029373.4870610605,
                "Ingresos no aeronáuticos 2025 USD": 37229246.168537498,
                "PBA 2025 USD": 41258619.655598558,
                "Impacto económico positivo": 277096586.69474399,
                "Impacto económico negativo USD": 136252833.94470692,
                "Saldo de impactos totales (USD)": 140843752.75003707,
                "Link": "https://www.argentina.gob.ar/sites/default/files/2018/12/iset_sla_2021_0_0_0_0.pdf"
            },
            "geometry": null
        },
        {
            "type": "Feature",
            "properties": {
                "Aeropuerto IATA": "TUC",
                "Aeropuerto": "Tucumán",
                "X": -65.102254466700003,
                "Y": -26.835503409000001,
                "EmpleoDirecto2025": 546,
                "EmpleoIndirecto2025": 607.4796,
                "EmpleoInducido2025": 392.1918,
                "EmpleoCatalítico2025": 992.0274,
                "EmpleoAeropTotal2025": 2537.6988,
                "Beneficios al pax 2025 (USD)": 15090706.840447711,
                "Productividad (USD)2022": 132733481.63215749,
                "TNE (USD)2025": 96865739.200474352,
                "TNR (USD)2025": 99124782.025466189,
                "STN (USD)2025": 2259042.8249918371,
                "TIE (USD)2025": 7639128.306747443,
                "TIR (USD)2025": 12985759.987624917,
                "STI (USD)2025": 5346631.6808774741,
                "Saldo del Turismo Receptivo (USD)2023": 112110542.0130911,
                "Saldo del Turismo Emisivo (USD)2023": 104504867.50722179,
                "Saldo del Turismo (USD)2023": 7605674.5058693141,
                "ingresos aeronáuticos 2025 USD": 2762226.597298516,
                "Ingresos no aeronáuticos 2025 USD": 11700540.443662915,
                "PBA 2025 USD": 14462767.040961431,
                "Impacto económico positivo": 141664015.89450026,
                "Impacto económico negativo USD": 104504867.50722179,
                "Saldo de impactos totales (USD)": 37159148.387278467,
                "Link": "https://www.argentina.gob.ar/sites/default/files/2023/09/iset_tuc_2022_1.pdf"
            },
            "geometry": null
        },
        {
            "type": "Feature",
            "properties": {
                "Aeropuerto IATA": "UAQ",
                "Aeropuerto": "San Juan",
                "X": -68.418775254099899,
                "Y": -31.5699102341,
                "EmpleoDirecto2025": 519,
                "EmpleoIndirecto2025": 577.4394,
                "EmpleoInducido2025": 372.7977,
                "EmpleoCatalítico2025": 942.9711,
                "EmpleoAeropTotal2025": 2412.2082,
                "Beneficios al pax 2025 (USD)": 3258844.4379704972,
                "Productividad (USD)2022": 70142557.646935403,
                "TNE (USD)2025": 30848078.752031371,
                "TNR (USD)2025": 34795475.285728998,
                "STN (USD)2025": 3947396.5336976275,
                "TIE (USD)2025": 2745368.8076371038,
                "TIR (USD)2025": 5154127.1170959976,
                "STI (USD)2025": 2408758.3094588937,
                "Saldo del Turismo Receptivo (USD)2023": 39949602.402824998,
                "Saldo del Turismo Emisivo (USD)2023": 33593447.559668474,
                "Saldo del Turismo (USD)2023": 6356154.843156524,
                "ingresos aeronáuticos 2025 USD": 537356.84795945568,
                "Ingresos no aeronáuticos 2025 USD": 2547951.3322626278,
                "PBA 2025 USD": 3085308.1802220833,
                "Impacto económico positivo": 46293755.021017581,
                "Impacto económico negativo USD": 33593447.559668474,
                "Saldo de impactos totales (USD)": 12700307.461349107,
                "Link": null
            },
            "geometry": null
        },
        {
            "type": "Feature",
            "properties": {
                "Aeropuerto IATA": "USH",
                "Aeropuerto": "Ushuaia ",
                "X": -68.308104986100005,
                "Y": -54.843586400900001,
                "EmpleoDirecto2025": 728,
                "EmpleoIndirecto2025": 809.9728,
                "EmpleoInducido2025": 522.9224,
                "EmpleoCatalítico2025": 1322.7032,
                "EmpleoAeropTotal2025": 3383.5984,
                "Beneficios al pax 2025 (USD)": 10070885.96054866,
                "Productividad (USD)2022": 10661663.824124077,
                "TNE (USD)2025": 12596409.003394168,
                "TNR (USD)2025": 48707873.350390859,
                "STN (USD)2025": 36111464.346996695,
                "TIE (USD)2025": 15532781.308524678,
                "TIR (USD)2025": 339050708.23700356,
                "STI (USD)2025": 323517926.9284789,
                "Saldo del Turismo Receptivo (USD)2023": 387758581.58739442,
                "Saldo del Turismo Emisivo (USD)2023": 28129190.311918847,
                "Saldo del Turismo (USD)2023": 359629391.27547556,
                "ingresos aeronáuticos 2025 USD": 1892431.0266180085,
                "Ingresos no aeronáuticos 2025 USD": 23944965.953480605,
                "PBA 2025 USD": 25837396.980098613,
                "Impacto económico positivo": 423666864.52804172,
                "Impacto económico negativo USD": 28129190.311918847,
                "Saldo de impactos totales (USD)": 395537674.21612287,
                "Link": "https://www.argentina.gob.ar/sites/default/files/2023/09/iset_ush_2022_0_0.pdf"
            },
            "geometry": null
        },
        {
            "type": "Feature",
            "properties": {
                "Aeropuerto IATA": "VDM",
                "Aeropuerto": "Viedma",
                "X": -62.999267214600003,
                "Y": -40.8698946722999,
                "EmpleoDirecto2025": 108,
                "EmpleoIndirecto2025": 120.1608,
                "EmpleoInducido2025": 77.5764,
                "EmpleoCatalítico2025": 196.2252,
                "EmpleoAeropTotal2025": 501.9624,
                "Beneficios al pax 2025 (USD)": 663759.30111768469,
                "Productividad (USD)2022": 38468412.0,
                "TNE (USD)2025": 5262910.6624061186,
                "TNR (USD)2025": 5713464.2170179738,
                "STN (USD)2025": 450553.55461185519,
                "TIE (USD)2025": 181387.52480977614,
                "TIR (USD)2025": 384064.64332046139,
                "STI (USD)2025": 202677.11851068525,
                "Saldo del Turismo Receptivo (USD)2023": 6097528.8603384355,
                "Saldo del Turismo Emisivo (USD)2023": 5444298.1872158945,
                "Saldo del Turismo (USD)2023": 653230.67312254105,
                "ingresos aeronáuticos 2025 USD": 71231.942634524021,
                "Ingresos no aeronáuticos 2025 USD": 797742.29635523097,
                "PBA 2025 USD": 868974.23898975505,
                "Impacto económico positivo": 7630262.4004458748,
                "Impacto económico negativo USD": 5444298.1872158945,
                "Saldo de impactos totales (USD)": 2185964.2132299803,
                "Link": null
            },
            "geometry": null
        },
        {
            "type": "Feature",
            "properties": {
                "Aeropuerto IATA": "VME",
                "Aeropuerto": "Villa Mercedes",
                "X": -65.386128104899896,
                "Y": -33.7298068286999,
                "EmpleoDirecto2025": 16,
                "EmpleoIndirecto2025": 17.8016,
                "EmpleoInducido2025": 11.4928,
                "EmpleoCatalítico2025": 29.0704,
                "EmpleoAeropTotal2025": 74.3648,
                "Beneficios al pax 2025 (USD)": 390.08530750607622,
                "Productividad (USD)2022": null,
                "TNE (USD)2025": null,
                "TNR (USD)2025": null,
                "STN (USD)2025": 0.0,
                "TIE (USD)2025": null,
                "TIR (USD)2025": null,
                "STI (USD)2025": 0.0,
                "Saldo del Turismo Receptivo (USD)2023": 0.0,
                "Saldo del Turismo Emisivo (USD)2023": 0.0,
                "Saldo del Turismo (USD)2023": 0.0,
                "ingresos aeronáuticos 2025 USD": 633.00217129386817,
                "Ingresos no aeronáuticos 2025 USD": 15666.826899566007,
                "PBA 2025 USD": 16299.829070859876,
                "Impacto económico positivo": 16689.914378365953,
                "Impacto económico negativo USD": 0.0,
                "Saldo de impactos totales (USD)": 16689.914378365953,
                "Link": null
            },
            "geometry": null
        },
        {
            "type": "Feature",
            "properties": {
                "Aeropuerto IATA": "RCQ",
                "Aeropuerto": "Reconquista",
                "X": -59.681389081699898,
                "Y": -29.210457071099899,
                "EmpleoDirecto2025": 31,
                "EmpleoIndirecto2025": 34.4906,
                "EmpleoInducido2025": 22.2673,
                "EmpleoCatalítico2025": 56.3239,
                "EmpleoAeropTotal2025": 144.0818,
                "Beneficios al pax 2025 (USD)": 3636.036498496911,
                "Productividad (USD)2022": null,
                "TNE (USD)2025": 7612.2353848874027,
                "TNR (USD)2025": 7612.2353848874027,
                "STN (USD)2025": 0.0,
                "TIE (USD)2025": null,
                "TIR (USD)2025": null,
                "STI (USD)2025": 0.0,
                "Saldo del Turismo Receptivo (USD)2023": 7612.2353848874027,
                "Saldo del Turismo Emisivo (USD)2023": 7612.2353848874027,
                "Saldo del Turismo (USD)2023": 0.0,
                "ingresos aeronáuticos 2025 USD": 12122.351648473696,
                "Ingresos no aeronáuticos 2025 USD": 633215.36144896271,
                "PBA 2025 USD": 645337.71309743635,
                "Impacto económico positivo": 656585.98498082068,
                "Impacto económico negativo USD": 7612.2353848874027,
                "Saldo de impactos totales (USD)": 648973.74959593324,
                "Link": null
            },
            "geometry": null
        },
        {
            "type": "Feature",
            "properties": {
                "Aeropuerto IATA": "COC",
                "Aeropuerto": "Concordia",
                "X": -57.997305,
                "Y": -31.2970201284,
                "EmpleoDirecto2025": 7,
                "EmpleoIndirecto2025": 7.7882,
                "EmpleoInducido2025": 5.0281,
                "EmpleoCatalítico2025": 12.7183,
                "EmpleoAeropTotal2025": 32.5346,
                "Beneficios al pax 2025 (USD)": 1806.959356763309,
                "Productividad (USD)2022": null,
                "TNE (USD)2025": null,
                "TNR (USD)2025": null,
                "STN (USD)2025": 0.0,
                "TIE (USD)2025": null,
                "TIR (USD)2025": null,
                "STI (USD)2025": 0.0,
                "Saldo del Turismo Receptivo (USD)2023": 0.0,
                "Saldo del Turismo Emisivo (USD)2023": 0.0,
                "Saldo del Turismo (USD)2023": 0.0,
                "ingresos aeronáuticos 2025 USD": 19.96161866390516,
                "Ingresos no aeronáuticos 2025 USD": 27.128033944787724,
                "PBA 2025 USD": 47.089652608692887,
                "Impacto económico positivo": 1854.0490093720018,
                "Impacto económico negativo USD": 0.0,
                "Saldo de impactos totales (USD)": 1854.0490093720018,
                "Link": null
            },
            "geometry": null
        },
        {
            "type": "Feature",
            "properties": {
                "Aeropuerto IATA": "GNR",
                "Aeropuerto": "General Roca",
                "X": -67.618892555100004,
                "Y": -38.999443251999899,
                "EmpleoDirecto2025": 7,
                "EmpleoIndirecto2025": 7.7882,
                "EmpleoInducido2025": 5.0281,
                "EmpleoCatalítico2025": 12.7183,
                "EmpleoAeropTotal2025": 32.5346,
                "Beneficios al pax 2025 (USD)": 0.0,
                "Productividad (USD)2022": null,
                "TNE (USD)2025": null,
                "TNR (USD)2025": null,
                "STN (USD)2025": 0.0,
                "TIE (USD)2025": null,
                "TIR (USD)2025": null,
                "STI (USD)2025": 0.0,
                "Saldo del Turismo Receptivo (USD)2023": 0.0,
                "Saldo del Turismo Emisivo (USD)2023": 0.0,
                "Saldo del Turismo (USD)2023": 0.0,
                "ingresos aeronáuticos 2025 USD": 82.783376877848028,
                "Ingresos no aeronáuticos 2025 USD": 156.96719574058406,
                "PBA 2025 USD": 239.7505726184321,
                "Impacto económico positivo": 239.7505726184321,
                "Impacto económico negativo USD": 0.0,
                "Saldo de impactos totales (USD)": 239.7505726184321,
                "Link": null
            },
            "geometry": null
        },
        {
            "type": "Feature",
            "properties": {
                "Aeropuerto IATA": "GPO",
                "Aeropuerto": "General Pico",
                "X": -63.759723222200002,
                "Y": -35.691260944699899,
                "EmpleoDirecto2025": 24,
                "EmpleoIndirecto2025": 26.7024,
                "EmpleoInducido2025": 17.2392,
                "EmpleoCatalítico2025": 43.6056,
                "EmpleoAeropTotal2025": 111.5472,
                "Beneficios al pax 2025 (USD)": 8259.3756835912645,
                "Productividad (USD)2022": null,
                "TNE (USD)2025": null,
                "TNR (USD)2025": null,
                "STN (USD)2025": 0.0,
                "TIE (USD)2025": null,
                "TIR (USD)2025": null,
                "STI (USD)2025": 0.0,
                "Saldo del Turismo Receptivo (USD)2023": 0.0,
                "Saldo del Turismo Emisivo (USD)2023": 0.0,
                "Saldo del Turismo (USD)2023": 0.0,
                "ingresos aeronáuticos 2025 USD": 280.93315068493149,
                "Ingresos no aeronáuticos 2025 USD": 130176.36756891453,
                "PBA 2025 USD": 130457.30071959946,
                "Impacto económico positivo": 138716.67640319071,
                "Impacto económico negativo USD": 0.0,
                "Saldo de impactos totales (USD)": 138716.67640319071,
                "Link": null
            },
            "geometry": null
        },
        {
            "type": "Feature",
            "properties": {
                "Aeropuerto IATA": "JNI",
                "Aeropuerto": "Junin",
                "X": -60.930123580599897,
                "Y": -34.545676024300001,
                "EmpleoDirecto2025": 15,
                "EmpleoIndirecto2025": 16.689,
                "EmpleoInducido2025": 10.7745,
                "EmpleoCatalítico2025": 27.2535,
                "EmpleoAeropTotal2025": 69.717,
                "Beneficios al pax 2025 (USD)": 0.0,
                "Productividad (USD)2022": null,
                "TNE (USD)2025": null,
                "TNR (USD)2025": null,
                "STN (USD)2025": 0.0,
                "TIE (USD)2025": null,
                "TIR (USD)2025": null,
                "STI (USD)2025": 0.0,
                "Saldo del Turismo Receptivo (USD)2023": 0.0,
                "Saldo del Turismo Emisivo (USD)2023": 0.0,
                "Saldo del Turismo (USD)2023": 0.0,
                "ingresos aeronáuticos 2025 USD": 3.7321822357420227,
                "Ingresos no aeronáuticos 2025 USD": 25.172075024942323,
                "PBA 2025 USD": 28.904257260684346,
                "Impacto económico positivo": 28.904257260684346,
                "Impacto económico negativo USD": 0.0,
                "Saldo de impactos totales (USD)": 28.904257260684346,
                "Link": null
            },
            "geometry": null
        },
        {
            "type": "Feature",
            "properties": {
                "Aeropuerto IATA": "LPG",
                "Aeropuerto": "La Plata",
                "X": -57.895380790300003,
                "Y": -34.976109331099899,
                "EmpleoDirecto2025": 5,
                "EmpleoIndirecto2025": 5.563,
                "EmpleoInducido2025": 3.5915,
                "EmpleoCatalítico2025": 9.0845,
                "EmpleoAeropTotal2025": 23.239,
                "Beneficios al pax 2025 (USD)": 0.0,
                "Productividad (USD)2022": null,
                "TNE (USD)2025": null,
                "TNR (USD)2025": null,
                "STN (USD)2025": 0.0,
                "TIE (USD)2025": null,
                "TIR (USD)2025": null,
                "STI (USD)2025": 0.0,
                "Saldo del Turismo Receptivo (USD)2023": 0.0,
                "Saldo del Turismo Emisivo (USD)2023": 0.0,
                "Saldo del Turismo (USD)2023": 0.0,
                "ingresos aeronáuticos 2025 USD": 47.664934236029907,
                "Ingresos no aeronáuticos 2025 USD": 34.295221648757789,
                "PBA 2025 USD": 81.960155884787696,
                "Impacto económico positivo": 81.960155884787696,
                "Impacto económico negativo USD": 0.0,
                "Saldo de impactos totales (USD)": 81.960155884787696,
                "Link": null
            },
            "geometry": null
        },
        {
            "type": "Feature",
            "properties": {
                "Aeropuerto IATA": "NEC",
                "Aeropuerto": "Necochea",
                "X": -58.813893876800002,
                "Y": -38.489014031300002,
                "EmpleoDirecto2025": 5,
                "EmpleoIndirecto2025": 5.563,
                "EmpleoInducido2025": 3.5915,
                "EmpleoCatalítico2025": 9.0845,
                "EmpleoAeropTotal2025": 23.239,
                "Beneficios al pax 2025 (USD)": 0.0,
                "Productividad (USD)2022": null,
                "TNE (USD)2025": null,
                "TNR (USD)2025": null,
                "STN (USD)2025": 0.0,
                "TIE (USD)2025": null,
                "TIR (USD)2025": null,
                "STI (USD)2025": 0.0,
                "Saldo del Turismo Receptivo (USD)2023": 0.0,
                "Saldo del Turismo Emisivo (USD)2023": 0.0,
                "Saldo del Turismo (USD)2023": 0.0,
                "ingresos aeronáuticos 2025 USD": 16.272896889911351,
                "Ingresos no aeronáuticos 2025 USD": 36.80959760636874,
                "PBA 2025 USD": 53.082494496280091,
                "Impacto económico positivo": 53.082494496280091,
                "Impacto económico negativo USD": 0.0,
                "Saldo de impactos totales (USD)": 53.082494496280091,
                "Link": null
            },
            "geometry": null
        },
        {
            "type": "Feature",
            "properties": {
                "Aeropuerto IATA": "RYO",
                "Aeropuerto": "El Turbio/28 de Noviembre",
                "X": -72.223713739900006,
                "Y": -51.604785792999898,
                "EmpleoDirecto2025": 5,
                "EmpleoIndirecto2025": 5.563,
                "EmpleoInducido2025": 3.5915,
                "EmpleoCatalítico2025": 9.0845,
                "EmpleoAeropTotal2025": 23.239,
                "Beneficios al pax 2025 (USD)": 0.0,
                "Productividad (USD)2022": null,
                "TNE (USD)2025": null,
                "TNR (USD)2025": null,
                "STN (USD)2025": 0.0,
                "TIE (USD)2025": null,
                "TIR (USD)2025": null,
                "STI (USD)2025": 0.0,
                "Saldo del Turismo Receptivo (USD)2023": 0.0,
                "Saldo del Turismo Emisivo (USD)2023": 0.0,
                "Saldo del Turismo (USD)2023": 0.0,
                "ingresos aeronáuticos 2025 USD": 26.581177042170161,
                "Ingresos no aeronáuticos 2025 USD": 56.254611772781281,
                "PBA 2025 USD": 82.835788814951442,
                "Impacto económico positivo": 82.835788814951442,
                "Impacto económico negativo USD": 0.0,
                "Saldo de impactos totales (USD)": 82.835788814951442,
                "Link": null
            },
            "geometry": null
        },
        {
            "type": "Feature",
            "properties": {
                "Aeropuerto IATA": "SST",
                "Aeropuerto": "Santa Teresita",
                "X": -56.720305778099899,
                "Y": -36.542573415100001,
                "EmpleoDirecto2025": 5,
                "EmpleoIndirecto2025": 5.563,
                "EmpleoInducido2025": 3.5915,
                "EmpleoCatalítico2025": 9.0845,
                "EmpleoAeropTotal2025": 23.239,
                "Beneficios al pax 2025 (USD)": 0.0,
                "Productividad (USD)2022": null,
                "TNE (USD)2025": null,
                "TNR (USD)2025": null,
                "STN (USD)2025": 0.0,
                "TIE (USD)2025": null,
                "TIR (USD)2025": null,
                "STI (USD)2025": 0.0,
                "Saldo del Turismo Receptivo (USD)2023": 0.0,
                "Saldo del Turismo Emisivo (USD)2023": 0.0,
                "Saldo del Turismo (USD)2023": 0.0,
                "ingresos aeronáuticos 2025 USD": 6.293872187991969,
                "Ingresos no aeronáuticos 2025 USD": 15.836678063046389,
                "PBA 2025 USD": 22.130550251038358,
                "Impacto económico positivo": 22.130550251038358,
                "Impacto económico negativo USD": 0.0,
                "Saldo de impactos totales (USD)": 22.130550251038358,
                "Link": null
            },
            "geometry": null
        },
        {
            "type": "Feature",
            "properties": {
                "Aeropuerto IATA": "TDL",
                "Aeropuerto": "Tandil",
                "X": -59.228812894400001,
                "Y": -37.236220579799898,
                "EmpleoDirecto2025": 5,
                "EmpleoIndirecto2025": 5.563,
                "EmpleoInducido2025": 3.5915,
                "EmpleoCatalítico2025": 9.0845,
                "EmpleoAeropTotal2025": 23.239,
                "Beneficios al pax 2025 (USD)": 11676.898136964141,
                "Productividad (USD)2022": null,
                "TNE (USD)2025": null,
                "TNR (USD)2025": null,
                "STN (USD)2025": 0.0,
                "TIE (USD)2025": null,
                "TIR (USD)2025": null,
                "STI (USD)2025": 0.0,
                "Saldo del Turismo Receptivo (USD)2023": 0.0,
                "Saldo del Turismo Emisivo (USD)2023": 0.0,
                "Saldo del Turismo (USD)2023": 0.0,
                "ingresos aeronáuticos 2025 USD": 118.86368470684397,
                "Ingresos no aeronáuticos 2025 USD": 35.986184968560316,
                "PBA 2025 USD": 154.84986967540428,
                "Impacto económico positivo": 11831.748006639546,
                "Impacto económico negativo USD": 0.0,
                "Saldo de impactos totales (USD)": 11831.748006639546,
                "Link": null
            },
            "geometry": null
        },
        {
            "type": "Feature",
            "properties": {
                "Aeropuerto IATA": "TTG",
                "Aeropuerto": "Tartagal",
                "X": -63.79372687,
                "Y": -22.6186382952,
                "EmpleoDirecto2025": 5,
                "EmpleoIndirecto2025": 5.563,
                "EmpleoInducido2025": 3.5915,
                "EmpleoCatalítico2025": 9.0845,
                "EmpleoAeropTotal2025": 23.239,
                "Beneficios al pax 2025 (USD)": 12820.69210724675,
                "Productividad (USD)2022": null,
                "TNE (USD)2025": null,
                "TNR (USD)2025": null,
                "STN (USD)2025": 0.0,
                "TIE (USD)2025": null,
                "TIR (USD)2025": null,
                "STI (USD)2025": 0.0,
                "Saldo del Turismo Receptivo (USD)2023": 0.0,
                "Saldo del Turismo Emisivo (USD)2023": 0.0,
                "Saldo del Turismo (USD)2023": 0.0,
                "ingresos aeronáuticos 2025 USD": 78.885362163156785,
                "Ingresos no aeronáuticos 2025 USD": 119.26022439111449,
                "PBA 2025 USD": 198.14558655427129,
                "Impacto económico positivo": 13018.837693801022,
                "Impacto económico negativo USD": 0.0,
                "Saldo de impactos totales (USD)": 13018.837693801022,
                "Link": null
            },
            "geometry": null
        },
        {
            "type": "Feature",
            "properties": {
                "Aeropuerto IATA": "VLG",
                "Aeropuerto": "Villa Gesell",
                "X": -57.029123948100001,
                "Y": -37.234915202499899,
                "EmpleoDirecto2025": 21,
                "EmpleoIndirecto2025": 23.3646,
                "EmpleoInducido2025": 15.0843,
                "EmpleoCatalítico2025": 38.1549,
                "EmpleoAeropTotal2025": 97.6038,
                "Beneficios al pax 2025 (USD)": 1537.6867706807791,
                "Productividad (USD)2022": null,
                "TNE (USD)2025": null,
                "TNR (USD)2025": null,
                "STN (USD)2025": 0.0,
                "TIE (USD)2025": null,
                "TIR (USD)2025": null,
                "STI (USD)2025": 0.0,
                "Saldo del Turismo Receptivo (USD)2023": 0.0,
                "Saldo del Turismo Emisivo (USD)2023": 0.0,
                "Saldo del Turismo (USD)2023": 0.0,
                "ingresos aeronáuticos 2025 USD": 113.53794965946729,
                "Ingresos no aeronáuticos 2025 USD": 109.51017797400462,
                "PBA 2025 USD": 223.04812763347189,
                "Impacto económico positivo": 1760.734898314251,
                "Impacto económico negativo USD": 0.0,
                "Saldo de impactos totales (USD)": 1760.734898314251,
                "Link": null
            },
            "geometry": null
        },
        {
            "type": "Feature",
            "properties": {
                "Aeropuerto IATA": "PMQ",
                "Aeropuerto": "Perito Moreno",
                "X": -70.978272072899898,
                "Y": -46.5379547665,
                "EmpleoDirecto2025": 5,
                "EmpleoIndirecto2025": 5.563,
                "EmpleoInducido2025": 3.5915,
                "EmpleoCatalítico2025": 9.0845,
                "EmpleoAeropTotal2025": 23.239,
                "Beneficios al pax 2025 (USD)": 130857.3700609097,
                "Productividad (USD)2022": null,
                "TNE (USD)2025": null,
                "TNR (USD)2025": null,
                "STN (USD)2025": 0.0,
                "TIE (USD)2025": null,
                "TIR (USD)2025": null,
                "STI (USD)2025": 0.0,
                "Saldo del Turismo Receptivo (USD)2023": 0.0,
                "Saldo del Turismo Emisivo (USD)2023": 0.0,
                "Saldo del Turismo (USD)2023": 0.0,
                "ingresos aeronáuticos 2025 USD": 663.04389727169291,
                "Ingresos no aeronáuticos 2025 USD": 412.56157241276242,
                "PBA 2025 USD": 1075.6054696844553,
                "Impacto económico positivo": 131932.97553059415,
                "Impacto económico negativo USD": 0.0,
                "Saldo de impactos totales (USD)": 131932.97553059415,
                "Link": null
            },
            "geometry": null
        },
        {
            "type": "Feature",
            "properties": {
                "Aeropuerto IATA": "RLO",
                "Aeropuerto": "Valle del Conlara/Merlo",
                "X": -65.1857694216,
                "Y": -32.384382170400002,
                "EmpleoDirecto2025": 27,
                "EmpleoIndirecto2025": 30.0402,
                "EmpleoInducido2025": 19.3941,
                "EmpleoCatalítico2025": 49.0563,
                "EmpleoAeropTotal2025": 125.4906,
                "Beneficios al pax 2025 (USD)": 72561.828501548531,
                "Productividad (USD)2022": null,
                "TNE (USD)2025": 411031.64059968939,
                "TNR (USD)2025": 1248045.3022603856,
                "STN (USD)2025": 837013.66166069615,
                "TIE (USD)2025": 80555.747451078292,
                "TIR (USD)2025": 305882.81856518082,
                "STI (USD)2025": 225327.07111410252,
                "Saldo del Turismo Receptivo (USD)2023": 1553928.1208255664,
                "Saldo del Turismo Emisivo (USD)2023": 491587.38805076771,
                "Saldo del Turismo (USD)2023": 1062340.7327747988,
                "ingresos aeronáuticos 2025 USD": 5569.1902540427263,
                "Ingresos no aeronáuticos 2025 USD": 135.78126754368876,
                "PBA 2025 USD": 5704.9715215864153,
                "Impacto económico positivo": 1632194.9208487014,
                "Impacto económico negativo USD": 491587.38805076771,
                "Saldo de impactos totales (USD)": 1140607.5327979336,
                "Link": null
            },
            "geometry": null
        },
        {
            "type": "Feature",
            "properties": {
                "Aeropuerto IATA": null,
                "Aeropuerto": null,
                "X": null,
                "Y": null,
                "EmpleoDirecto2025": null,
                "EmpleoIndirecto2025": null,
                "EmpleoInducido2025": null,
                "EmpleoCatalítico2025": null,
                "EmpleoAeropTotal2025": null,
                "Beneficios al pax 2025 (USD)": null,
                "Productividad (USD)2022": null,
                "TNE (USD)2025": null,
                "TNR (USD)2025": null,
                "STN (USD)2025": null,
                "TIE (USD)2025": null,
                "TIR (USD)2025": null,
                "STI (USD)2025": null,
                "Saldo del Turismo Receptivo (USD)2023": null,
                "Saldo del Turismo Emisivo (USD)2023": null,
                "Saldo del Turismo (USD)2023": null,
                "ingresos aeronáuticos 2025 USD": null,
                "Ingresos no aeronáuticos 2025 USD": null,
                "PBA 2025 USD": null,
                "Impacto económico positivo": null,
                "Impacto económico negativo USD": null,
                "Saldo de impactos totales (USD)": null,
                "Link": null
            },
            "geometry": null
        },
        {
            "type": "Feature",
            "properties": {
                "Aeropuerto IATA": null,
                "Aeropuerto": null,
                "X": null,
                "Y": null,
                "EmpleoDirecto2025": null,
                "EmpleoIndirecto2025": null,
                "EmpleoInducido2025": null,
                "EmpleoCatalítico2025": null,
                "EmpleoAeropTotal2025": null,
                "Beneficios al pax 2025 (USD)": null,
                "Productividad (USD)2022": null,
                "TNE (USD)2025": null,
                "TNR (USD)2025": null,
                "STN (USD)2025": null,
                "TIE (USD)2025": null,
                "TIR (USD)2025": null,
                "STI (USD)2025": null,
                "Saldo del Turismo Receptivo (USD)2023": null,
                "Saldo del Turismo Emisivo (USD)2023": null,
                "Saldo del Turismo (USD)2023": null,
                "ingresos aeronáuticos 2025 USD": null,
                "Ingresos no aeronáuticos 2025 USD": null,
                "PBA 2025 USD": null,
                "Impacto económico positivo": null,
                "Impacto económico negativo USD": null,
                "Saldo de impactos totales (USD)": null,
                "Link": null
            },
            "geometry": null
        },
        {
            "type": "Feature",
            "properties": {
                "Aeropuerto IATA": null,
                "Aeropuerto": null,
                "X": null,
                "Y": null,
                "EmpleoDirecto2025": null,
                "EmpleoIndirecto2025": null,
                "EmpleoInducido2025": null,
                "EmpleoCatalítico2025": null,
                "EmpleoAeropTotal2025": null,
                "Beneficios al pax 2025 (USD)": null,
                "Productividad (USD)2022": null,
                "TNE (USD)2025": null,
                "TNR (USD)2025": null,
                "STN (USD)2025": null,
                "TIE (USD)2025": null,
                "TIR (USD)2025": null,
                "STI (USD)2025": null,
                "Saldo del Turismo Receptivo (USD)2023": null,
                "Saldo del Turismo Emisivo (USD)2023": null,
                "Saldo del Turismo (USD)2023": null,
                "ingresos aeronáuticos 2025 USD": null,
                "Ingresos no aeronáuticos 2025 USD": null,
                "PBA 2025 USD": null,
                "Impacto económico positivo": null,
                "Impacto económico negativo USD": null,
                "Saldo de impactos totales (USD)": null,
                "Link": null
            },
            "geometry": null
        }
    ]
}
